sentence_id,sequence,parent,parent_position,child,child_position,is_root,parent_ner,child_ner,parent_pos,dependency_role,child_pos,label
1,1,tanam_1,2,bu_1,0,1,O,ORG,VB,nsubj,NNP,ARG0
1,2,bu_1,0,ani_1,1,0,ORG,PER,NNP,flat,NNP,name
1,4,tanam_1,2,bunga_1,3,1,O,O,VB,obj,NN,ARG1
2,1,tanam_1,1,bunga_1,0,1,O,O,VB,nsubj:pass,NN,ARG1
2,3,tanam_1,1,bu_1,2,1,O,O,VB,obj,NNP,ARG0
2,4,tanam_1,1,ani_1,3,1,O,LOC,VB,punct,NNP,unk
3,1,berangkat_1,2,om_1,0,1,O,ORG,VB,nsubj,NNP,ARG0
3,2,om_1,0,andi_1,1,0,ORG,PER,NNP,flat,NNP,name
3,5,berangkat_1,2,sekolah_1,4,1,O,O,VB,obl,NN,ARG1
3,6,berangkat_1,2,besok_1,5,1,O,O,VB,punct,NN,time
4,1,pergi_1,2,ibu_1,0,1,O,O,VB,nsubj,NNP,ARG0
4,2,ibu_1,0,asih_1,1,0,O,PER,NNP,flat,NNP,name
4,5,pergi_1,2,rumah_1,4,1,O,O,VB,obl,NN,location
4,6,rumah_1,4,nenek_1,5,0,O,O,NN,flat,NNP,mod
4,7,nenek_1,5,yanti_1,6,0,O,LOC,NNP,flat,NNP,name
4,8,pergi_1,2,kemarin_1,7,1,O,O,VB,punct,NN,time
5,1,pergi_1,2,kami_1,0,1,O,O,VB,nsubj,PRP,ARG0
5,2,pergi_1,2,keluarga_1,1,1,O,O,VB,advmod,NN,unk
5,4,pergi_1,2,tamasya_1,3,1,O,O,VB,xcomp,NN,ARG1
5,5,tamasya_1,3,hari_1,4,0,O,O,NN,obl,NN,ARG1
5,6,hari_1,4,minggu_1,5,0,O,DAT,NN,flat,NNP,mod
6,1,ajar_1,1,siswa_1,0,1,O,O,VB,nsubj,NN,ARG0
6,4,ajar_1,1,sekolah_1,3,1,O,O,VB,obl,NN,location
7,2,upacara_1,3,siswa_1,1,1,O,O,VB,nsubj,NN,ARG0
7,3,upacara_1,3,sedang_1,2,1,O,O,VB,advmod,MD,unk
8,1,makan_1,2,om_1,0,1,O,ORG,VB,nsubj,NNP,ARG0
8,2,om_1,0,budi_1,1,0,ORG,PER,NNP,flat,NNP,name
8,4,makan_1,2,permen_1,3,1,O,O,VB,obj,NN,ARG1
9,1,makan_1,1,permen_1,0,1,O,PER,VB,nsubj:pass,NN,ARG1
9,3,makan_1,1,om_1,2,1,O,O,VB,obj,NNP,ARG0
9,4,om_1,2,budi_1,3,0,O,NOR,NNP,flat,NNP,name
10,2,tani_1,0,tanam_1,1,1,O,O,NNP,acl,VB,unk
10,3,tanam_1,1,padi_1,2,0,O,O,VB,obj,VB,ARG1
11,1,tanam_1,1,padi_1,0,1,O,PER,NNP,nsubj:pass,NNP,ARG1
11,3,tanam_1,1,pak_1,2,1,O,O,NNP,obj,NNP,ARG1
11,4,pak_1,2,tani_1,3,0,O,LOC,NNP,flat,NNP,unk
12,1,pergi_1,1,ayah_1,0,1,O,O,VB,nsubj,NN,ARG0
12,4,pergi_1,1,kantor_1,3,1,O,O,VB,obl,NN,location
13,1,masak_1,2,ibu_1,0,1,O,O,VB,nsubj,NNP,ARG0
13,2,ibu_1,0,risna_1,1,0,O,PER,NNP,flat,NNP,name
13,4,masak_1,2,ayam_1,3,1,O,O,VB,obj,NN,ARG1
13,6,masak_1,2,dapur_1,5,1,O,O,VB,obl,NN,location
14,1,masak_1,1,ayam_1,0,1,O,PER,VB,nsubj:pass,NNP,ARG1
14,3,masak_1,1,bu_1,2,1,O,PER,VB,obj,NNP,ARG1
14,4,bu_1,2,risna_1,3,0,PER,O,NNP,flat,NNP,unk
14,6,masak_1,1,dapur_1,5,1,O,O,VB,obl,NN,location
15,1,main_1,1,adik_1,0,1,O,O,VB,nsubj,NN,ARG0
15,4,main_1,1,teman_1,3,1,O,O,VB,obl,RB,ARG1
16,2,tidur_1,2,sedang_1,1,0,O,O,VB,advmod,MD,unk
16,3,kakak_1,0,tidur_1,2,1,O,O,NN,acl,VB,unk
17,1,ajak_1,1,adik_1,0,1,O,O,NN,nsubj:pass,NN,ARG1
17,3,ajak_1,1,paman_1,2,1,O,GPE,NN,obj,NNP,ARG0
17,4,paman_1,2,nadiem_1,3,0,GPE,PER,NNP,flat,NNP,name
17,5,ajak_1,1,main_1,4,1,O,O,NN,punct,VB,mod
18,1,ajak_1,2,paman_1,0,1,O,PER,VB,nsubj,NNP,ARG0
18,2,paman_1,0,nadiem_1,1,0,PER,O,NNP,flat,NNP,name
18,4,ajak_1,2,adik_1,3,1,O,O,VB,obj,NNP,ARG1
18,5,ajak_1,2,main_1,4,1,O,O,VB,punct,VB,mod
19,1,pimpin_1,2,upacara_1,0,1,O,O,VB,nsubj:pass,NN,ARG1
19,2,upacara_1,0,tadi_1,1,0,O,O,NN,compound,NN,unk
19,4,pimpin_1,2,kepala_1,3,1,O,O,VB,obj,NN,ARG0
19,5,kepala_1,3,sekolah_1,4,0,O,O,NN,compound,NN,mod
20,1,pimpin_1,2,kepala_1,0,1,O,O,VB,nsubj,NN,ARG0
20,2,kepala_1,0,sekolah_1,1,0,O,O,NN,compound,NN,mod
20,4,pimpin_1,2,upacara_1,3,1,O,O,VB,obj,NN,ARG1
20,5,pimpin_1,2,tadi_1,4,1,O,O,VB,obl,VB,time
21,1,tonton_1,1,mereka_1,0,1,O,O,VB,nsubj,PRP,ARG0
21,3,tonton_1,1,tanding_1,2,1,O,O,VB,obj,NN,ARG1
21,4,tanding_1,2,bola_1,3,0,O,O,NN,compound,NN,mod
21,5,bola_1,3,basket_1,4,0,O,O,NN,compound,NN,mod
21,6,tanding_1,2,hari_1,5,0,O,O,NN,compound,NN,unk
22,1,tonton_1,3,tanding_1,0,1,O,O,NN,nsubj:pass,NN,ARG1
22,2,tanding_1,0,bola_1,1,0,O,O,NN,compound,NN,mod
22,3,bola_1,1,basket_1,2,0,O,O,NN,compound,NN,mod
22,5,tonton_1,3,mereka_1,4,1,O,O,NN,obj,PRP,ARG0
22,6,tonton_1,3,hari_1,5,1,O,O,NN,obl,NN,time
23,1,ajak_1,2,ibu_1,0,1,O,O,VB,nsubj,NNP,ARG0
23,2,ibu_1,0,fio_1,1,0,O,PER,NNP,flat,NNP,name
23,4,ajak_1,2,adik_1,3,1,O,O,VB,obj,NN,ARG1
23,6,ajak_1,2,pasar_1,5,1,O,O,VB,obl,NN,location
24,1,ajak_1,1,adik_1,0,1,O,O,NN,nsubj:pass,NN,ARG1
24,3,ajak_1,1,ibu_1,2,1,O,O,NN,obj,NNP,ARG0
24,4,ibu_1,2,fio_1,3,0,O,LOC,NNP,flat,NNP,name
24,6,ajak_1,1,pasar_1,5,1,O,O,NN,obl,NN,location
25,1,punya_1,2,om_1,0,1,O,ORG,VB,nsubj,NNP,ARG0
25,2,om_1,0,irwan_1,1,0,ORG,PER,NNP,flat,NNP,name
25,4,punya_1,2,sepatu_1,3,1,O,O,VB,obj,CD,ARG1
25,5,sepatu_1,3,baru_1,4,0,O,O,CD,amod,JJ,mod
26,1,punya_1,2,sepatu_1,0,1,O,PER,VB,nsubj:pass,CD,ARG1
26,2,sepatu_1,0,baru_1,1,0,PER,O,CD,amod,MD,mod
26,4,punya_1,2,om_1,3,1,O,O,VB,obj,NNP,ARG0
26,5,om_1,3,irwan_1,4,0,O,LOC,NNP,flat,NNP,name
27,2,ajar_1,2,siswa_1,1,1,O,O,VB,nsubj,NN,ARG0
27,5,ajar_1,2,rajin_1,4,1,O,O,VB,amod,NN,mod
28,2,jual_1,3,dagang_1,1,1,O,O,NN,nsubj,NN,ARG0
28,3,dagang_1,1,ramai_1,2,0,O,O,NN,amod,JJ,unk
28,6,jual_1,3,pasar_1,5,1,O,O,NN,obl,NN,location
28,7,pasar_1,5,hari_1,6,0,O,O,NN,compound,NN,unk
29,1,siap_1,2,serta_1,0,1,O,O,VB,nsubj,NN,ARG0
29,2,serta_1,0,lomba_1,1,0,O,O,NN,compound,NN,unk
29,5,siap_1,2,garis_1,4,1,O,O,VB,obl,NN,location
29,6,garis_1,4,start_1,5,0,O,O,NN,compound,FW,mod
30,1,baca_1,2,bu_1,0,1,O,ORG,VB,nsubj,NNP,ARG0
30,2,bu_1,0,anna_1,1,0,ORG,PER,NNP,flat,NNP,name
30,4,baca_1,2,buku_1,3,1,O,O,VB,obj,NN,ARG1
30,5,baca_1,2,kemarin_1,4,1,O,O,VB,punct,NN,time
31,1,baca_1,1,buku_1,0,1,O,O,NN,nsubj:pass,NN,ARG1
31,3,baca_1,1,bu_1,2,1,O,PER,NN,obj,NNP,ARG0
31,4,bu_1,2,anna_1,3,0,PER,O,NNP,flat,NNP,name
31,5,baca_1,1,kemarin_1,4,1,O,O,NN,punct,NN,time
32,1,baca_1,2,bu_1,0,1,O,ORG,VB,nsubj,NNP,ARG0
32,2,bu_1,0,anna_1,1,0,ORG,PER,NNP,flat,NNP,name
32,4,baca_1,2,buku_1,3,1,O,O,VB,obj,NN,ARG1
32,5,buku_1,3,bobo_1,4,0,O,O,NN,flat,NNP,name
33,1,baca_1,2,buku_1,0,1,O,O,NNP,nsubj:pass,NNP,ARG1
33,2,buku_1,0,bobo_1,1,0,O,O,NNP,flat,NNP,name
33,4,baca_1,2,bu_1,3,1,O,ORG,NNP,obj,NNP,ARG0
33,5,bu_1,3,anna_1,4,0,ORG,PER,NNP,flat,NNP,name
34,1,baca_1,2,bu_1,0,1,O,ORG,VB,nsubj,NNP,ARG0
34,2,bu_1,0,anna_1,1,0,ORG,PER,NNP,flat,NNP,name
34,4,baca_1,2,buku_1,3,1,O,O,VB,obj,NN,ARG1
34,5,buku_1,3,bobo_1,4,0,O,O,NN,flat,NNP,name
35,1,beli_1,1,syifa_1,0,1,O,O,VB,nsubj,NNP,ARG0
35,3,beli_1,1,roti_1,2,1,O,ORG,VB,obj,NNP,ARG1
35,4,roti_1,2,jaya_1,3,0,ORG,NOR,NNP,flat,NNP,name
36,1,beli_1,2,roti_1,0,1,O,ORG,VB,nsubj:pass,NNP,ARG1
36,2,roti_1,0,jaya_1,1,0,ORG,PER,NNP,flat,NNP,name
36,4,beli_1,2,syifa_1,3,1,O,O,VB,obj,NNP,ARG0
37,1,pergi_1,2,tante_1,0,1,O,PER,VB,nsubj,NNP,ARG0
37,2,tante_1,0,syifa_1,1,0,PER,O,NNP,flat,NNP,name
37,5,pergi_1,2,salon_1,4,1,O,O,VB,obl,NN,location
37,6,salon_1,4,lutuye_1,5,0,O,LOC,NN,flat,NNP,name
38,1,kena_1,1,zulia_1,0,1,O,PER,VB,nsubj,NNP,ARG0
38,3,kena_1,1,baju_1,2,1,O,O,VB,obj,NN,ARG1
38,4,baju_1,2,merah_1,3,0,O,O,NN,amod,JJ,mod
39,1,kena_1,2,baju_1,0,1,O,O,VB,nsubj:pass,NN,ARG1
39,2,baju_1,0,merah_1,1,0,O,O,NN,amod,JJ,mod
39,4,kena_1,2,zulia_1,3,1,O,O,VB,obj,NNP,ARG0
40,1,cetak_1,1,mereka_1,0,1,O,O,VB,nsubj,PRP,ARG0
40,3,cetak_1,1,gol_1,2,1,O,O,VB,obj,NN,ARG1
40,5,gol_1,2,gawang_1,4,0,O,O,NN,nmod,NN,unk
40,6,gawang_1,4,lawan_1,5,0,O,O,NN,compound,NN,mod
41,1,cetak_1,4,gol_1,0,1,O,O,NN,nsubj:pass,NNP,ARG1
41,3,gol_1,0,gawang_1,2,0,O,O,NNP,nmod,NN,unk
41,4,gawang_1,2,lawan_1,3,0,O,O,NN,compound,NN,mod
41,6,cetak_1,4,mereka_1,5,1,O,O,NN,obj,PRP,ARG0
42,1,laku_1,1,mereka_1,0,1,O,O,VB,nsubj,PRP,ARG0
42,3,laku_1,1,selebrasi_1,2,1,O,O,VB,obj,NN,ARG1
43,1,laku_1,1,selebrasi_1,0,1,O,O,VB,nsubj:pass,NN,ARG1
43,3,laku_1,1,mereka_1,2,1,O,O,VB,obj,PRP,ARG0
44,1,sambut_1,1,tonton_1,0,1,O,O,VB,nsubj,NNP,ARG0
44,3,sambut_1,1,pak_1,2,1,O,ORG,VB,obj,NNP,ARG1
44,4,pak_1,2,budi_1,3,0,ORG,PER,NNP,flat,NNP,name
44,6,sambut_1,1,riuh_1,5,1,O,O,VB,obl,JJ,mod
45,1,sambut_1,2,pak_1,0,1,O,ORG,VB,nsubj:pass,NNP,ARG1
45,2,pak_1,0,budi_1,1,0,ORG,PER,NNP,flat,NNP,name
45,4,sambut_1,2,tonton_1,3,1,O,O,VB,obj,NN,ARG0
45,5,riuh_1,5,dengan_1,4,0,O,O,VB,case,SC,unk
45,6,sambut_1,2,riuh_1,5,1,O,O,VB,obl,VB,mod
46,1,mintal_1,1,ashita_1,0,1,O,PER,NN,nsubj,NN,ARG0
46,3,mintal_1,1,benang_1,2,1,O,O,NN,obj,NN,ARG1
46,4,benang_1,2,wol_1,3,0,O,O,NN,compound,JJ,mod
47,1,pintal_1,2,benang_1,0,1,O,O,NN,nsubj:pass,NN,ARG1
47,2,benang_1,0,wol_1,1,0,O,O,NN,compound,NN,mod
47,4,pintal_1,2,ashita_1,3,1,O,LOC,NN,obj,NNP,ARG0
48,1,mintal_1,1,ashita_1,0,1,O,PER,NN,nsubj,NN,ARG0
48,3,mintal_1,1,benang_1,2,1,O,O,NN,obj,NN,ARG1
48,4,benang_1,2,sutra_1,3,0,O,O,NN,compound,NN,mod
49,1,main_1,2,profesor_1,0,1,O,O,VB,nsubj,NNP,ARG0
49,2,profesor_1,0,joko_1,1,0,O,PER,NNP,flat,NNP,name
49,4,main_1,2,bola_1,3,1,O,O,VB,obj,NN,ARG1
50,1,main_1,1,bola_1,0,1,O,O,VB,nsubj:pass,NN,ARG1
50,3,main_1,1,profesor_1,2,1,O,O,VB,obj,NNP,ARG0
50,4,profesor_1,2,joko_1,3,0,O,NOR,NNP,flat,NNP,name
51,1,menang_1,2,pak_1,0,1,O,ORG,JJ,nsubj,NNP,ARG0
51,2,pak_1,0,andi_1,1,0,ORG,PER,NNP,flat,NNP,name
51,5,menang_1,2,tengah_1,4,1,O,O,JJ,obl,NN,ARG1
51,6,menang_1,2,main_1,5,1,O,O,JJ,obl,NN,ARG1
52,2,ayah_1,0,tidur_1,1,1,O,O,NN,compound,VB,unk
53,1,main_1,1,risya_1,0,1,O,PER,VB,nsubj,NNP,ARG0
53,3,main_1,1,voli_1,2,1,O,O,VB,obj,NN,ARG1
54,1,main_1,1,voli_1,0,1,O,PER,VB,nsubj:pass,NNP,ARG1
54,3,main_1,1,risya_1,2,1,O,O,VB,obj,NNP,ARG0
55,1,tendang_1,2,bola_1,0,1,O,O,VB,nsubj:pass,NN,ARG1
55,4,tendang_1,2,bos_1,3,1,O,O,VB,obj,NNP,ARG0
55,5,bos_1,3,andi_1,4,0,O,LOC,NNP,flat,NNP,name
56,1,tendang_1,2,bos_1,0,1,O,O,VB,nsubj,NNP,ARG0
56,2,bos_1,0,andi_1,1,0,O,PER,NNP,flat,NNP,name
56,4,tendang_1,2,bola_1,3,1,O,O,VB,obj,NN,ARG1
57,1,jalan_1,2,main_1,0,1,O,O,VB,nsubj,NN,ARG0
57,4,jalan_1,2,tarik_1,3,1,O,O,VB,amod,VB,mod
58,1,etik_1,1,aku_1,0,1,O,O,NN,nsubj,NN,ARG0
58,3,etik_1,1,cerita_1,2,1,O,O,NN,obj,PRP,ARG1
59,1,ketik_1,1,cerita_1,0,1,O,O,NN,nsubj:pass,NN,ARG1
59,3,ketik_1,1,aku_1,2,1,O,O,NN,obj,NN,ARG0
60,1,etik_1,1,aku_1,0,1,O,O,NN,nsubj,NN,ARG0
60,3,etik_1,1,cerita_1,2,1,O,O,NN,obj,NN,ARG1
60,4,ayah_1,4,ketika_1,3,0,O,O,NN,mark,SC,unk
60,5,etik_1,1,ayah_1,4,1,O,O,NN,advcl,NN,unk
60,6,etik_1,1,datang_1,5,1,O,O,NN,punct,VB,unk
61,1,ketik_1,1,cerita_1,0,1,O,O,NN,nsubj:pass,NN,ARG1
61,3,ketik_1,1,aku_1,2,1,O,O,NN,obj,NN,ARG0
61,4,ayah_1,4,ketika_1,3,0,O,O,NN,mark,SC,unk
61,5,ketik_1,1,ayah_1,4,1,O,O,NN,advcl,NN,unk
61,6,ketik_1,1,datang_1,5,1,O,O,NN,punct,VB,time
62,1,anak_1,2,suminah_1,0,1,O,O,NN,nsubj,MD,ARG0
62,2,anak_1,2,adalah_1,1,1,O,O,NN,cop,VB,unk
62,4,anak_1,2,dua_1,3,1,O,CRD,NN,nummod,OD,mod
63,1,manja_1,1,ia_1,0,1,O,O,NN,nsubj,PRP,ARG1
64,1,manja_1,1,ia_1,0,1,O,O,NN,nsubj:pass,PRP,ARG1
64,3,manja_1,1,orang_1,2,1,O,O,NN,obj,NN,ARG0
64,4,orang_1,2,tua_1,3,0,O,O,NN,amod,JJ,mod
65,1,manja_1,2,orang_1,0,1,O,O,VB,nsubj,NN,ARG0
65,2,orang_1,0,tua_1,1,0,O,O,NN,amod,JJ,mod
65,4,manja_1,2,ia_1,3,1,O,O,VB,obj,PRP,ARG1
66,1,benci_1,1,aku_1,0,1,O,O,VB,nsubj,NNP,ARG0
66,3,benci_1,1,tikus_1,2,1,O,O,VB,obj,NN,ARG1
67,1,benci_1,1,tikus_1,0,1,O,O,VB,nsubj:pass,NNP,ARG1
67,3,benci_1,1,aku_1,2,1,O,O,VB,obj,NN,ARG0
68,1,benci_1,1,ia_1,0,1,O,O,VB,nsubj,PRP,ARG0
68,3,benci_1,1,kucing_1,2,1,O,O,VB,obj,FW,ARG1
69,1,benci_1,1,kucing_1,0,1,O,O,VB,nsubj:pass,RB,ARG1
69,3,benci_1,1,ia_1,2,1,O,O,VB,obj,PRP,ARG0
70,3,ayah_1,0,polisi_1,2,1,O,O,NN,acl,NN,unk
71,2,dewi_1,0,anak_1,1,1,PER,O,NN,compound,NN,unk
71,3,manja_1,3,yang_1,2,0,O,O,NN,nsubj,SC,ARG0
71,4,dewi_1,0,manja_1,3,1,PER,O,NN,amod,NN,unk
72,2,rangkak_1,2,yang_1,1,0,O,O,VB,nsubj,SC,ARG0
72,3,orang_1,0,rangkak_1,2,1,O,O,NN,acl,VB,unk
72,5,orang_1,0,rudi_1,4,1,O,GPE,NN,punct,NNP,name
73,2,pak_1,0,sasu_1,1,1,ORG,O,NNP,flat,NNP,name
73,4,pak_1,0,ceo_1,3,1,ORG,O,NNP,compound,FW,unk
73,5,ceo_1,3,muda_1,4,0,O,O,FW,amod,JJ,mod
73,7,ceo_1,3,indonesia_1,6,0,O,GPE,FW,nmod,NNP,unk
74,2,andriana_1,0,anak_1,1,1,PER,O,NN,compound,NN,unk
74,3,berani_1,3,yang_1,2,0,O,O,VB,nsubj,SC,ARG0
74,4,andriana_1,0,berani_1,3,1,PER,O,NN,amod,VB,unk
75,1,mayoret_1,2,zia_1,0,1,O,PER,NN,nsubj,NNP,ARG0
75,2,mayoret_1,2,adalah_1,1,1,O,O,NN,cop,VB,unk
75,4,mayoret_1,2,kelompok_1,3,1,O,O,NN,compound,NN,mod
75,5,kelompok_1,3,marching_1,4,0,O,ORG,NN,compound,NNP,mod
75,6,marching_1,4,band_1,5,0,ORG,LOC,NNP,compound,NNP,mod
76,2,mereka_1,0,siswa_1,1,1,O,O,PRP,acl,NN,unk
76,3,siswa_1,1,sma_1,2,0,O,O,NN,flat,NNP,mod
76,4,sma_1,2,dua_1,3,0,O,CRD,NNP,nummod,NNP,name
76,5,sma_1,2,nusantara_1,4,0,O,O,NNP,flat,NNP,name
77,1,perwira_1,2,teguh_1,0,1,O,PER,NN,amod,CD,unk
77,4,perwira_1,2,polisi_1,3,1,O,O,NN,compound,NN,mod
78,1,rupa_1,1,ramadhan_1,0,1,O,PER,VB,nsubj,NN,ARG0
78,3,rupa_1,1,bulan_1,2,1,O,O,VB,obj,NN,ARG1
78,4,suci_1,4,yang_1,3,0,O,O,JJ,nsubj,SC,ARG0
78,5,bulan_1,2,suci_1,4,0,O,O,NN,amod,JJ,mod
79,1,baca_1,1,andi_1,0,1,O,PER,VB,nsubj,NNP,ARG0
79,3,baca_1,1,buku_1,2,1,O,O,VB,obj,NN,ARG1
80,1,baca_1,1,buku_1,0,1,O,O,NN,nsubj:pass,NN,ARG1
80,3,baca_1,1,andi_1,2,1,O,PER,NN,obj,NNP,ARG0
81,1,lari_1,1,siana_1,0,1,O,PER,VB,nsubj,SC,ARG0
81,4,lari_1,1,lapang_1,3,1,O,O,VB,obl,NN,location
82,1,kerja_1,1,siwan_1,0,1,O,PER,VB,nsubj,NN,ARG0
82,3,kerja_1,1,tugas_1,2,1,O,O,VB,obj,NN,ARG1
82,5,tugas_1,2,pustaka_1,4,0,O,O,NN,nmod,NN,unk
82,6,pustaka_1,4,kampus_1,5,0,O,O,NN,compound,JJ,mod
83,1,kerja_1,1,tugas_1,0,1,O,O,VB,nsubj:pass,NN,ARG1
83,3,kerja_1,1,siwan_1,2,1,O,O,VB,obj,NNP,ARG0
83,5,kerja_1,1,pustaka_1,4,1,O,O,VB,obl,NN,location
83,6,pustaka_1,4,kampus_1,5,0,O,O,NN,compound,JJ,mod
84,2,bumi_1,0,rotasi_1,1,1,O,O,NN,amod,NN,unk
85,1,putar_1,2,bola_1,0,1,O,O,VB,nsubj,NN,ARG0
85,5,putar_1,2,udara_1,4,1,O,O,VB,obl,NN,location
86,1,sapa_1,1,dika_1,0,1,O,PER,CD,nsubj,SC,ARG0
86,4,sapa_1,1,orang_1,3,1,O,O,CD,obj,NN,ARG1
86,5,lewat_1,5,yang_1,4,0,O,O,RB,nsubj:pass,SC,unk
86,6,orang_1,3,lewat_1,5,0,O,O,NN,acl,RB,mod
87,2,sapa_1,4,orang_1,1,1,O,O,CD,nsubj:pass,NN,unk
87,3,lewat_1,3,yang_1,2,0,O,O,RB,nsubj:pass,SC,unk
87,4,orang_1,1,lewat_1,3,0,O,O,NN,acl,RB,mod
87,6,sapa_1,4,dika_1,5,1,O,GPE,CD,obj,NNP,ARG0
88,1,gerak_1,2,menara_1,0,1,O,PER,VB,nsubj,NNP,ARG0
88,2,menara_1,0,pisa_1,1,0,PER,O,NNP,flat,NNP,mod
88,4,miring_1,4,makin_1,3,0,O,O,JJ,advmod,RB,unk
88,5,gerak_1,2,miring_1,4,1,O,O,VB,amod,JJ,mod
89,1,baca_1,1,sonia_1,0,1,O,PER,VB,nsubj,NNP,ARG0
89,3,baca_1,1,jurnal_1,2,1,O,O,VB,obj,NN,ARG1
89,4,jurnal_1,2,hari_1,3,0,O,O,NN,compound,NN,mod
89,5,hari_1,3,sekolah_1,4,0,O,O,NN,compound,RB,mod
89,6,baca_1,1,kembali_1,5,1,O,O,VB,punct,VB,mod
90,1,baca_1,3,jurnal_1,0,1,O,O,VB,nsubj:pass,NN,ARG1
90,2,jurnal_1,0,hari_1,1,0,O,O,NN,compound,NN,mod
90,3,hari_1,1,sekolah_1,2,0,O,O,NN,compound,RB,mod
90,5,baca_1,3,sonia_1,4,1,O,LOC,VB,obj,NNP,ARG0
90,6,baca_1,3,kembali_1,5,1,O,O,VB,punct,VB,mod
91,3,singa_1,0,mati_1,2,1,O,O,NN,amod,VB,unk
91,4,singa_1,0,lapar_1,3,1,O,O,NN,acl,NN,unk
92,1,lari_1,2,impala_1,0,1,O,O,VB,nsubj,NN,ARG0
92,5,lari_1,2,kejar_1,4,1,O,O,VB,obl,NN,ARG1
92,6,kejar_1,4,singa_1,5,0,O,O,NN,compound,NN,ARG0
93,2,bangun_1,0,gedung_1,1,1,O,O,NN,compound,NN,ARG1
93,4,tahun_1,4,lima_1,3,0,O,CRD,NN,nummod,CD,mod
93,5,bangun_1,0,tahun_1,4,1,O,O,NN,nmod,NN,mod
94,2,misi_1,2,satu_1,1,0,O,CRD,NN,nummod,CD,mod
94,3,selesai_1,0,misi_1,2,1,O,O,SC,obj,NN,ARG1
95,2,sepatu_1,0,anna_1,1,1,ORG,O,CD,flat,NNP,ARG0
95,3,pasang_1,3,dua_1,2,0,O,PRC,NND,nummod,CD,mod
95,4,sepatu_1,0,pasang_1,3,1,ORG,O,CD,amod,NND,mod
96,2,ada_1,0,coklat_1,1,1,O,O,NNP,obj,NNP,ARG1
96,3,biji_1,3,tiga_1,2,0,O,CRD,NN,nummod,CD,mod
96,4,coklat_1,1,biji_1,3,0,O,O,NNP,compound,NN,unk
97,1,abad_1,2,umur_1,0,1,O,O,FW,nsubj,NNP,ARG0
97,2,umur_1,0,bangun_1,1,0,O,O,NNP,compound,RB,unk
97,4,abad_1,2,abad_2,3,1,O,O,FW,obj,FW,ARG1
98,2,anak_1,2,tiga_1,1,0,O,CRD,NN,nummod,CD,unk
98,3,ada_1,0,anak_1,2,1,O,O,VB,obj,NN,ARG1
98,4,anak_1,2,kucing_1,3,0,O,O,NN,flat,FW,unk
99,1,naik_1,2,tante_1,0,1,O,PER,VB,nsubj,NNP,ARG0
99,2,tante_1,0,ari_1,1,0,PER,O,NNP,flat,NNP,name
99,4,naik_1,2,sepeda_1,3,1,O,O,VB,obj,VB,ARG1
100,1,naik_1,1,sepeda_1,0,1,O,PER,VB,nsubj:pass,NNP,ARG1
100,3,naik_1,1,tante_1,2,1,O,O,VB,obj,NNP,ARG0
100,4,tante_1,2,ari_1,3,0,O,LOC,NNP,flat,NNP,name
101,1,jadi_1,2,bu_1,0,1,O,ORG,VB,nsubj,NNP,ARG0
101,2,bu_1,0,ayu_1,1,0,ORG,PER,NNP,flat,NNP,name
101,4,jadi_1,2,lulus_1,3,1,O,O,VB,obj,NN,ARG1
101,5,lulus_1,3,baik_1,4,0,O,O,NN,amod,JJ,mod
101,6,lulus_1,3,ipb_1,5,0,O,ORG,NN,flat,NNP,unk
101,7,lulus_1,3,tahun_1,6,0,O,O,NN,compound,NN,unk
101,8,tahun_1,6,2017_1,7,0,O,DAT,NN,nummod,CD,mod
102,1,mandiri_1,2,dia_1,0,1,O,O,VB,nsubj,PRP,ARG0
102,2,mandiri_1,2,mampu_1,1,1,O,O,VB,advmod,JJ,unk
102,5,mandiri_1,2,finansial_1,4,1,O,O,VB,nmod,JJ,mod
103,1,dokter_1,3,ibu_1,0,1,O,O,NND,nsubj,RB,ARG0
103,2,dokter_1,3,adalah_1,1,1,O,O,NND,cop,VB,unk
104,1,beli_1,2,kakek_1,0,1,O,ORG,VB,nsubj,NNP,ARG0
104,2,kakek_1,0,arya_1,1,0,ORG,PER,NNP,flat,NNP,unk
104,4,beli_1,2,telur_1,3,1,O,O,VB,obj,NN,ARG1
104,6,beli_1,2,minimarket_1,5,1,O,O,VB,obl,NN,location
105,1,beli_1,1,telur_1,0,1,O,O,VB,nsubj:pass,NN,ARG1
105,3,beli_1,1,kakek_1,2,1,O,PER,VB,obj,NNP,ARG0
105,4,kakek_1,2,arya_1,3,0,PER,O,NNP,flat,NNP,name
105,6,beli_1,1,minimarket_1,5,1,O,O,VB,obl,NN,location
106,3,rumah_1,0,roboh_1,2,1,O,O,NN,punct,VB,unk
107,1,acau_1,1,hujan_1,0,1,O,O,VB,nsubj,NNP,ARG0
107,3,acau_1,1,sinyal_1,2,1,O,O,VB,obj,NN,ARG1
107,4,sinyal_1,2,internet_1,3,0,O,O,NN,compound,NN,mod
108,1,madam_1,2,ini_1,0,1,O,O,NN,nsubj,PR,ARG0
108,2,madam_1,2,adalah_1,1,1,O,O,NN,cop,VB,unk
108,4,madam_1,2,gilir_1,3,1,O,O,NN,amod,NN,unk
108,5,kali_1,5,empat_1,4,0,O,CRD,NN,nummod,NN,unk
108,6,madam_1,2,kali_1,5,1,O,O,NN,nmod,NN,unk
108,7,madam_1,2,minggu_1,6,1,O,CRD,NN,compound,NN,unk
109,1,warna_1,1,mobil_1,0,1,O,O,VB,nsubj,RB,ARG0
109,3,warna_1,1,silver_1,2,1,O,O,VB,obj,FW,ARG1
110,1,taruh_1,1,aku_1,0,1,O,O,VB,nsubj,NNP,ARG0
110,3,taruh_1,1,majalah_1,2,1,O,O,VB,obj,NN,ARG1
110,5,taruh_1,1,atas_1,4,1,O,O,VB,case,NN,unk
110,6,taruh_1,1,meja_1,5,1,O,O,VB,obl,NN,location
111,1,taruh_1,1,majalah_1,0,1,O,O,VB,nsubj:pass,MD,ARG1
111,3,taruh_1,1,aku_1,2,1,O,O,VB,obj,NN,ARG0
111,5,taruh_1,1,atas_1,4,1,O,O,VB,case,NN,unk
111,6,taruh_1,1,meja_1,5,1,O,O,VB,obl,NN,location
112,1,dapat_1,1,aji_1,0,1,O,PER,VB,nsubj,NNP,ARG0
112,3,dapat_1,1,kerja_1,2,1,O,O,VB,obj,NN,ARG1
112,4,bagus_1,4,yang_1,3,0,O,O,JJ,nsubj,SC,ARG0
112,5,kerja_1,2,bagus_1,4,0,O,O,NN,amod,JJ,mod
112,7,kerja_1,2,usaha_1,6,0,O,O,NN,nmod,NN,unk
112,8,usaha_1,6,multinasional_1,7,0,O,O,NN,compound,JJ,unk
113,1,diri_1,2,orang_1,0,1,O,O,VB,nsubj,NN,ARG0
113,5,diri_1,2,sana_1,4,1,O,O,VB,obl,NN,location
113,7,diri_1,2,tadi_1,6,1,O,O,VB,obl,NN,time
114,2,kakak_1,0,tinggal_1,1,1,O,O,RB,acl,VB,unk
115,1,pergi_1,1,riana_1,0,1,O,PER,VB,nsubj,SC,ARG0
115,4,pergi_1,1,pasar_1,3,1,O,O,VB,obl,NN,location
116,3,ayah_1,0,kota_1,2,1,O,O,NN,nmod,NNP,unk
117,2,ayah_1,0,bawa_1,1,1,O,O,NN,acl,NN,unk
117,3,bawa_1,1,boneka_1,2,0,O,O,NN,obj,PRP,ARG1
118,1,bawa_1,1,boneka_1,0,1,O,PER,VB,nsubj:pass,PRP,ARG1
118,3,bawa_1,1,ayah_1,2,1,O,O,VB,obj,NN,ARG0
119,1,main_1,1,kesang_1,0,1,O,PER,VB,nsubj,NN,ARG0
119,3,main_1,1,bola_1,2,1,O,O,VB,obj,NN,ARG1
120,1,main_1,1,bola_1,0,1,O,O,VB,nsubj:pass,NN,ARG1
120,3,main_1,1,kesang_1,2,1,O,O,VB,obj,NNP,ARG0
121,1,tabrak_1,1,mobil_1,0,1,O,O,VB,nsubj,RB,ARG0
121,3,tabrak_1,1,mobil_2,2,1,O,O,VB,obj,NN,ARG0
121,4,mobil_2,2,parkir_1,3,0,O,O,NN,compound,VB,mod
121,6,mobil_2,2,depan_1,5,0,O,O,NN,nmod,NN,unk
121,7,depan_1,5,kompleks_1,6,0,O,O,NN,compound,NN,mod
121,8,kompleks_1,6,pagi_1,7,0,O,O,NN,compound,NN,unk
122,1,tabrak_1,2,mobil_1,0,1,O,PER,NN,nsubj:pass,NNP,ARG0
122,2,mobil_1,0,parkir_1,1,0,PER,O,NNP,compound,VB,mod
122,4,tabrak_1,2,mobil_2,3,1,O,O,NN,obj,RB,ARG0
122,6,tabrak_1,2,depan_1,5,1,O,O,NN,obl,NN,location
122,7,depan_1,5,kompleks_1,6,0,O,O,NN,compound,NN,mod
122,8,kompleks_1,6,pagi_1,7,0,O,O,NN,compound,NN,unk
123,1,beri_1,1,agung_1,0,1,O,PER,VB,nsubj,NNP,ARG0
123,3,beri_1,1,selamat_1,2,1,O,O,VB,obj,NN,ARG1
123,4,selamat_1,2,pada_1,3,0,O,O,NN,compound,NN,ARG1
123,5,selamat_1,2,bulan_1,4,0,O,O,NN,compound,NN,unk
124,3,bahagia_1,3,aku_1,2,0,O,O,PRP,nsubj,VB,ARG0
124,4,hari_1,0,bahagia_1,3,1,O,O,NN,amod,PRP,unk
125,1,anak_1,1,kucing_1,0,1,O,O,NN,nsubj,NN,ARG0
125,3,anak_1,1,lima_1,2,1,O,DAT,NN,nummod,CD,ARG1
126,1,pergi_1,1,ibu_1,0,1,O,O,VB,nsubj,NNP,ARG0
126,4,pergi_1,1,kantor_1,3,1,O,O,VB,obl,NN,location
127,1,antar_1,1,ayah_1,0,1,O,O,IN,nsubj,NN,ARG0
127,3,antar_1,1,ibu_1,2,1,O,O,IN,obj,NN,ARG1
127,5,antar_1,1,pasar_1,4,1,O,O,IN,obl,NN,location
128,1,antar_1,1,ibu_1,0,1,O,O,IN,nsubj:pass,NN,ARG1
128,3,antar_1,1,ayah_1,2,1,O,O,IN,obj,NN,ARG0
128,5,antar_1,1,pasar_1,4,1,O,O,IN,obl,NN,location
129,3,gaji_1,0,bulan_1,2,1,O,O,RB,compound,NN,mod
129,4,bulan_1,2,tara_1,3,0,O,O,NN,amod,NN,unk
129,5,rumah_1,6,satu_1,4,0,O,CRD,NN,nummod,CD,unk
129,7,gaji_1,0,rumah_1,6,1,O,O,RB,compound,NN,unk
130,1,makan_1,1,aku_1,0,1,O,O,VB,nsubj,NNP,ARG0
130,3,makan_1,1,roti_1,2,1,O,O,VB,obj,NN,ARG1
130,4,makan_1,1,tadi_1,3,1,O,O,VB,obl,VB,time
131,1,makan_1,1,roti_1,0,1,O,PER,VB,nsubj:pass,NNP,ARG1
131,3,makan_1,1,aku_1,2,1,O,O,VB,obj,NN,ARG0
131,4,makan_1,1,tadi_1,3,1,O,O,VB,obl,VB,time
132,3,roti_1,0,busuk_1,2,1,O,O,NN,amod,VB,unk
133,1,buang_1,3,roti_1,0,1,O,O,NN,nsubj,NN,ARG1
133,3,buang_1,3,aku_1,2,1,O,O,NN,nsubj,VB,ARG0
133,6,buang_1,3,tempat_1,5,1,O,O,NN,obl,NN,location
133,7,tempat_1,5,sampah_1,6,0,O,O,NN,compound,NN,mod
134,1,buang_1,1,aku_1,0,1,O,O,NN,nsubj,NN,ARG0
134,3,buang_1,1,roti_1,2,1,O,O,NN,obj,NNP,ARG1
134,6,buang_1,1,tempat_1,5,1,O,O,NN,obl,NN,location
134,7,tempat_1,5,sampah_1,6,0,O,O,NN,compound,NN,mod
135,1,bawa_1,1,aceng_1,0,1,O,PER,NN,nsubj,NN,ARG0
135,3,bawa_1,1,sesuatu_1,2,1,O,O,NN,obj,PRP,ARG1
135,5,bawa_1,1,meru_1,4,1,O,O,NN,obl,NNP,ARG1
136,1,gerak_1,1,mobil_1,0,1,O,O,VB,nsubj,RB,ARG0
136,3,gerak_1,1,maju_1,2,1,O,O,VB,amod,JJ,ARG1
137,1,rupa_1,4,teknologi_1,0,1,O,O,VB,nsubj,NN,ARG0
137,2,guna_1,3,yang_1,1,0,O,O,VB,obj,SC,ARG1
137,3,guna_1,3,mereka_1,2,0,O,O,VB,nsubj,PRP,ARG0
137,4,teknologi_1,0,guna_1,3,0,O,O,NN,acl,VB,unk
137,6,mutakhir_1,7,yang_2,5,0,O,O,JJ,nsubj,SC,ARG0
137,7,mutakhir_1,7,paling_1,6,0,O,O,JJ,advmod,RB,unk
137,8,rupa_1,4,mutakhir_1,7,1,O,O,VB,amod,JJ,unk
138,2,dia_1,0,anak_1,1,1,O,O,PRP,acl,NN,unk
138,3,riang_1,3,yang_1,2,0,O,O,VB,nsubj,SC,ARG0
138,4,dia_1,0,riang_1,3,1,O,O,PRP,amod,VB,unk
139,1,ada_1,1,balonku_1,0,1,O,PER,VB,nsubj,NNP,ARG0
139,3,ada_1,1,lima_1,2,1,O,CRD,VB,nummod,CD,mod
140,1,beli_1,1,jabbar_1,0,1,O,PER,RB,nsubj,NNP,ARG0
140,3,beli_1,1,untuk_1,2,1,O,O,RB,obj,VB,ARG1
141,1,senang_1,1,kami_1,0,1,O,O,VB,nsubj,PRP,ARG0
141,4,senang_1,1,taman_1,3,1,O,O,VB,obl,NN,location
141,5,taman_1,3,main_1,4,0,O,O,NN,acl,VB,unk
141,6,main_1,4,siang_1,5,0,O,O,VB,obj,NN,ARG1
142,1,nampak_1,2,raut_1,0,1,O,O,VB,nsubj,NN,ARG0
142,2,raut_1,0,muka_1,1,0,O,O,NN,compound,RB,mod
142,4,nampak_1,2,bahagia_1,3,1,O,O,VB,obj,PRP,ARG1
143,1,buat_1,2,jadi_1,0,1,O,O,VB,nsubj,NN,ARG0
143,2,buat_1,2,kemarin_1,1,1,O,O,VB,advmod,NN,time
143,4,buat_1,2,rifqy_1,3,1,O,ORG,VB,obj,NNP,ARG1
143,5,buat_1,2,sadar_1,4,1,O,O,VB,punct,NNP,mod
144,1,buat_1,1,rifqy_1,0,1,O,PER,VB,nsubj:pass,NNP,ARG1
144,3,jadi_1,3,sadar_1,2,0,O,O,NN,amod,NN,unk
144,4,buat_1,1,jadi_1,3,1,O,O,VB,obl,NN,ARG0
144,5,buat_1,1,kemarin_1,4,1,O,O,VB,punct,NN,time
145,1,suka_1,1,ia_1,0,1,O,O,VB,nsubj,PRP,ARG0
145,3,suka_1,1,dekat_1,2,1,O,O,VB,obj,NN,ARG0
146,1,tahu_1,2,bu_1,0,1,O,ORG,VB,nsubj,NNP,ARG0
146,2,bu_1,0,rifqy_1,1,0,ORG,PER,NNP,flat,NNP,name
146,4,tahu_1,2,asa_1,3,1,O,O,VB,obj,RB,ARG1
147,1,tahu_1,1,asa_1,0,1,O,O,VB,nsubj:pass,RB,unk
147,3,tahu_1,1,bu_1,2,1,O,ORG,VB,obj,NNP,ARG0
147,4,bu_1,2,rifqy_1,3,0,ORG,LOC,NNP,flat,NNP,name
148,2,alfiansyah_1,0,juara_1,1,1,PER,O,NN,compound,NN,unk
148,3,alfiansyah_1,0,renang_1,2,1,PER,O,NN,acl,VB,unk
149,1,jadi_1,2,agribisnis_1,0,1,O,ORG,VB,nsubj,NN,ARG0
149,2,agribisnis_1,0,50_1,1,0,ORG,CRD,NN,nummod,CD,mod
149,4,jadi_1,2,juara_1,3,1,O,O,VB,obj,NN,ARG1
149,5,juara_1,3,umum_1,4,0,O,O,NN,amod,JJ,mod
149,7,tahun_1,7,10th_1,6,0,O,O,NN,nummod,CD,unk
149,8,juara_1,3,tahun_1,7,0,O,O,NN,compound,NN,unk
150,1,antuk_1,1,aku_1,0,1,O,O,VB,nsubj,NNP,ARG0
150,3,antuk_1,1,sore_1,2,1,O,O,VB,obj,NN,ARG1
150,4,antuk_1,1,tadi_1,3,1,O,O,VB,obl,VB,ARG1
151,1,selesai_1,1,dia_1,0,1,O,O,VB,nsubj,PRP,ARG0
151,3,selesai_1,1,tugas_1,2,1,O,O,VB,obj,RB,ARG1
151,4,tugas_1,2,tepat_1,3,0,O,O,RB,amod,JJ,unk
151,6,selesai_1,1,waktu_1,5,1,O,O,VB,obl,RB,ARG1
152,1,selesai_1,1,tugas_1,0,1,O,O,VB,nsubj:pass,NN,ARG1
152,3,selesai_1,1,dia_1,2,1,O,O,VB,obj,PRP,ARG0
152,4,selesai_1,1,tepat_1,3,1,O,O,VB,amod,JJ,time
152,6,selesai_1,1,waktu_1,5,1,O,O,VB,obl,RB,ARG1
153,2,dia_1,0,anak_1,1,1,O,O,PRP,acl,NN,unk
153,3,cerdas_1,3,yang_1,2,0,O,O,VB,nsubj,SC,ARG0
153,4,anak_1,1,cerdas_1,3,0,O,O,NN,amod,VB,mod
154,1,ada_1,1,rumah_1,0,1,O,O,VB,nsubj,RB,ARG0
154,4,ada_1,1,belakang_1,3,1,O,O,VB,obl,NN,location
154,5,belakang_1,3,kebun_1,4,0,O,O,NN,compound,NN,mod
154,6,kebun_1,4,raya_1,5,0,O,O,NN,compound,PRP,mod
155,1,kanan_1,1,belah_1,0,0,O,O,NN,case,NN,unk
155,2,ada_1,3,kanan_1,1,1,O,O,VB,obl,NN,ARG1
155,3,kanan_1,1,rumah_1,2,0,O,O,NN,compound,RB,unk
155,5,ada_1,3,tk_1,4,1,O,O,VB,obj,NNP,ARG0
156,1,pilih_1,1,mereka_1,0,1,O,O,VB,nsubj,PRP,ARG0
156,3,pilih_1,1,tinggal_1,2,1,O,O,VB,xcomp,VB,ARG1
156,5,tinggal_1,2,pinggir_1,4,0,O,O,VB,obl,NN,ARG1
156,6,pinggir_1,4,jakarta_1,5,0,O,GPE,NN,flat,NNP,unk
157,2,jarak_1,0,rumah_1,1,1,O,O,NN,compound,NN,ARG0
157,4,dekat_1,6,yang_1,3,0,O,O,JJ,nsubj,SC,ARG0
157,5,dekat_1,6,sekarang_1,4,0,O,O,JJ,advmod,NN,unk
157,6,dekat_1,6,lebih_1,5,0,O,O,JJ,advmod,RB,unk
157,7,jarak_1,0,dekat_1,6,1,O,O,NN,amod,JJ,mod
157,9,dekat_1,6,tempat_1,8,0,O,O,JJ,nmod,NN,ARG1
157,10,tempat_1,8,kerja_1,9,0,O,O,NN,compound,NN,mod
158,1,rupa_1,1,shiana_1,0,1,O,PER,VB,nsubj,SC,ARG0
158,3,rupa_1,1,anak_1,2,1,O,O,VB,obj,NN,ARG1
158,5,rupa_1,1,dua_1,4,1,O,O,VB,punct,OD,unk
159,1,nanti_1,3,shiana_1,0,1,O,PER,VB,nsubj,NN,ARG0
159,2,nanti_1,3,sekarang_1,1,1,O,O,VB,advmod,NN,time
159,3,nanti_1,3,sedang_1,2,1,O,O,VB,advmod,MD,unk
159,5,nanti_1,3,adik_1,4,1,O,O,VB,obj,RB,ARG1
159,6,nanti_1,3,lahir_1,5,1,O,O,VB,xcomp,VB,ARG1
159,8,lahir_1,5,dunia_1,7,0,O,O,VB,obl,NN,location
160,1,nanti_1,3,lahir_1,0,1,O,O,VB,nsubj:pass,NN,ARG1
160,2,lahir_1,0,adik_1,1,0,O,O,NN,compound,RB,ARG1
160,3,nanti_1,3,sedang_1,2,1,O,O,VB,advmod,MD,unk
160,5,nanti_1,3,shiana_1,4,1,O,PER,VB,obj,NNP,ARG0
160,7,nanti_1,3,dunia_1,6,1,O,O,VB,obl,NN,ARG1
160,8,dunia_1,6,sekarang_1,7,0,O,O,NN,compound,NN,unk
161,1,semangat_1,1,ibu_1,0,1,O,O,VB,nsubj,RB,ARG0
161,3,semangat_1,1,gadis_1,2,1,O,O,VB,obj,NN,ARG1
161,6,semangat_1,1,garis_1,5,1,O,O,VB,obl,NN,location
161,7,garis_1,5,finish_1,6,0,O,O,NN,compound,NN,mod
161,8,pagi_1,8,tadi_1,7,0,O,O,NN,advmod,NN,mod
161,9,semangat_1,1,pagi_1,8,1,O,O,VB,obl,NN,time
162,1,semangat_1,2,gadis_1,0,1,O,O,VB,nsubj:pass,NN,ARG1
162,4,semangat_1,2,ibu_1,3,1,O,O,VB,obj,NNP,ARG0
162,6,semangat_1,2,garis_1,5,1,O,O,VB,obl,NN,location
162,7,garis_1,5,finish_1,6,0,O,O,NN,compound,NN,mod
162,8,pagi_1,8,tadi_1,7,0,O,O,NN,compound,NN,mod
162,9,semangat_1,2,pagi_1,8,1,O,O,VB,obl,NN,time
163,2,aku_1,0,serah_1,1,1,O,O,NN,flat,JJ,unk
164,1,rasa_1,1,aku_1,0,1,O,O,VB,nsubj,NNP,ARG0
164,3,rasa_1,1,sendiri_1,2,1,O,O,VB,obj,NN,ARG1
164,4,rasa_1,1,lagi_1,3,1,O,O,VB,advmod,RB,unk
164,6,rasa_1,1,rumah_1,5,1,O,O,VB,obl,NN,location
165,1,teman_1,1,dia_1,0,1,O,O,VB,nsubj,PRP,ARG0
165,3,teman_1,1,aku_1,2,1,O,O,VB,obj,NN,ARG1
165,5,teman_1,1,pagi_1,4,1,O,O,VB,obl,NN,time
166,1,buat_1,2,datang_1,0,1,O,O,VB,nsubj,NN,ARG0
166,2,datang_1,0,curi_1,1,0,O,O,NN,compound,NN,ARG0
166,4,buat_1,2,seti_1,3,1,O,ORG,VB,obj,NNP,ARG1
166,5,seti_1,3,trauma_1,4,0,ORG,LOC,NNP,flat,NNP,unk
167,1,lihat_1,1,aku_1,0,1,O,O,VB,nsubj,NNP,ARG0
167,3,lihat_1,1,raut_1,2,1,O,O,VB,obj,NN,ARG1
167,4,raut_1,2,sedih_1,3,0,O,O,NN,compound,RB,mod
168,1,lihat_1,2,raut_1,0,1,O,O,VB,nsubj:pass,NN,ARG1
168,2,raut_1,0,sedih_1,1,0,O,O,NN,compound,RB,mod
168,4,lihat_1,2,aku_1,3,1,O,O,VB,obj,NN,ARG0
169,1,dapat_1,1,ariana_1,0,1,O,PER,VB,nsubj,SC,ARG0
169,3,dapat_1,1,tepuk_1,2,1,O,O,VB,obj,NN,ARG1
169,4,tepuk_1,2,tangan_1,3,0,O,O,NN,compound,NN,mod
169,5,tangan_1,3,riah_1,4,0,O,O,NN,amod,NN,unk
169,7,dapat_1,1,tonton_1,6,1,O,O,VB,obl,NNP,mod
170,1,antar_1,2,pak_1,0,1,O,ORG,VB,nsubj,NNP,ARG0
170,2,pak_1,0,rifqy_1,1,0,ORG,PER,NNP,flat,NNP,name
170,4,antar_1,2,aku_1,3,1,O,O,VB,obj,NN,ARG1
170,5,aku_1,3,hari_1,4,0,O,O,NN,compound,NN,unk
171,1,habis_1,1,kami_1,0,1,O,O,VB,nsubj,PRP,ARG0
171,3,habis_1,1,waktu_1,2,1,O,O,VB,obj,NN,ARG1
171,4,waktu_1,2,sama_1,3,0,O,O,NN,amod,VB,unk
171,6,habis_1,1,pagi_1,5,1,O,O,VB,obl,NN,ARG1
172,1,bawa_1,1,ia_1,0,1,O,O,VB,nsubj,PRP,ARG0
172,3,bawa_1,1,bunga_1,2,1,O,O,VB,obj,NN,ARG1
172,4,bawa_1,1,kemarin_1,3,1,O,O,VB,punct,NN,time
173,1,bawa_1,1,bunga_1,0,1,O,O,VB,nsubj:pass,NN,ARG1
173,3,bawa_1,1,ia_1,2,1,O,O,VB,obj,PRP,ARG0
173,4,bawa_1,1,kemarin_1,3,1,O,O,VB,punct,NN,time
174,1,aku_1,1,ia_1,0,1,O,O,VB,nsubj,PRP,ARG0
174,3,pura_1,6,jika_1,2,0,O,O,VB,mark,SC,unk
174,6,pura_1,6,hanya_1,5,0,O,O,VB,advmod,RB,unk
174,7,aku_1,1,pura_1,6,1,O,O,VB,advcl,VB,unk
174,8,pura_1,6,pura_2,7,0,O,O,VB,obj,NN,ARG1
174,9,pura_2,7,peduli_1,8,0,O,O,NN,amod,VB,mod
175,1,dengar_1,2,aku_1,0,1,O,O,VB,nsubj,NN,mod
175,2,dengar_1,2,senang_1,1,1,O,O,VB,amod,NN,unk
175,4,dengar_1,2,aku_2,3,1,O,O,VB,obj,RB,mod
176,1,putus_1,1,kami_1,0,1,O,O,VB,nsubj,PRP,ARG0
176,3,putus_1,1,meni_1,2,1,O,O,VB,xcomp,NN,unk
176,4,meni_1,2,tahun_1,3,0,O,O,NN,obj,NN,ARG1
176,5,tahun_1,3,depan_1,4,0,O,O,NN,amod,NN,mod
177,1,terima_1,2,orang_1,0,1,O,O,VB,nsubj,NN,ARG0
177,2,orang_1,0,tua_1,1,0,O,O,NN,amod,RB,mod
177,4,terima_1,2,apa_1,3,1,O,O,VB,obj,WH,mod
177,5,apa_1,3,ada_1,4,0,O,O,WH,acl,NN,mod
178,1,keluarga_1,1,kami_1,0,1,O,O,NN,nsubj,PRP,ARG0
178,3,keluarga_1,1,suka_1,2,1,O,O,NN,xcomp,VB,unk
178,4,suka_1,2,cita_1,3,0,O,O,VB,obj,PRP,ARG1
179,1,lulus_1,1,zahra_1,0,1,O,PER,VB,nsubj,NNP,ARG0
179,4,lulus_1,1,nilai_1,3,1,O,O,VB,obl,NN,mod
179,5,lulus_1,1,muas_1,4,1,O,O,VB,punct,VB,unk
180,1,lewat_1,1,ia_1,0,1,O,O,VB,nsubj,PRP,ARG0
180,3,lewat_1,1,uji_1,2,1,O,O,VB,obj,NN,ARG1
180,5,lewat_1,1,lancar_1,4,1,O,O,VB,amod,JJ,mod
181,1,lewat_1,1,uji_1,0,1,O,O,VB,nsubj:pass,NN,ARG1
181,3,lewat_1,1,ia_1,2,1,O,O,VB,obj,PRP,ARG0
181,5,lewat_1,1,lancar_1,4,1,O,O,VB,amod,JJ,mod
182,1,dapat_1,1,putri_1,0,1,O,O,VB,nsubj,NN,ARG0
182,3,dapat_1,1,sorot_1,2,1,O,O,VB,obj,NN,ARG1
182,5,sorot_1,2,tunjuk_1,4,0,O,O,NN,nmod,NN,mod
183,1,dapat_1,1,sorot_1,0,1,O,O,VB,nsubj:pass,NN,ARG1
183,3,dapat_1,1,putri_1,2,1,O,O,VB,obj,NNP,ARG0
183,5,putri_1,2,tunjuk_1,4,0,O,O,NNP,nmod,NN,unk
184,1,pukau_1,1,tampil_1,0,1,O,O,VB,nsubj,RB,ARG0
184,4,pukau_1,1,orang_1,3,1,O,O,VB,obj,NN,ARG1
185,2,sangka_1,2,yang_1,1,0,O,O,NN,nsubj,SC,ARG0
185,3,ada_1,0,sangka_1,2,1,O,O,VB,acl,NN,unk
185,4,bagus_1,4,ia_1,3,0,O,O,NN,nsubj,PRP,ARG0
185,5,sangka_1,2,bagus_1,4,0,O,O,NN,advcl,NN,mod
186,1,tampak_1,1,dia_1,0,1,O,O,VB,nsubj,PRP,ARG0
186,3,tampak_1,1,cantik_1,2,1,O,O,VB,amod,NN,ARG1
186,4,cantik_1,2,sekali_1,3,0,O,O,NN,advmod,RB,mod
186,5,tampak_1,1,malam_1,4,1,O,O,VB,obj,NN,time
187,2,rebut_1,2,orang_1,1,1,O,O,VB,nsubj,NN,ARG0
187,4,rebut_1,2,foto_1,3,1,O,O,VB,obj,NN,ARG1
188,1,jadi_1,1,ia_1,0,1,O,O,VB,nsubj,PRP,ARG0
188,3,jadi_1,1,bintang_1,2,1,O,O,VB,obj,NN,ARG1
188,4,bintang_1,2,malam_1,3,0,O,O,NN,amod,NN,time
189,1,dapat_1,1,aku_1,0,1,O,O,VB,nsubj,NNP,ARG0
189,3,dapat_1,1,tawar_1,2,1,O,O,VB,obj,NN,ARG1
189,4,tawar_1,2,tarik_1,3,0,O,O,NN,amod,VB,mod
189,6,tawar_1,2,usaha_1,5,0,O,O,NN,nmod,NN,unk
190,1,dapat_1,2,tawar_1,0,1,O,O,VB,nsubj:pass,NN,ARG1
190,2,tawar_1,0,tarik_1,1,0,O,O,NN,amod,VB,mod
190,4,dapat_1,2,aku_1,3,1,O,O,VB,obj,NN,ARG0
190,6,aku_1,3,usaha_1,5,0,O,O,NN,nmod,NN,unk
191,1,tawar_1,1,mereka_1,0,1,O,O,VB,nsubj,PRP,ARG0
191,3,tawar_1,1,aku_1,2,1,O,O,VB,obj,NN,ARG1
191,5,tawar_1,1,menajer_1,4,1,O,O,VB,obl,NN,ARG1
192,1,tawar_1,1,aku_1,0,1,O,O,VB,nsubj:pass,NNP,ARG1
192,3,tawar_1,1,mereka_1,2,1,O,O,VB,obj,PRP,ARG0
192,5,tawar_1,1,menajer_1,4,1,O,O,VB,obl,NN,ARG1
193,1,lihat_1,1,mereka_1,0,1,O,O,VB,nsubj,PRP,ARG0
193,3,lihat_1,1,hasil_1,2,1,O,O,VB,obj,NN,ARG1
193,4,hasil_1,2,skripsi_1,3,0,O,O,NN,compound,NN,mod
193,5,lihat_1,1,kemarin_1,4,1,O,O,VB,punct,NN,time
194,1,lihat_1,2,hasil_1,0,1,O,O,VB,nsubj:pass,NN,ARG1
194,2,hasil_1,0,skripsi_1,1,0,O,O,NN,compound,NN,mod
194,4,lihat_1,2,mereka_1,3,1,O,O,VB,obj,PRP,ARG0
194,5,lihat_1,2,kemarin_1,4,1,O,O,VB,punct,NN,time
195,1,senang_1,1,mereka_1,0,1,O,O,VB,nsubj,PRP,ARG0
195,4,senang_1,1,karya_1,3,1,O,O,VB,obl,NN,ARG1
195,5,karya_1,3,tulis_1,4,0,O,O,NN,compound,NN,mod
196,2,terbit_2,3,terbit_1,1,1,O,O,VB,nsubj,NN,ARG0
196,3,terbit_1,1,tarik_1,2,0,O,O,NN,amod,NN,unk
196,5,terbit_2,3,buku_1,4,1,O,O,VB,obj,NN,mod
197,1,lihat_1,1,mereka_1,0,1,O,O,VB,nsubj,PRP,ARG0
197,3,lihat_1,1,contoh_1,2,1,O,O,VB,obj,NN,ARG1
197,5,contoh_1,2,blog_1,4,0,O,O,NN,nmod,NN,unk
198,1,lihat_1,1,contoh_1,0,1,O,O,VB,nsubj:pass,NNP,ARG1
198,3,lihat_1,1,mereka_1,2,1,O,O,VB,obj,PRP,ARG0
198,5,lihat_1,1,blog_1,4,1,O,O,VB,obl,NN,location
199,1,judul_1,2,buku_1,0,1,O,ORG,VB,nsubj,NN,ARG0
199,2,buku_1,0,pertama_1,1,0,ORG,GPE,NN,amod,OD,mod
199,4,judul_1,2,rindu_1,3,1,O,LOC,VB,obj,NNP,ARG1
200,1,raya_1,1,kami_1,0,1,O,O,VB,nsubj,PRP,ARG0
200,3,raya_1,1,sukses_1,2,1,O,O,VB,obj,NN,ARG1
200,4,sukses_1,2,buku_1,3,0,O,O,NN,compound,NN,mod
201,1,raya_1,2,sukses_1,0,1,O,O,VB,nsubj:pass,NN,ARG1
201,2,sukses_1,0,buku_1,1,0,O,O,NN,compound,NN,mod
201,4,raya_1,2,kami_1,3,1,O,O,VB,obj,PRP,ARG0
202,1,sumbang_1,1,tia_1,0,1,O,PER,VB,nsubj,NNP,ARG0
202,3,sumbang_1,1,rezeki_1,2,1,O,O,VB,obj,VB,ARG1
202,5,rezeki_1,2,tempat_1,4,0,O,O,VB,nmod,NN,unk
202,6,tempat_1,4,yatim_1,5,0,O,O,NN,compound,NN,mod
202,7,yatim_1,5,piatu_1,6,0,O,O,NN,compound,CD,mod
203,1,sumbang_1,1,rezeki_1,0,1,O,O,VB,nsubj:pass,NNP,ARG1
203,3,sumbang_1,1,tia_1,2,1,O,PER,VB,obj,NNP,ARG0
203,5,sumbang_1,1,tempat_1,4,1,O,O,VB,obl,NN,location
203,6,tempat_1,4,yatim_1,5,0,O,O,NN,compound,NN,mod
203,7,yatim_1,5,piatu_1,6,0,O,O,NN,compound,CD,mod
204,1,kenal_1,1,tia_1,0,1,O,PER,VB,nsubj:pass,NNP,ARG0
204,3,orangorang_1,3,baik_1,2,0,O,O,VB,amod,JJ,unk
204,4,kenal_1,1,orangorang_1,3,1,O,O,VB,obj,VB,ARG1
205,1,rupa_1,1,ia_1,0,1,O,O,VB,nsubj,PRP,ARG0
205,3,rupa_1,1,orang_1,2,1,O,O,VB,obj,NN,ARG1
205,4,dermawan_1,4,yang_1,3,0,O,O,VB,nsubj,SC,ARG0
205,5,orang_1,2,dermawan_1,4,0,O,O,NN,acl,VB,mod
206,2,kenal_1,3,satpam_1,1,1,O,O,JJ,nsubj,NN,ARG0
206,3,satpam_1,1,kampus_1,2,0,O,PRD,NN,compound,NN,mod
206,5,kenal_1,3,utami_1,4,1,O,O,JJ,obj,NNP,ARG1
207,1,kenal_1,1,utami_1,0,1,O,O,VB,nsubj:pass,PRP,unk
207,4,kenal_1,1,satpam_1,3,1,O,O,VB,obj,NN,ARG1
207,5,satpam_1,3,kampus_1,4,0,O,LOC,NN,compound,JJ,mod
208,1,awal_1,1,ia_1,0,1,O,O,VB,nsubj,PRP,ARG0
208,3,awal_1,1,karir_1,2,1,O,O,VB,obj,NN,ARG1
208,4,karir_1,2,musik_1,3,0,O,O,NN,compound,RB,mod
208,6,awal_1,1,bagus_1,5,1,O,O,VB,amod,JJ,mod
209,1,bintang_1,3,kini_1,0,1,O,O,NN,advmod,NN,unk
209,2,bintang_1,3,ia_1,1,1,O,O,NN,nsubj,PRP,ARG0
209,3,bintang_1,3,adalah_1,2,1,O,O,NN,cop,VB,unk
209,5,bintang_1,3,sayang_1,4,1,O,O,NN,compound,NN,mod
209,6,sayang_1,4,gemar_1,5,0,O,O,NN,compound,RB,mod
210,1,bawa_1,1,azhila_1,0,1,O,PER,VB,nsubj,SC,ARG0
210,3,bawa_1,1,tas_1,2,1,O,O,VB,obj,NN,ARG1
210,4,buat_1,4,yang_1,3,0,O,O,VB,nsubj:pass,SC,unk
210,5,tas_1,2,buat_1,4,0,O,O,NN,acl,VB,mod
210,7,buat_1,4,kulit_1,6,0,O,O,VB,obl,NN,mod
210,8,kulit_1,6,harimau_1,7,0,O,O,NN,compound,NN,mod
210,9,kulit_1,6,asli_1,8,0,O,O,NN,amod,JJ,unk
211,1,bawa_1,1,mereka_1,0,1,O,O,VB,nsubj,PRP,ARG0
211,3,bawa_1,1,tas_1,2,1,O,O,VB,obj,NN,ARG1
212,1,bawa_1,1,tas_1,0,1,O,O,VB,nsubj:pass,NNP,ARG1
212,3,bawa_1,1,mereka_1,2,1,O,O,VB,obj,PRP,ARG0
213,1,menang_1,1,aji_1,0,1,O,PER,VB,nsubj,NNP,ARG0
213,3,menang_1,1,lomba_1,2,1,O,O,VB,obj,NN,ARG1
213,4,lomba_1,2,tulis_1,3,0,O,O,NN,compound,NN,mod
213,5,tulis_1,3,karya_1,4,0,O,O,NN,compound,NN,mod
213,6,karya_1,4,ilmiah_1,5,0,O,O,NN,amod,NN,mod
214,1,harga_1,1,tulis_1,0,1,O,O,VB,nsubj:pass,NN,ARG1
214,4,harga_1,1,juri_1,3,1,O,O,VB,obl,NN,ARG0
215,1,harga_1,1,juri_1,0,1,O,O,VB,nsubj,NNP,ARG0
215,3,harga_1,1,tulis_1,2,1,O,O,VB,obj,NN,ARG1
216,1,beri_1,2,lomba_1,0,1,O,O,VB,nsubj,NN,ARG0
216,4,beri_1,2,hadiah_1,3,1,O,O,VB,obj,NN,ARG1
216,5,hadiah_1,3,libur_1,4,0,O,O,NN,compound,NN,mod
216,7,beri_1,2,eropa_1,6,1,O,GPE,VB,obl,WH,ARG1
217,1,sinar_1,3,malam_1,0,1,O,O,NN,obl,NN,time
217,3,sinar_1,3,bulan_1,2,1,O,O,NN,nsubj,NN,ARG0
217,5,sinar_1,3,cerah_1,4,1,O,O,NN,amod,JJ,mod
218,2,larut_1,2,orang_1,1,1,O,O,VB,nsubj,NN,ARG0
218,5,larut_1,2,senang_1,4,1,O,O,VB,obl,NN,ARG1
219,1,tampak_1,2,gadis_1,0,1,O,O,VB,nsubj,NN,ARG0
219,4,tampak_1,2,nikmat_1,3,1,O,O,VB,xcomp,VB,ARG1
219,5,nikmat_1,3,musik_1,4,0,O,O,VB,obj,NN,ARG1
220,1,gerak_1,1,badan_1,0,1,O,O,VB,nsubj,RB,ARG0
220,3,gerak_1,1,irama_1,2,1,O,O,VB,punct,JJ,mod
221,1,lihat_1,4,tampak_1,0,1,O,O,RB,advcl,NN,unk
221,3,tampak_1,0,pria_1,2,0,O,O,NN,obj,NN,ARG0
221,4,pria_1,2,kagum_1,3,0,O,O,NN,amod,NN,unk
221,7,lihat_1,4,jauh_1,6,1,O,O,RB,amod,JJ,mod
222,1,kenal_1,3,kini_1,0,0,O,O,VB,nmod,NN,time
222,3,kenal_1,3,hanya_1,2,0,O,O,VB,advmod,RB,ARG1
222,4,ia_1,1,kenal_1,3,1,O,O,PRP,amod,VB,unk
222,5,otak_1,5,lewat_1,4,0,O,O,NN,case,NN,unk
222,6,kenal_1,3,otak_1,5,0,O,O,VB,nmod,NN,unk
222,7,otak_1,5,cerdas_1,6,0,O,O,NN,compound,RB,mod
223,1,kenal_1,3,kini_1,0,1,O,O,VB,advmod,NN,unk
223,2,kenal_1,3,ia_1,1,1,O,O,VB,nsubj:pass,PRP,ARG0
223,3,kenal_1,3,juga_1,2,1,O,O,VB,advmod,RB,unk
223,6,kenal_1,3,perempuan_1,5,1,O,O,VB,obl,NN,ARG1
223,7,perempuan_1,5,pesona_1,6,0,O,O,NN,amod,NN,mod
224,1,akhir_1,2,bu_1,0,1,O,ORG,VB,nsubj,NNP,ARG0
224,2,bu_1,0,ayu_1,1,0,ORG,PER,NNP,flat,NNP,name
224,4,akhir_1,2,kisah_1,3,1,O,O,VB,obj,NN,ARG1
224,5,kisah_1,3,bahagia_1,4,0,O,O,NN,amod,RB,mod
225,1,akhir_1,2,kisah_1,0,1,O,O,VB,nsubj:pass,NN,ARG1
225,2,kisah_1,0,bahagia_1,1,0,O,O,NN,amod,RB,mod
225,4,akhir_1,2,ayu_1,3,1,O,O,VB,obj,NNP,ARG1
226,1,pilih_1,1,karya_1,0,1,O,O,VB,nsubj:pass,RB,ARG0
226,3,pilih_1,1,jadi_1,2,1,O,O,VB,xcomp,VB,ARG1
226,4,karya_2,4,10_1,3,0,QTY,CRD,NN,nummod,CD,unk
226,5,jadi_1,2,karya_2,4,0,O,QTY,VB,obj,NN,ARG1
226,6,karya_2,4,baik_1,5,0,QTY,O,NN,amod,JJ,mod
227,1,pesona_1,1,orangorang_1,0,1,O,PER,NN,nsubj:pass,NN,unk
227,4,pesona_1,1,diri_1,3,1,O,O,NN,obl,NN,ARG1
227,5,diri_1,3,hari_1,4,0,O,O,NN,nmod,NN,unk
228,2,datang_1,4,hari_1,1,1,O,O,VB,obl,NN,ARG1
228,3,datang_1,4,om_1,2,1,O,ORG,VB,nsubj,NNP,ARG0
228,4,om_1,2,aria_1,3,0,ORG,PER,NNP,flat,NNP,name
228,6,datang_1,4,temu_1,5,1,O,O,VB,xcomp,VB,ARG1
228,7,temu_1,5,tante_1,6,0,O,ORG,VB,obj,NNP,ARG1
228,8,tante_1,6,laisha_1,7,0,ORG,LOC,NNP,flat,NNP,name
229,1,duduk_1,1,mereka_1,0,1,O,O,VB,nsubj,PRP,ARG0
229,3,duduk_1,1,bahan_1,2,1,O,O,VB,xcomp,NN,unk
229,5,trem_1,5,dalam_1,4,0,O,O,JJ,case,NN,unk
229,6,bahan_1,2,trem_1,5,0,O,O,NN,obl,JJ,ARG1
230,1,beri_1,1,aku_1,0,1,O,O,NN,nsubj,NN,ARG0
230,3,beri_1,1,uang_1,2,1,O,O,NN,obj,NN,ARG1
230,4,rupiah_1,5,lima_1,3,0,DAT,CRD,NN,nummod,CD,unk
230,5,rupiah_1,5,ribu_1,4,0,DAT,MON,NN,compound,CD,unk
230,6,uang_1,2,rupiah_1,5,0,O,DAT,NN,compound,NN,unk
231,1,beri_1,2,suster_1,0,1,O,ORG,NN,nsubj,NNP,ARG0
231,2,suster_1,0,nabilla_1,1,0,ORG,PER,NNP,flat,NNP,name
231,4,beri_1,2,kripik_1,3,1,O,O,NN,obj,JJ,ARG1
232,1,selesai_1,2,pak_1,0,1,O,ORG,VB,nsubj,NNP,ARG0
232,2,pak_1,0,aria_1,1,0,ORG,PER,NNP,flat,NNP,name
232,4,selesai_1,2,tesis_1,3,1,O,O,VB,obj,NN,ARG1
233,1,selesai_1,1,tesis_1,0,1,O,O,VB,nsubj:pass,NNP,ARG1
233,3,selesai_1,1,pak_1,2,1,O,O,VB,obj,NNP,ARG0
233,4,pak_1,2,aria_1,3,0,O,LOC,NNP,flat,NNP,name
234,1,bawa_1,2,paman_1,0,1,O,ORG,VB,nsubj,NNP,ARG0
234,2,paman_1,0,anto_1,1,0,ORG,PER,NNP,flat,NNP,name
234,4,bawa_1,2,bingkis_1,3,1,O,O,VB,obj,NN,ARG1
235,1,unjung_1,1,aku_1,0,1,O,O,VB,nsubj,NNP,ARG0
235,3,unjung_1,1,museum_1,2,1,O,O,VB,obj,NN,ARG1
235,4,museum_1,2,van_1,3,0,O,LOC,NN,flat,NNP,name
235,5,van_1,3,gogh_1,4,0,LOC,O,NNP,flat,NNP,unk
236,1,kunjung_1,3,museum_1,0,1,O,ORG,VB,nsubj:pass,NNP,ARG1
236,2,museum_1,0,van_1,1,0,ORG,O,NNP,flat,NNP,name
236,3,van_1,1,gogh_1,2,0,O,PER,NNP,flat,NNP,unk
236,5,kunjung_1,3,aku_1,4,1,O,O,VB,obj,NN,ARG0
237,1,main_1,2,wafir_1,0,1,O,PER,VB,nsubj,NNP,ARG0
237,2,main_1,2,jago_1,1,1,O,O,VB,amod,NNP,mod
238,1,jadi_1,2,aku_1,0,1,O,O,VB,nsubj,NN,ARG0
238,2,jadi_1,2,ingin_1,1,1,O,O,VB,advmod,RB,unk
238,4,baik_1,4,lebih_1,3,0,O,O,JJ,advmod,RB,unk
238,5,jadi_1,2,baik_1,4,1,O,O,VB,amod,JJ,unk
238,6,jadi_1,2,lagi_1,5,1,O,O,VB,advmod,RB,unk
239,1,temu_1,3,bu_1,0,1,O,ORG,VB,nsubj,NNP,ARG0
239,2,bu_1,0,ayu_1,1,0,ORG,PER,NNP,flat,NNP,name
239,3,temu_1,3,sengaja_1,2,1,O,O,VB,advmod,RB,mod
239,5,temu_1,3,pak_1,4,1,O,ORG,VB,obj,NNP,ARG1
239,6,pak_1,4,jabbar_1,5,0,ORG,PER,NNP,flat,NNP,name
239,8,temu_1,3,konser_1,7,1,O,O,VB,obl,FW,location
240,1,pilih_1,2,mereka_1,0,1,O,O,VB,nsubj,PRP,ARG0
240,2,pilih_1,2,akhir_1,1,1,O,O,VB,advmod,RB,unk
240,4,gabung_1,4,untuk_1,3,0,O,O,VB,case,SC,unk
240,5,pilih_1,2,gabung_1,4,1,O,O,VB,xcomp,VB,unk
241,1,lihat_1,1,pandang_1,0,1,O,O,VB,nsubj:pass,RB,ARG1
241,3,lihat_1,1,indah_1,2,1,O,O,VB,amod,JJ,unk
242,2,dewi_1,0,anak_1,1,1,PER,O,NN,compound,NN,unk
242,3,baik_1,3,yang_1,2,0,O,O,JJ,nsubj,SC,ARG0
242,4,dewi_1,0,baik_1,3,1,PER,O,NN,amod,JJ,mod
243,2,firman_1,0,anak_1,1,1,PER,O,NN,acl,NN,unk
243,3,anak_1,1,nakal_1,2,0,O,O,NN,compound,JJ,mod
244,2,indah_1,2,yang_1,1,0,O,O,JJ,nsubj,SC,ARG0
244,3,lukis_1,0,indah_1,2,1,O,O,NN,amod,JJ,unk
245,1,hembus_1,1,angin_1,0,1,O,O,VB,nsubj,RB,ARG0
245,4,hembus_1,1,arah_1,3,1,O,O,VB,obl,NN,ARG1
245,5,arah_1,3,barat_1,4,0,O,O,NN,compound,NN,unk
246,3,paman_1,0,jawa_1,2,1,O,GPE,RB,nmod,NNP,unk
246,4,jawa_1,2,tengah_1,3,0,GPE,O,NNP,flat,NNP,mod
247,1,pergi_1,1,saya_1,0,1,O,O,VB,nsubj,PRP,ARG0
247,4,pergi_1,1,sekolah_1,3,1,O,O,VB,obl,NN,location
248,1,laksana_1,2,seminar_1,0,1,O,PER,VB,nsubj:pass,NN,ARG1
248,5,laksana_1,2,gedung_1,4,1,O,O,VB,obl,NNP,location
248,6,gedung_1,4,serba_1,5,0,O,O,NNP,flat,NNP,mod
248,7,serba_1,5,guna_1,6,0,O,O,NNP,flat,NNP,mod
249,1,kunjung_1,3,kemarin_1,0,1,O,O,VB,advmod,NN,time
249,2,kunjung_1,3,aku_1,1,1,O,O,VB,nsubj,NN,ARG0
249,3,kunjung_1,3,sempat_1,2,1,O,O,VB,advmod,MD,unk
249,6,kunjung_1,3,rumah_1,5,1,O,O,VB,obl,RB,location
250,1,bawa_1,2,paman_1,0,1,O,PER,VB,nsubj,NNP,ARG0
250,2,paman_1,0,noel_1,1,0,PER,O,NNP,flat,NNP,name
250,4,bawa_1,2,serabi_1,3,1,O,O,VB,obj,NN,ARG1
250,6,serabi_1,3,semarang_1,5,0,O,GPE,NN,nmod,NNP,unk
251,1,bawa_1,1,serabi_1,0,1,O,PER,VB,nsubj:pass,NNP,ARG1
251,3,bawa_1,1,paman_1,2,1,O,PRD,VB,obj,NN,ARG0
251,5,bawa_1,1,semarang_1,4,1,O,GPE,VB,obl,NNP,location
252,1,laku_1,5,kerja_1,0,1,O,O,VB,nsubj:pass,NN,ARG1
252,2,kerja_1,0,kelompok_1,1,0,O,O,NN,compound,NN,mod
252,3,kelompok_1,1,hari_1,2,0,O,O,NN,compound,NN,unk
252,5,laku_1,5,akan_1,4,1,O,O,VB,advmod,MD,unk
252,8,laku_1,5,rumah_1,7,1,O,O,VB,obl,NN,location
252,9,rumah_1,7,ami_1,8,0,O,O,NN,flat,NNP,name
253,1,wisata_1,4,hari_1,0,1,O,O,VB,obl,NN,time
253,3,wisata_1,4,kita_1,2,1,O,O,VB,nsubj,PRP,ARG0
253,4,wisata_1,4,akan_1,3,1,O,O,VB,advmod,MD,unk
253,7,wisata_1,4,yogyakarta_1,6,1,O,GPE,VB,obl,NNP,location
254,1,terima_1,3,kampus_1,0,1,O,PER,VB,nsubj,NN,ARG0
254,3,terima_1,3,juga_1,2,1,O,O,VB,advmod,RB,unk
254,5,terima_1,3,mahasiswa_1,4,1,O,O,VB,obj,NN,ARG1
254,7,mahasiswa_1,4,luar_1,6,0,O,O,NN,nmod,NN,mod
254,8,luar_1,6,negeri_1,7,0,O,O,NN,compound,NN,mod
255,1,laku_1,2,aksi_1,0,1,O,O,VB,nsubj:pass,NN,ARG1
255,2,aksi_1,0,demo_1,1,0,O,O,NN,compound,NN,mod
255,5,laku_1,2,depan_1,4,1,O,O,VB,obl,NN,location
255,6,depan_1,4,gedung_1,5,0,O,O,NN,flat,NNP,mod
255,7,gedung_1,5,mpr_1,6,0,O,LOC,NNP,flat,NNP,mod
256,2,temu_1,3,bandung_1,1,1,O,GPE,VB,obl,NNP,location
256,3,temu_1,3,aku_1,2,1,O,O,VB,nsubj,VB,ARG0
256,7,temu_1,3,kawan_1,6,1,O,O,VB,obl,NN,ARG1
256,8,kawan_1,6,lama_1,7,0,O,O,NN,amod,JJ,mod
257,1,mampir_1,4,pulang_1,0,1,O,O,NN,nsubj,NN,time
257,3,pulang_1,0,kantor_1,2,0,O,O,NN,nmod,NN,unk
257,4,mampir_1,4,aku_1,3,1,O,O,NN,nsubj,NN,ARG0
257,7,mampir_1,4,rumah_1,6,1,O,O,NN,obl,NN,location
257,8,rumah_1,6,makan_1,7,0,O,O,NN,compound,VB,mod
258,1,naik_1,1,kami_1,0,1,O,O,VB,nsubj,PRP,ARG0
258,3,naik_1,1,kereta_1,2,1,O,O,VB,obj,NN,ARG1
258,4,kereta_1,2,api_1,3,0,O,O,NN,compound,NN,mod
258,6,naik_1,1,stasiun_1,5,1,O,LOC,VB,obl,NNP,location
258,7,stasiun_1,5,gambir_1,6,0,LOC,O,NNP,flat,NNP,name
259,1,rupa_1,1,dodol_1,0,1,O,PER,VB,nsubj,NNP,ARG0
259,3,rupa_1,1,makan_1,2,1,O,O,VB,obj,NN,ARG1
259,4,makan_1,2,khas_1,3,0,O,O,NN,amod,VB,mod
259,6,makan_1,2,garut_1,5,0,O,GPE,NN,nmod,NNP,unk
260,3,wisatawan_1,1,mancanegara_1,2,1,O,O,NN,amod,NN,unk
260,4,wisata_1,4,yang_1,3,0,O,O,VB,nsubj,SC,ARG0
260,5,wisatawan_1,1,wisata_1,4,1,O,O,NN,acl,VB,unk
260,7,wisata_1,4,pulau_1,6,0,O,LOC,VB,obl,NNP,location
260,8,pulau_1,6,bal_1,7,0,LOC,O,NNP,flat,NNP,unk
261,2,dapat_1,2,rumah_1,1,1,O,O,VB,obl,RB,location
261,4,koleksi_1,4,banyak_1,3,0,O,O,NN,advmod,CD,unk
261,5,dapat_1,2,koleksi_1,4,1,O,O,VB,obj,NN,ARG1
261,6,koleksi_1,4,main_1,5,0,O,O,NN,compound,NN,mod
261,7,main_1,5,zaman_1,6,0,O,O,NN,compound,NN,mod
261,8,dapat_1,2,dulu_1,7,1,O,O,VB,obl,JJ,ARG1
262,1,rupa_1,2,profesor_1,0,1,O,O,VB,nsubj,NNP,ARG0
262,2,profesor_1,0,manaf_1,1,0,O,PER,NNP,flat,NNP,name
262,4,rupa_1,2,jebol_1,3,1,O,O,VB,obj,NN,ARG1
262,6,jebol_1,3,universitas_1,5,0,O,ORG,NN,nmod,NNP,location
262,7,universitas_1,5,connecticut_1,6,0,ORG,LOC,NNP,flat,NNP,location
263,1,baca_1,2,ibu_1,0,1,O,O,VB,nsubj,NNP,ARG0
263,2,ibu_1,0,dita_1,1,0,O,PER,NNP,flat,NNP,name
263,4,baca_1,2,buku_1,3,1,O,O,VB,obj,NN,ARG1
264,1,baca_1,1,buku_1,0,1,O,O,NN,nsubj:pass,NN,ARG1
264,3,baca_1,1,ibu_1,2,1,O,O,NN,obj,NNP,ARG0
264,4,ibu_1,2,dita_1,3,0,O,LOC,NNP,flat,NNP,name
265,1,beli_1,2,pak_1,0,1,O,ORG,VB,nsubj,NNP,ARG0
265,2,pak_1,0,roni_1,1,0,ORG,PER,NNP,flat,NNP,name
265,4,beli_1,2,roti_1,3,1,O,O,VB,obj,NNP,ARG1
266,1,beli_1,1,roti_1,0,1,O,O,VB,nsubj:pass,NNP,ARG1
266,3,beli_1,1,pak_1,2,1,O,O,VB,obj,NNP,ARG0
266,4,pak_1,2,roni_1,3,0,O,LOC,NNP,flat,NNP,name
267,1,kena_1,2,mbak_1,0,1,O,PER,VB,nsubj,NNP,ARG0
267,2,mbak_1,0,tukimin_1,1,0,PER,O,NNP,flat,NNP,name
267,4,kena_1,2,baju_1,3,1,O,O,VB,obj,NN,ARG1
267,5,baju_1,3,merah_1,4,0,O,O,NN,amod,JJ,mod
268,1,kena_1,2,baju_1,0,1,O,O,VB,nsubj:pass,NN,ARG1
268,2,baju_1,0,merah_1,1,0,O,O,NN,amod,JJ,mod
268,4,kena_1,2,mbak_1,3,1,O,O,VB,obj,NNP,ARG0
268,5,mbak_1,3,tukimin_1,4,0,O,LOC,NNP,flat,NNP,name
269,1,cetak_1,1,kita_1,0,1,O,O,VB,nsubj,PRP,ARG0
269,3,cetak_1,1,gol_1,2,1,O,O,VB,obj,NN,ARG1
269,5,gol_1,2,gawang_1,4,0,O,O,NN,nmod,NN,unk
269,6,gawang_1,4,lawan_1,5,0,O,O,NN,compound,NN,mod
270,1,cetak_1,1,gol_1,0,1,O,O,NN,nsubj:pass,NN,ARG1
270,3,cetak_1,1,kita_1,2,1,O,O,NN,obj,PRP,ARG0
270,5,cetak_1,1,gawang_1,4,1,O,O,NN,obl,NN,location
270,6,gawang_1,4,lawan_1,5,0,O,O,NN,compound,NN,mod
271,1,mintal_1,2,mbak_1,0,1,O,ORG,NN,nsubj,NNP,ARG0
271,2,mbak_1,0,shinta_1,1,0,ORG,PER,NNP,flat,NNP,name
271,4,mintal_1,2,benang_1,3,1,O,O,NN,obj,NN,ARG1
271,5,benang_1,3,wol_1,4,0,O,O,NN,compound,JJ,mod
272,1,etik_1,1,saya_1,0,1,O,O,NN,nsubj,PRP,ARG0
272,3,etik_1,1,cerita_1,2,1,O,O,NN,obj,PRP,ARG1
273,1,ketik_1,1,cerita_1,0,1,O,O,NN,nsubj:pass,NN,ARG1
273,3,ketik_1,1,saya_1,2,1,O,O,NN,obj,PRP,ARG0
274,1,ada_1,1,balonku_1,0,1,O,PER,VB,nsubj,NNP,ARG0
274,3,ada_1,1,lima_1,2,1,O,CRD,VB,nummod,CD,mod
275,1,ada_1,1,aku_1,0,1,O,O,VB,nsubj,NNP,ARG0
275,4,ada_1,1,depan_1,3,1,O,O,VB,obl,NN,location
275,5,depan_1,3,gedung_1,4,0,O,O,NN,nmod,NN,mod
276,2,kita_1,0,haus_1,1,1,O,O,PRP,acl,NN,unk
277,1,beli_1,2,ayah_1,0,1,O,O,VB,nsubj,NNP,ARG0
277,2,ayah_1,0,dodi_1,1,0,O,PER,NNP,flat,NNP,name
277,4,beli_1,2,motor_1,3,1,O,O,VB,obj,NN,ARG1
278,1,beli_1,1,motor_1,0,1,O,PER,VB,nsubj:pass,NN,ARG1
278,3,beli_1,1,ayah_1,2,1,O,O,VB,obj,NNP,ARG0
278,4,ayah_1,2,dodi_1,3,0,O,O,NNP,flat,NNP,name
279,1,jual_1,2,ibu_1,0,1,O,O,VB,nsubj,NNP,ARG0
279,2,ibu_1,0,sukiyem_1,1,0,O,O,NNP,flat,NNP,name
279,4,jual_1,2,kue_1,3,1,O,O,VB,obj,FW,ARG1
279,6,jual_1,2,pasar_1,5,1,O,O,VB,obl,NN,location
280,1,jual_1,1,kue_1,0,1,O,O,VB,nsubj:pass,NN,ARG1
280,3,jual_1,1,ibu_1,2,1,O,O,VB,obj,NNP,ARG0
280,4,ibu_1,2,sukiyem_1,3,0,O,LOC,NNP,flat,NNP,name
280,6,jual_1,1,pasar_1,5,1,O,O,VB,obl,NN,location
281,1,tanya_1,2,mas_1,0,1,O,ORG,VB,nsubj,NNP,ARG0
281,2,mas_1,0,ridho_1,1,0,ORG,PER,NNP,flat,NNP,name
281,5,tanya_1,2,guru_1,4,1,O,O,VB,obl,NN,ARG1
282,3,anjing_1,0,gonggong_1,2,1,O,O,NN,amod,VB,unk
283,2,suara_1,0,harimau_1,1,1,O,O,NN,compound,NN,unk
283,3,suara_1,0,aum_1,2,1,O,O,NN,flat,NN,unk
284,3,kucing_1,0,lari_1,2,1,O,O,NN,punct,NN,unk
285,2,adik_1,0,tidur_1,1,1,O,O,NN,compound,VB,unk
286,1,masak_1,2,ibu_1,0,1,O,O,VB,nsubj,NNP,ARG0
286,2,ibu_1,0,rina_1,1,0,O,PER,NNP,flat,NNP,name
286,5,masak_1,2,dapur_1,4,1,O,O,VB,obl,NN,location
287,1,pergi_1,2,ibu_1,0,1,O,O,VB,nsubj,NNP,ARG0
287,2,ibu_1,0,tina_1,1,0,O,O,NNP,flat,NNP,name
287,5,pergi_1,2,pasar_1,4,1,O,O,VB,obl,NN,location
288,1,tulis_1,2,kak_1,0,1,O,ORG,VB,nsubj,NNP,ARG0
288,2,kak_1,0,rima_1,1,0,ORG,PER,NNP,flat,NNP,name
288,4,tulis_1,2,surat_1,3,1,O,O,VB,obj,NN,ARG1
289,1,tulis_1,1,surat_1,0,1,O,O,NN,nsubj:pass,NN,ARG1
289,3,tulis_1,1,kak_1,2,1,O,ORG,NN,obj,NNP,ARG0
289,4,kak_1,2,rima_1,3,0,ORG,LOC,NNP,flat,NNP,name
290,1,tutup_1,2,pak_1,0,1,O,ORG,VB,nsubj,NNP,ARG0
290,2,pak_1,0,toni_1,1,0,ORG,PER,NNP,flat,NNP,name
290,4,tutup_1,2,jendela_1,3,1,O,O,VB,obj,NN,ARG1
291,1,tutup_1,1,jendela_1,0,1,O,PER,VB,nsubj:pass,NN,ARG1
291,3,tutup_1,1,pak_1,2,1,O,LOC,VB,obj,NNP,ARG0
291,4,pak_1,2,ton_1,3,0,LOC,O,NNP,flat,NNP,unk
292,2,bu_1,0,ayu_1,1,1,ORG,PER,NNP,flat,NNP,name
292,3,bu_1,0,desah_1,2,1,ORG,O,NNP,flat,VB,unk
293,1,siram_1,1,susi_1,0,1,O,PER,NN,nsubj,NN,ARG0
293,3,siram_1,1,tanam_1,2,1,O,O,NN,obj,NN,ARG1
294,1,siram_1,1,tanam_1,0,1,O,O,NN,nsubj:pass,NN,ARG1
294,3,siram_1,1,sus_1,2,1,O,O,NN,obj,NN,ARG1
295,2,dia_1,0,goda_1,1,1,O,O,PRP,punct,VB,unk
296,1,duduk_1,1,dia_1,0,1,O,O,VB,nsubj,PRP,ARG0
297,2,ibu_1,0,dodi_1,1,1,O,O,NNP,flat,NNP,name
297,3,ibu_1,0,simpuh_1,2,1,O,O,NNP,flat,VB,unk
298,2,kami_1,0,sujud_1,1,1,O,O,PRP,flat,VB,unk
299,2,balita_1,0,rangkak_1,1,1,O,O,PRP,flat,VB,unk
300,2,mereka_1,0,peranjat_1,1,1,O,O,PRP,punct,VB,unk
301,2,polisi_1,0,siaga_1,1,1,ORG,O,NN,flat,NN,unk
302,2,aku_1,0,teriak_1,1,1,O,O,NNP,flat,VB,unk
303,1,atur_1,1,polisi_1,0,1,O,PER,NN,nsubj,NN,ARG0
303,3,atur_1,1,lalin_1,2,1,O,O,NN,obj,NNP,ARG1
304,1,atur_1,1,lalin_1,0,1,O,O,NNP,nsubj:pass,NNP,ARG1
304,3,atur_1,1,polisi_1,2,1,O,GPE,NNP,obj,NNP,ARG0
305,1,tutup_1,2,bu_1,0,1,O,ORG,VB,nsubj,NNP,ARG0
305,2,bu_1,0,resti_1,1,0,ORG,PER,NNP,flat,NNP,name
305,4,tutup_1,2,mata_1,3,1,O,O,VB,obj,NN,ARG1
306,1,tutup_1,1,mata_1,0,1,O,O,VB,nsubj:pass,NN,ARG1
306,3,tutup_1,1,bu_1,2,1,O,O,VB,obj,NNP,ARG0
306,4,bu_1,2,resti_1,3,0,O,LOC,NNP,flat,NNP,name
307,1,buat_1,2,kak_1,0,1,O,ORG,VB,nsubj,NNP,ARG0
307,2,kak_1,0,sally_1,1,0,ORG,PER,NNP,flat,NNP,name
307,4,buat_1,2,adon_1,3,1,O,O,VB,obj,NN,ARG1
308,1,buat_1,1,adonan_1,0,1,O,PER,VB,nsubj:pass,NN,unk
308,3,buat_1,1,kak_1,2,1,O,ORG,VB,obj,NNP,ARG0
308,4,kak_1,2,sally_1,3,0,ORG,LOC,NNP,flat,NNP,name
309,1,ikut_1,1,aku_1,0,1,O,O,VB,nsubj,NNP,ARG0
309,3,ikut_1,1,bapak_1,2,1,O,O,VB,obj,NNP,ARG1
309,4,bapak_1,2,john_1,3,0,O,GPE,NNP,flat,NNP,name
310,1,ikut_1,2,bapak_1,0,1,O,O,VB,nsubj:pass,NNP,ARG1
310,2,bapak_1,0,john_1,1,0,O,PER,NNP,flat,NNP,name
310,4,ikut_1,2,aku_1,3,1,O,O,VB,obj,NNP,ARG0
311,1,bangun_1,1,tukang_1,0,1,O,O,VB,nsubj,NN,ARG0
311,3,bangun_1,1,rumah_1,2,1,O,O,VB,obj,NN,ARG1
312,1,bangun_1,1,rumah_1,0,1,O,O,VB,nsubj:pass,NNP,ARG1
312,3,bangun_1,1,tukang_1,2,1,O,O,VB,obj,NN,ARG0
313,1,nanti_1,2,nenek_1,0,1,O,O,NNP,nsubj,NNP,ARG0
313,2,nenek_1,0,yanti_1,1,0,O,PER,NNP,flat,NNP,name
313,4,nanti_1,2,kakek_1,3,1,O,ORG,NNP,obj,NNP,ARG1
313,5,kakek_1,3,joni_1,4,0,ORG,LOC,NNP,flat,NNP,name
314,1,nanti_1,2,kakek_1,0,1,O,ORG,NNP,nsubj:pass,NNP,ARG1
314,2,kakek_1,0,joni_1,1,0,ORG,O,NNP,flat,NNP,name
314,4,nanti_1,2,nenek_1,3,1,O,O,NNP,obj,NNP,ARG0
314,5,nenek_1,3,yanti_1,4,0,O,LOC,NNP,flat,NNP,name
315,1,basuh_1,1,kami_1,0,1,O,O,VB,nsubj,PRP,ARG0
315,3,basuh_1,1,muka_1,2,1,O,O,VB,obj,VB,ARG1
316,1,basuh_1,1,muka_1,0,1,O,O,NN,nsubj:pass,NN,ARG1
316,3,basuh_1,1,kami_1,2,1,O,O,NN,obj,PRP,ARG0
317,1,tampar_1,2,pakdhe_1,0,1,O,ORG,VB,nsubj,NNP,ARG0
317,2,pakdhe_1,0,yayas_1,1,0,ORG,PER,NNP,flat,NNP,name
317,4,tampar_1,2,kakak_1,3,1,O,O,VB,obj,VB,ARG1
318,1,tampar_1,1,kakak_1,0,1,O,O,VB,nsubj:pass,NN,ARG1
318,3,tampar_1,1,pakdhe_1,2,1,O,ORG,VB,obj,NNP,ARG0
318,4,pakdhe_1,2,yayas_1,3,0,ORG,LOC,NNP,flat,NNP,name
319,1,donor_1,1,kami_1,0,1,O,O,VB,nsubj,PRP,ARG0
319,3,donor_1,1,darah_1,2,1,O,O,VB,obj,NN,ARG1
320,1,donor_1,1,darah_1,0,1,O,O,VB,nsubj:pass,NN,ARG1
320,3,donor_1,1,kami_1,2,1,O,O,VB,obj,PRP,ARG0
321,1,tipu_1,2,om_1,0,1,O,ORG,VB,nsubj,NNP,ARG0
321,2,om_1,0,wiwit_1,1,0,ORG,PER,NNP,flat,NNP,name
321,4,tipu_1,2,teman_1,3,1,O,O,VB,obj,RB,ARG1
322,1,tipu_1,1,teman_1,0,1,O,O,VB,nsubj:pass,RB,ARG1
322,3,tipu_1,1,om_1,2,1,O,O,VB,obj,NNP,ARG0
322,4,om_1,2,wiwit_1,3,0,O,LOC,NNP,flat,NNP,name
323,1,tarik_1,1,ibu_1,0,1,O,O,VB,nsubj,NNP,ARG0
323,3,tarik_1,1,adik_1,2,1,O,O,VB,obj,NN,ARG1
324,1,tarik_1,1,adik_1,0,1,O,O,NN,nsubj:pass,NN,ARG1
324,3,tarik_1,1,ibu_1,2,1,O,O,NN,obj,NNP,ARG0
325,1,rindu_1,1,aku_1,0,1,O,O,VB,nsubj,NNP,ARG0
325,3,rindu_1,1,bu_1,2,1,O,O,VB,obj,NNP,ARG1
325,4,bu_1,2,azka_1,3,0,O,LOC,NNP,flat,NNP,name
326,1,rindu_1,2,bu_1,0,1,O,ORG,VB,nsubj:pass,NNP,ARG1
326,2,bu_1,0,azka_1,1,0,ORG,PER,NNP,flat,NNP,name
326,4,rindu_1,2,aku_1,3,1,O,O,VB,obj,NN,ARG0
327,1,bawa_1,1,adik_1,0,1,O,O,VB,nsubj,NN,ARG0
327,3,bawa_1,1,makan_1,2,1,O,O,VB,obj,NN,ARG1
328,1,bawa_1,1,makan_1,0,1,O,O,VB,nsubj:pass,NN,ARG1
328,3,bawa_1,1,adik_1,2,1,O,O,VB,punct,NN,ARG0
329,1,rawat_1,2,suster_1,0,1,O,ORG,VB,nsubj,NNP,ARG0
329,2,suster_1,0,siska_1,1,0,ORG,PER,NNP,flat,NNP,name
329,4,rawat_1,2,pasien_1,3,1,O,O,VB,obj,NN,ARG1
330,1,rawat_1,1,pasien_1,0,1,O,O,VB,nsubj:pass,NN,ARG1
330,3,rawat_1,1,suster_1,2,1,O,ORG,VB,obj,NNP,ARG0
330,4,suster_1,2,siska_1,3,0,ORG,LOC,NNP,flat,NNP,name
331,1,cicip_1,2,tante_1,0,1,O,ORG,VB,nsubj,NNP,ARG0
331,2,tante_1,0,suti_1,1,0,ORG,PER,NNP,flat,NNP,name
331,4,cicip_1,2,masakan_1,3,1,O,O,VB,obj,VB,ARG1
332,1,cicip_1,1,masakan_1,0,1,O,O,NN,nsubj:pass,VB,unk
332,3,cicip_1,1,tante_1,2,1,O,O,NN,obj,NNP,ARG0
332,4,tante_1,2,sut_1,3,0,O,LOC,NNP,flat,NNP,unk
333,2,aku_1,0,cerita_1,1,1,O,O,NN,flat,PRP,unk
334,2,kakek_1,0,glenn_1,1,1,ORG,PER,NNP,flat,NNP,name
334,3,kakek_1,0,tinggal_1,2,1,ORG,O,NNP,acl,VB,unk
335,1,lamar_1,2,tante_1,0,1,O,ORG,VB,nsubj,NNP,ARG0
335,2,tante_1,0,siti_1,1,0,ORG,PER,NNP,flat,NNP,name
335,4,lamar_1,2,kerja_1,3,1,O,O,VB,obj,NN,ARG1
336,1,lamar_1,1,kerja_1,0,1,O,O,NN,nsubj:pass,NN,ARG1
336,3,lamar_1,1,tante_1,2,1,O,NOR,NN,obj,NNP,ARG0
336,4,tante_1,2,siti_1,3,0,NOR,O,NNP,flat,NNP,name
337,1,tembak_1,1,doni_1,0,1,O,PER,VB,nsubj:pass,NNP,ARG1
337,3,tembak_1,1,peluru_1,2,1,O,O,VB,obj,NN,ARG0
338,1,rambut_1,2,nenek_1,0,1,O,O,VB,nsubj,NNP,ARG0
338,2,nenek_1,0,krista_1,1,0,O,PER,NNP,flat,NNP,name
338,4,rambut_1,2,putih_1,3,1,O,O,VB,amod,JJ,ARG1
339,1,kata_1,2,kak_1,0,1,O,ORG,VB,nsubj,NNP,ARG0
339,2,kak_1,0,putri_1,1,0,ORG,O,NNP,flat,NNP,name
339,4,kata_1,2,kasar_1,3,1,O,O,VB,amod,JJ,ARG1
340,1,tabrak_1,2,adik_1,0,1,O,O,VB,nsubj:pass,NNP,ARG1
340,2,adik_1,0,kayla_1,1,0,O,PER,NNP,flat,NNP,name
340,4,tabrak_1,2,mobil_1,3,1,O,O,VB,obj,NN,ARG0
341,2,kami_1,0,teriak_1,1,1,O,O,PRP,punct,VB,unk
342,1,timpa_1,2,pak_1,0,1,O,ORG,NNP,nsubj:pass,NNP,ARG0
342,2,pak_1,0,risman_1,1,0,ORG,PER,NNP,flat,NNP,name
342,4,timpa_1,2,pohon_1,3,1,O,O,NNP,obj,NNP,ARG1
343,1,timpa_1,1,pohon_1,0,1,O,PER,NNP,nsubj,NNP,ARG1
343,3,timpa_1,1,pak_1,2,1,O,O,NNP,obj,NNP,ARG0
343,4,pak_1,2,risman_1,3,0,O,LOC,NNP,flat,NNP,name
344,1,baca_1,2,bu_1,0,1,O,ORG,VB,nsubj,NNP,ARG0
344,2,bu_1,0,angela_1,1,0,ORG,PER,NNP,flat,NNP,name
344,4,baca_1,2,naskah_1,3,1,O,O,VB,obj,NN,ARG1
344,5,naskah_1,3,drama_1,4,0,O,O,NN,compound,JJ,mod
345,1,baca_1,2,naskah_1,0,1,O,O,NN,nsubj:pass,NN,ARG1
345,2,naskah_1,0,drama_1,1,0,O,O,NN,compound,NN,mod
345,4,baca_1,2,bu_1,3,1,O,LOC,NN,obj,NNP,ARG0
345,5,bu_1,3,angela_1,4,0,LOC,PER,NNP,flat,NNP,name
346,1,bawa_1,1,ibu_1,0,1,O,O,VB,nsubj,NNP,ARG0
346,3,bawa_1,1,adik_1,2,1,O,O,VB,obj,NN,ARG1
346,5,bawa_1,1,pasar_1,4,1,O,O,VB,obl,NN,location
347,1,bawa_1,1,adik_1,0,1,O,O,VB,nsubj:pass,NN,ARG1
347,3,bawa_1,1,ibu_1,2,1,O,O,VB,obj,NN,ARG0
347,5,bawa_1,1,pasar_1,4,1,O,O,VB,obl,NN,location
348,1,gelar_1,2,budhe_1,0,1,O,PER,VB,nsubj,NNP,ARG0
348,2,budhe_1,0,tiwi_1,1,0,PER,O,NNP,flat,NNP,name
348,4,gelar_1,2,tikar_1,3,1,O,O,VB,obj,NN,ARG1
349,1,gelar_1,1,tikar_1,0,1,O,O,NN,nsubj:pass,NN,ARG1
349,3,gelar_1,1,budhe_1,2,1,O,ORG,NN,obj,NNP,ARG0
349,4,budhe_1,2,tiwi_1,3,0,ORG,LOC,NNP,flat,NNP,name
350,1,bawa_1,2,pak_1,0,1,O,ORG,VB,nsubj,NNP,ARG0
350,2,pak_1,0,ahmad_1,1,0,ORG,PER,NNP,flat,NNP,name
350,4,bawa_1,2,makan_1,3,1,O,O,VB,obj,NN,ARG1
351,1,bawa_1,1,makan_1,0,1,O,O,VB,nsubj:pass,NN,ARG1
351,3,bawa_1,1,pak_1,2,1,O,LOC,VB,obj,NNP,ARG0
351,4,pak_1,2,ahmad_1,3,0,LOC,O,NNP,flat,NNP,name
352,1,hadir_1,2,kakak_1,0,1,O,O,VB,nsubj,NNP,ARG0
352,2,kakak_1,0,dina_1,1,0,O,O,NNP,flat,NNP,name
352,4,hadir_1,2,pesta_1,3,1,O,O,VB,obj,NN,ARG1
352,5,pesta_1,3,nikah_1,4,0,O,O,NN,compound,NN,mod
353,1,hadir_1,2,pesta_1,0,1,O,O,VB,nsubj:pass,NN,ARG1
353,2,pesta_1,0,nikah_1,1,0,O,O,NN,compound,NN,mod
353,4,hadir_1,2,kakak_1,3,1,O,O,VB,obj,NNP,ARG0
353,5,kakak_1,3,dina_1,4,0,O,LOC,NNP,flat,NNP,name
354,1,jahit_1,2,ibu_1,0,1,O,O,NN,nsubj,NNP,ARG0
354,2,ibu_1,0,fio_1,1,0,O,PER,NNP,flat,NNP,name
354,4,jahit_1,2,baju_1,3,1,O,O,NN,obj,NN,ARG1
355,1,jahit_1,1,baju_1,0,1,O,O,NN,nsubj:pass,NN,ARG1
355,3,jahit_1,1,ibu_1,2,1,O,O,NN,obj,NNP,ARG0
355,4,ibu_1,2,fio_1,3,0,O,LOC,NNP,flat,NNP,name
356,1,baik_1,2,om_1,0,1,O,ORG,VB,nsubj,NNP,ARG0
356,2,om_1,0,bagus_1,1,0,ORG,O,NNP,flat,NNP,name
356,4,baik_1,2,motor_1,3,1,O,O,VB,obj,NN,ARG1
357,1,baik_1,1,motor_1,0,1,O,PER,VB,nsubj:pass,NN,ARG1
357,3,baik_1,1,om_1,2,1,O,O,VB,obj,NNP,ARG0
357,4,om_1,2,bagus_1,3,0,O,O,NNP,flat,NNP,name
358,1,sumbang_1,2,pak_1,0,1,O,ORG,VB,nsubj,NNP,ARG0
358,2,pak_1,0,ridwan_1,1,0,ORG,PER,NNP,flat,NNP,name
358,4,sumbang_1,2,semen_1,3,1,O,O,VB,obj,NN,ARG1
359,1,sumbang_1,1,semen_1,0,1,O,O,NN,nsubj:pass,NN,ARG1
359,3,sumbang_1,1,pak_1,2,1,O,O,NN,obj,NNP,ARG0
359,4,pak_1,2,ridwan_1,3,0,O,LOC,NNP,flat,NNP,name
360,1,benam_1,2,bu_1,0,1,O,ORG,VB,nsubj,NNP,ARG0
360,2,bu_1,0,bowo_1,1,0,ORG,PER,NNP,flat,NNP,name
360,4,benam_1,2,tikus_1,3,1,O,O,VB,obj,NN,ARG1
360,6,benam_1,2,sawah_1,5,1,O,O,VB,obl,NN,location
361,1,benam_1,1,tikus_1,0,1,O,O,VB,nsubj:pass,NNP,ARG1
361,3,benam_1,1,bu_1,2,1,O,PER,VB,obj,NNP,ARG0
361,4,bu_1,2,bowo_1,3,0,PER,O,NNP,flat,NNP,name
361,6,benam_1,1,sawah_1,5,1,O,O,VB,obl,NN,location
362,1,nyanyi_1,1,afgan_1,0,1,O,PER,VB,nsubj,NN,ARG0
362,3,nyanyi_1,1,lagu_1,2,1,O,O,VB,obj,NN,ARG1
362,4,lagu_1,2,sendu_1,3,0,O,O,NN,amod,VB,mod
363,1,nyanyi_1,2,lagu_1,0,1,O,O,VB,nsubj:pass,NN,ARG1
363,2,lagu_1,0,sendu_1,1,0,O,O,NN,amod,NN,mod
363,4,nyanyi_1,2,afgan_1,3,1,O,O,VB,obj,NNP,ARG0
364,1,simpan_1,2,ibu_1,0,1,O,O,NN,nsubj,NNP,ARG0
364,2,ibu_1,0,tina_1,1,0,O,O,NNP,flat,NNP,name
364,4,simpan_1,2,wasiat_1,3,1,O,O,NN,obj,NN,ARG1
365,1,simpan_1,1,wasiat_1,0,1,O,O,NN,nsubj:pass,NN,ARG1
365,3,simpan_1,1,ibu_1,2,1,O,O,NN,obj,NNP,ARG0
365,4,ibu_1,2,tina_1,3,0,O,LOC,NNP,flat,NNP,name
366,1,kunci_1,1,ayah_1,0,1,O,O,NN,nsubj,NN,ARG0
366,3,kunci_1,1,pintu_1,2,1,O,O,NN,obj,PR,ARG1
367,1,kunci_1,1,pintu_1,0,1,O,O,VB,nsubj:pass,RB,ARG1
367,3,kunci_1,1,ayah_1,2,1,O,O,VB,obj,NNP,ARG0
368,1,rawat_1,1,adik_1,0,1,O,O,NN,nsubj,NN,ARG0
368,3,rawat_1,1,kucing_1,2,1,O,O,NN,obj,FW,ARG1
369,1,rawat_1,1,kucing_1,0,1,O,O,VB,nsubj:pass,RB,ARG1
369,3,rawat_1,1,adik_1,2,1,O,O,VB,obj,NNP,ARG0
370,1,jaga_1,1,tni_1,0,1,O,ORG,VB,nsubj,NNP,ARG0
370,3,jaga_1,1,kebhinekaan_1,2,1,O,O,VB,obj,NN,ARG1
371,1,jaga_1,1,kebhinnekaan_1,0,1,O,O,NN,nsubj:pass,NN,unk
371,3,jaga_1,1,tni_1,2,1,O,NOR,NN,obj,NNP,ARG0
372,1,tuntut_1,1,buruh_1,0,1,O,O,VB,nsubj,CD,ARG0
372,3,tuntut_1,1,gaji_1,2,1,O,O,VB,obj,NN,ARG1
373,1,tuntut_1,1,gaji_1,0,1,O,O,VB,nsubj:pass,NNP,ARG1
373,3,tuntut_1,1,buruh_1,2,1,O,O,VB,obj,NNP,ARG0
374,1,suka_1,2,pak_1,0,1,O,ORG,NNP,nsubj,NNP,ARG0
374,2,pak_1,0,bagus_1,1,0,ORG,O,NNP,flat,NNP,name
374,4,suka_1,2,bu_1,3,1,O,O,NNP,obj,NNP,ARG1
374,5,suka_1,2,ani_1,4,1,O,LOC,NNP,punct,NNP,unk
375,1,suka_1,2,bu_1,0,1,O,ORG,NNP,nsubj:pass,NNP,ARG1
375,2,bu_1,0,ani_1,1,0,ORG,PER,NNP,flat,NNP,name
375,4,suka_1,2,pak_1,3,1,O,O,NNP,obj,NNP,ARG0
375,5,pak_1,3,bagus_1,4,0,O,O,NNP,flat,NNP,name
376,1,buang_1,1,paman_1,0,1,O,GPE,NN,nsubj,NN,ARG0
376,3,buang_1,1,sampah_1,2,1,O,O,NN,obj,NN,ARG1
377,1,buang_1,1,sampah_1,0,1,O,O,NN,nsubj:pass,NN,ARG1
377,3,buang_1,1,paman_1,2,1,O,GPE,NN,punct,NNP,ARG0
378,1,parah_1,1,yanto_1,0,1,O,PER,VB,nsubj,NNP,ARG0
378,3,parah_1,1,tugas_1,2,1,O,O,VB,obj,NN,ARG1
379,1,marah_1,1,tugas_1,0,1,O,O,VB,nsubj:pass,NN,ARG1
379,3,marah_1,1,yanto_1,2,1,O,GPE,VB,obj,NNP,ARG0
380,1,tuang_1,2,ibu_1,0,1,O,O,VB,nsubj,NNP,ARG0
380,2,ibu_1,0,rina_1,1,0,O,PER,NNP,flat,NNP,name
380,4,tuang_1,2,air_1,3,1,O,O,VB,obj,NN,ARG1
381,1,tuang_1,1,air_1,0,1,O,O,NN,nsubj:pass,NN,ARG1
381,3,tuang_1,1,ibu_1,2,1,O,O,NN,obj,NNP,ARG0
381,4,ibu_1,2,rina_1,3,0,O,LOC,NNP,flat,NNP,name
382,1,usir_1,1,penjajah_1,0,1,O,PER,VB,nsubj,NN,ARG0
382,3,usir_1,1,pribumi_1,2,1,O,O,VB,obj,NN,ARG1
383,1,usir_1,1,pribumi_1,0,1,O,O,NN,nsubj:pass,NN,ARG1
383,3,usir_1,1,jajah_1,2,1,O,LOC,NN,obj,NNP,ARG0
384,1,benci_1,1,kami_1,0,1,O,O,VB,nsubj,PRP,ARG0
384,3,benci_1,1,bohong_1,2,1,O,O,VB,obj,VB,ARG1
385,1,benci_1,1,pembohong_1,0,1,O,PER,VB,nsubj:pass,NNP,unk
385,3,benci_1,1,kami_1,2,1,O,O,VB,obj,PRP,ARG0
386,2,mereka_1,0,peluk_1,1,1,O,O,PRP,punct,VB,unk
387,2,kami_1,0,salam_1,1,1,O,O,PRP,flat,NN,unk
388,1,timpa_1,2,mas_1,0,1,O,ORG,NNP,nsubj:pass,NNP,ARG1
388,2,mas_1,0,rio_1,1,0,ORG,PER,NNP,flat,NNP,name
388,4,timpa_1,2,pohon_1,3,1,O,O,NNP,obj,NNP,ARG0
389,1,timpa_1,1,pohon_1,0,1,O,PER,NNP,nsubj,NNP,ARG0
389,3,timpa_1,1,mas_1,2,1,O,O,NNP,obj,NNP,ARG1
389,4,mas_1,2,rio_1,3,0,O,LOC,NNP,flat,NNP,name
390,1,tembak_1,2,duta_1,0,1,O,PER,VB,nsubj:pass,NN,ARG0
390,2,duta_1,0,besar_1,1,0,PER,O,NN,amod,JJ,mod
390,4,tembak_1,2,peluru_1,3,1,O,O,VB,obj,NN,ARG1
391,1,potret_1,1,turis_1,0,1,O,O,VB,nsubj,NNP,ARG0
391,3,potret_1,1,pawai_1,2,1,O,O,VB,obj,NN,ARG1
392,1,potret_1,1,pawai_1,0,1,O,O,NNP,nsubj:pass,NNP,ARG1
392,3,potret_1,1,turis_1,2,1,O,O,NNP,obj,NNP,ARG0
393,1,kirim_1,1,aku_1,0,1,O,O,VB,nsubj,NNP,ARG0
393,3,kirim_1,1,pesan_1,2,1,O,O,VB,obj,NN,ARG1
393,5,kirim_1,1,beli_1,4,1,O,O,VB,obl,NN,ARG1
394,1,kirim_1,3,pesan_1,0,1,O,O,VB,nsubj:pass,NN,ARG1
394,3,pesan_1,0,beli_1,2,0,O,O,NN,nmod,NN,location
394,5,kirim_1,3,aku_1,4,1,O,O,VB,obj,NN,ARG0
395,1,ajar_1,2,bu_1,0,1,O,ORG,VB,nsubj,NNP,ARG0
395,2,bu_1,0,hana_1,1,0,ORG,PER,NNP,flat,NNP,name
395,4,ajar_1,2,statistik_1,3,1,O,O,VB,obj,NN,ARG1
395,6,ajar_1,2,mahasiswa_1,5,1,O,O,VB,obl,NN,mod
396,1,ajar_1,1,statistik_1,0,1,O,O,VB,nsubj:pass,NN,ARG1
396,3,ajar_1,1,bu_1,2,1,O,ORG,VB,obj,NNP,ARG0
396,4,bu_1,2,hana_1,3,0,ORG,PER,NNP,flat,NNP,name
396,6,ajar_1,1,mahasiswa_1,5,1,O,O,VB,obl,NN,mod
397,1,beli_1,1,kami_1,0,1,O,O,VB,nsubj,PRP,ARG0
397,3,beli_1,1,buku_1,2,1,O,O,VB,obj,NN,ARG1
397,5,buku_1,2,toko_1,4,0,O,O,NN,nmod,NN,unk
397,6,toko_1,4,gramedia_1,5,0,O,LOC,NN,flat,NNP,name
398,1,beli_1,1,buku_1,0,1,O,O,VB,nsubj:pass,NN,ARG1
398,3,beli_1,1,kami_1,2,1,O,O,VB,obj,PRP,ARG0
398,5,beli_1,1,toko_1,4,1,O,O,VB,obl,NN,location
398,6,toko_1,4,gramedia_1,5,0,O,LOC,NN,flat,NNP,name
399,1,jatuh_1,1,ayah_1,0,1,O,O,VB,nsubj:pass,NN,ARG0
399,4,jatuh_1,1,simpang_1,3,1,O,O,VB,obl,NN,location
399,5,simpang_1,3,jalan_1,4,0,O,O,NN,compound,NN,mod
400,1,tinggal_1,2,kakak_1,0,1,O,O,VB,nsubj,NNP,ARG0
400,2,kakak_1,0,judi_1,1,0,O,O,NNP,flat,NNP,name
400,4,tinggal_1,2,pacar_1,3,1,O,O,VB,obj,RB,ARG1
401,1,pidato_1,2,pak_1,0,1,O,PER,VB,nsubj,NNP,ARG0
401,2,pak_1,0,camat_1,1,0,PER,O,NNP,flat,NNP,name
401,5,pidato_1,2,podium_1,4,1,O,O,VB,obl,NN,location
402,1,pimpin_1,2,ulama_1,0,1,O,ORG,VB,nsubj,NNP,ARG0
402,2,ulama_1,0,abdul_1,1,0,ORG,PER,NNP,flat,NNP,name
402,4,pimpin_1,2,umat_1,3,1,O,O,VB,obj,NN,ARG1
403,1,pimpin_1,1,umat_1,0,1,O,O,VB,nsubj:pass,NNP,ARG1
403,3,pimpin_1,1,ulama_1,2,1,O,O,VB,obj,NN,ARG0
403,4,ulama_1,2,abdul_1,3,0,O,LOC,NN,flat,NNP,name
404,1,beli_1,1,ibu_1,0,1,O,O,VB,nsubj,NNP,ARG0
404,3,beli_1,1,sayur_1,2,1,O,O,VB,obj,NN,ARG1
404,5,beli_1,1,warung_1,4,1,O,O,VB,obl,NN,location
405,1,beli_1,1,sayur_1,0,1,O,O,VB,nsubj:pass,NNP,ARG1
405,3,beli_1,1,ibu_1,2,1,O,O,VB,obj,NNP,ARG0
405,5,beli_1,1,warung_1,4,1,O,O,VB,obl,NN,location
406,1,tanam_1,2,kak_1,0,1,O,ORG,VB,nsubj,NNP,ARG0
406,2,kak_1,0,mira_1,1,0,ORG,PER,NNP,flat,NNP,name
406,4,tanam_1,2,tanam_2,3,1,O,O,VB,obj,NN,ARG1
406,5,tanam_2,3,obat_1,4,0,O,O,NN,compound,NN,mod
407,1,tanam_2,2,tanam_1,0,1,O,O,VB,nsubj:pass,NN,ARG1
407,2,tanam_1,0,obat_1,1,0,O,O,NN,compound,NN,mod
407,4,tanam_2,2,kak_1,3,1,O,ORG,VB,obj,NNP,ARG0
407,5,kak_1,3,mira_1,4,0,ORG,LOC,NNP,flat,NNP,name
408,1,datang_1,1,kami_1,0,1,O,O,VB,nsubj,PRP,ARG0
408,4,datang_1,1,yogyakarta_1,3,1,O,GPE,VB,obl,NNP,location
409,2,kami_1,0,olahraga_1,1,1,O,O,PRP,punct,VB,unk
410,1,sampai_1,1,mahasiswa_1,0,1,O,O,VB,nsubj,NN,ARG0
410,3,sampai_1,1,orasi_1,2,1,O,O,VB,obj,NN,ARG1
410,5,orasi_1,2,tengah_1,4,0,O,O,NN,nmod,NN,unk
410,6,sampai_1,1,jalan_1,5,1,O,O,VB,obl,NN,ARG1
411,1,sampai_1,1,orasi_1,0,1,O,O,VB,nsubj:pass,NN,ARG1
411,3,sampai_1,1,mahasiswa_1,2,1,O,O,VB,obj,NN,ARG0
411,5,sampai_1,1,tengah_1,4,1,O,O,VB,obl,NN,location
411,6,sampai_1,1,jalan_1,5,1,O,O,VB,obl,NN,ARG1
412,1,berangkat_1,1,adik_1,0,1,O,O,VB,nsubj,NN,ARG0
412,4,berangkat_1,1,sekolah_1,3,1,O,O,VB,obl,NN,location
413,1,panggil_1,1,aku_1,0,1,O,O,NNP,nsubj,NNP,ARG0
413,3,panggil_1,1,bu_1,2,1,O,O,NNP,obj,NNP,ARG1
413,4,bu_1,2,lisa_1,3,0,O,LOC,NNP,flat,NNP,name
414,1,panggil_1,2,bu_1,0,1,O,ORG,NNP,nsubj:pass,NNP,ARG1
414,2,bu_1,0,lisa_1,1,0,ORG,PER,NNP,flat,NNP,name
414,4,panggil_1,2,aku_1,3,1,O,O,NNP,obj,NNP,ARG0
415,1,baca_1,1,ayah_1,0,1,O,O,VB,nsubj,NN,ARG0
415,3,baca_1,1,koran_1,2,1,O,O,VB,obj,NN,ARG1
415,4,koran_1,2,tempo_1,3,0,O,PER,NN,flat,NNP,name
415,6,baca_1,1,teras_1,5,1,O,O,VB,obl,NN,location
416,1,baca_1,2,koran_1,0,1,O,O,VB,nsubj:pass,NNP,ARG1
416,2,koran_1,0,tempo_1,1,0,O,PER,NNP,flat,NNP,name
416,4,baca_1,2,ayah_1,3,1,O,O,VB,obj,NN,ARG0
416,6,baca_1,2,teras_1,5,1,O,O,VB,obl,NN,location
417,2,saya_1,0,antuk_1,1,1,O,O,PRP,punct,VB,unk
418,1,beri_1,1,guru_1,0,1,O,O,VB,nsubj,NNP,ARG0
418,3,beri_1,1,tugas_1,2,1,O,O,VB,obj,NN,ARG1
419,1,beri_1,1,tugas_1,0,1,O,O,VB,nsubj:pass,NN,ARG1
419,3,beri_1,1,guru_1,2,1,O,O,VB,obj,NN,ARG0
420,2,siswa_1,0,nyanyi_1,1,1,O,O,NN,acl,VB,unk
420,3,nyanyi_1,1,lagu_1,2,0,O,O,VB,obj,NN,ARG1
420,4,lagu_1,2,indonesia_1,3,0,O,GPE,NN,flat,NNP,name
420,5,indonesia_1,3,raya_1,4,0,GPE,O,NNP,flat,NNP,name
421,1,nyanyi_1,3,lagu_1,0,1,O,O,VB,nsubj:pass,NN,ARG1
421,2,lagu_1,0,indonesia_1,1,0,O,GPE,NN,flat,NNP,name
421,3,indonesia_1,1,raya_1,2,0,GPE,PER,NNP,flat,NNP,name
421,5,nyanyi_1,3,siswa_1,4,1,O,O,VB,obj,NNP,ARG0
422,1,periksa_1,1,tugas_1,0,1,O,O,VB,nsubj,NN,ARG0
422,3,periksa_1,1,tas_1,2,1,O,O,VB,obj,NN,ARG1
422,4,tas_1,2,unjung_1,3,0,O,O,NN,compound,VB,unk
423,1,periksa_1,2,tas_1,0,1,O,O,VB,nsubj:pass,NNP,ARG1
423,2,tas_1,0,unjung_1,1,0,O,O,NNP,compound,VB,unk
423,4,periksa_1,2,tugas_1,3,1,O,O,VB,obj,NN,ARG0
424,1,masak_1,2,ibu_1,0,1,O,O,VB,nsubj,NNP,ARG0
424,2,ibu_1,0,budi_1,1,0,O,PER,NNP,flat,NNP,name
424,4,masak_1,2,nasi_1,3,1,O,O,VB,obj,NN,ARG1
424,5,nasi_1,3,kuning_1,4,0,O,O,NN,compound,JJ,mod
425,1,masak_1,2,nasi_1,0,1,O,PER,VB,nsubj:pass,NN,ARG1
425,2,nasi_1,0,kuning_1,1,0,PER,O,NN,compound,JJ,mod
425,4,masak_1,2,ibu_1,3,1,O,O,VB,obj,NNP,ARG0
425,5,ibu_1,3,budi_1,4,0,O,NOR,NNP,flat,NNP,name
426,1,pinjam_1,1,adik_1,0,1,O,O,VB,nsubj,NN,ARG0
426,3,pinjam_1,1,buku_1,2,1,O,O,VB,obj,NN,ARG1
427,1,pinjam_1,1,buku_1,0,1,O,O,VB,nsubj:pass,NN,ARG1
427,3,pinjam_1,1,adik_1,2,1,O,O,VB,obj,NNP,ARG0
428,1,bakar_1,2,pak_1,0,1,O,ORG,VB,nsubj,NNP,ARG0
428,2,pak_1,0,hasan_1,1,0,ORG,PER,NNP,flat,NNP,name
428,4,bakar_1,2,sampah_1,3,1,O,O,VB,obj,NN,ARG1
429,1,bakar_1,1,sampah_1,0,1,O,O,NN,nsubj:pass,NN,ARG1
429,3,bakar_1,1,pak_1,2,1,O,O,NN,obj,NNP,ARG0
429,4,pak_1,2,hasan_1,3,0,O,LOC,NNP,flat,NNP,name
430,1,turun_1,2,budhe_1,0,1,O,PER,VB,nsubj,NNP,ARG0
430,2,budhe_1,0,citra_1,1,0,PER,O,NNP,flat,NNP,name
430,4,turun_1,2,suara_1,3,1,O,O,VB,obj,RB,ARG1
431,1,turun_1,1,suara_1,0,1,O,O,VB,nsubj:pass,RB,ARG1
431,3,turun_1,1,budhe_1,2,1,O,ORG,VB,obj,NNP,ARG0
431,4,budhe_1,2,citra_1,3,0,ORG,O,NNP,flat,NNP,name
432,1,tulis_1,1,aku_1,0,1,O,O,VB,nsubj,NNP,ARG0
432,3,tulis_1,1,cerita_1,2,1,O,O,VB,obj,NN,ARG1
432,5,tulis_1,1,buku_1,4,1,O,O,VB,obl,NN,location
433,1,tulis_1,1,cerita_1,0,1,O,O,VB,nsubj:pass,PRP,ARG1
433,3,tulis_1,1,aku_1,2,1,O,O,VB,obj,NN,ARG0
433,5,tulis_1,1,buku_1,4,1,O,O,VB,obl,NN,location
434,2,curi_1,0,tangkap_1,1,1,O,O,NNP,flat,VB,unk
435,2,aku_1,0,perangkap_1,1,1,O,O,NNP,flat,VB,unk
436,1,bawa_1,1,ayah_1,0,1,O,O,VB,nsubj,NN,ARG0
436,3,bawa_1,1,piala_1,2,1,O,O,VB,obj,NN,ARG1
437,1,bawa_1,1,piala_1,0,1,O,O,VB,nsubj:pass,NNP,ARG1
437,3,bawa_1,1,ayah_1,2,1,O,O,VB,obj,NN,ARG0
438,1,tiup_1,2,kak_1,0,1,O,ORG,VB,nsubj,NNP,ARG0
438,2,kak_1,0,adi_1,1,0,ORG,PER,NNP,flat,NNP,name
438,4,tiup_1,2,terompet_1,3,1,O,O,VB,obj,NN,ARG1
438,6,tiup_1,2,halaman_1,5,1,O,O,VB,obl,NN,location
439,1,tiup_1,1,terompet_1,0,1,O,ORG,NN,nsubj:pass,NN,ARG1
439,3,tiup_1,1,kak_1,2,1,O,ORG,NN,obj,NNP,ARG0
439,4,kak_1,2,adi_1,3,0,ORG,PER,NNP,flat,NNP,name
439,6,tiup_1,1,halaman_1,5,1,O,O,NN,obl,NN,location
440,1,tanam_1,2,pak_1,0,1,O,ORG,VB,nsubj,NNP,ARG0
440,2,pak_1,0,krisna_1,1,0,ORG,PER,NNP,flat,NNP,name
440,4,tanam_1,2,kedelai_1,3,1,O,O,VB,obj,NN,ARG1
440,6,tanam_1,2,kebun_1,5,1,O,O,VB,obl,NN,location
441,1,tanam_1,1,kedelai_1,0,1,O,O,NNP,nsubj:pass,NNP,ARG1
441,3,tanam_1,1,pak_1,2,1,O,PER,NNP,obj,NNP,ARG0
441,4,pak_1,2,krisna_1,3,0,PER,O,NNP,flat,NNP,name
441,6,tanam_1,1,kebun_1,5,1,O,O,NNP,obl,NN,location
442,1,basuh_1,2,suster_1,0,1,O,ORG,VB,nsubj,NNP,ARG0
442,2,suster_1,0,rina_1,1,0,ORG,PER,NNP,flat,NNP,name
442,4,basuh_1,2,muka_1,3,1,O,O,VB,obj,VB,ARG1
442,6,muka_1,3,kamar_1,5,0,O,O,VB,nmod,NN,unk
442,7,kamar_1,5,mandi_1,6,0,O,O,NN,compound,NN,mod
443,1,basuh_1,1,muka_1,0,1,O,O,NN,nsubj:pass,NN,ARG1
443,3,basuh_1,1,suster_1,2,1,O,PER,NN,obj,NNP,ARG0
443,4,suster_1,2,rina_1,3,0,PER,O,NNP,flat,NNP,name
443,6,basuh_1,1,kamar_1,5,1,O,O,NN,obl,NN,location
443,7,kamar_1,5,mandi_1,6,0,O,O,NN,compound,NN,mod
444,1,tunggu_1,2,nenek_1,0,1,O,O,VB,nsubj,NNP,ARG0
444,2,nenek_1,0,yeti_1,1,0,O,PER,NNP,flat,NNP,name
444,4,tunggu_1,2,kakek_1,3,1,O,O,VB,obj,NN,ARG1
444,5,kakek_1,3,fian_1,4,0,O,LOC,NN,flat,NNP,name
444,7,tunggu_1,2,teras_1,6,1,O,O,VB,obl,NN,location
445,1,tunggu_1,2,kakek_1,0,1,O,O,NNP,nsubj:pass,NN,ARG1
445,2,kakek_1,0,fian_1,1,0,O,PER,NN,flat,NNP,name
445,4,tunggu_1,2,nenek_1,3,1,O,O,NNP,obj,NNP,ARG0
445,5,nenek_1,3,yeti_1,4,0,O,LOC,NNP,flat,NNP,name
445,7,tunggu_1,2,teras_1,6,1,O,O,NNP,obl,NN,location
446,1,bersih_1,1,kakak_1,0,1,O,O,VB,nsubj,NN,ARG0
446,3,bersih_1,1,dapur_1,2,1,O,O,VB,obj,VB,ARG1
447,1,dibersikan_1,1,dapur_1,0,1,O,O,VB,nsubj:pass,NNP,unk
447,3,dibersikan_1,1,kakak_1,2,1,O,O,VB,obj,VB,ARG1
448,1,lipat_1,2,bu_1,0,1,O,ORG,VB,nsubj,NNP,ARG0
448,2,bu_1,0,neneng_1,1,0,ORG,PER,NNP,flat,NNP,name
448,4,lipat_1,2,pakai_1,3,1,O,O,VB,obj,NN,ARG1
449,1,lipat_1,1,pakai_1,0,1,O,O,NN,nsubj:pass,NN,ARG1
449,3,lipat_1,1,bu_1,2,1,O,ORG,NN,obj,NNP,ARG0
449,4,bu_1,2,neneng_1,3,0,ORG,PER,NNP,flat,NNP,name
450,1,liput_1,1,jurnalis_1,0,1,O,O,VB,nsubj,NNP,ARG0
450,3,liput_1,1,berita_1,2,1,O,O,VB,obj,NN,ARG1
451,1,liput_1,1,berita_1,0,1,O,O,VB,nsubj:pass,PRP,ARG1
451,3,liput_1,1,jurnalis_1,2,1,O,O,VB,obj,NN,ARG0
452,1,kunyah_1,2,adik_1,0,1,O,O,NN,nsubj,NNP,ARG0
452,2,adik_1,0,zaki_1,1,0,O,PER,NNP,flat,NNP,name
452,4,kunyah_1,2,permen_1,3,1,O,O,NN,obj,NN,ARG1
453,1,kunyah_1,1,permen_1,0,1,O,PER,NN,nsubj:pass,NN,ARG1
453,3,kunyah_1,1,adik_1,2,1,O,O,NN,obj,NNP,ARG0
453,4,adik_1,2,zaki_1,3,0,O,LOC,NNP,flat,NNP,name
454,1,setir_1,2,pak_1,0,1,O,ORG,NN,nsubj,NN,ARG0
454,2,pak_1,0,iwan_1,1,0,ORG,PER,NN,flat,NN,name
454,4,setir_1,2,mobil_1,3,1,O,O,NN,obj,NN,ARG1
455,1,buat_1,2,mas_1,0,1,O,ORG,VB,nsubj,NNP,ARG0
455,2,mas_1,0,prapto_1,1,0,ORG,PER,NNP,flat,NNP,name
455,4,buat_1,2,pupuk_1,3,1,O,O,VB,obj,NN,ARG1
456,2,tani_1,0,tanam_1,1,1,O,O,NNP,acl,VB,unk
456,3,tanam_1,1,padi_1,2,0,O,O,VB,obj,VB,ARG1
457,1,tanam_1,1,padi_1,0,1,O,O,CD,nsubj:pass,VB,ARG1
457,3,tanam_1,1,tani_1,2,1,O,O,CD,obj,NN,ARG0
458,1,beli_1,1,pemborong_1,0,1,O,PER,VB,nsubj,NNP,ARG0
458,3,beli_1,1,hasil_1,2,1,O,O,VB,obj,NN,ARG1
458,4,hasil_1,2,panen_1,3,0,O,O,NN,compound,NN,mod
459,1,beli_1,2,hasil_1,0,1,O,O,VB,nsubj:pass,NN,ARG1
459,2,hasil_1,0,panen_1,1,0,O,O,NN,compound,NN,mod
459,4,beli_1,2,borong_1,3,1,O,O,VB,obj,VB,ARG0
460,1,peras_1,1,tengkulak_1,0,1,O,O,NN,nsubj,NN,ARG0
460,3,peras_1,1,tani_1,2,1,O,O,NN,obj,NN,ARG1
461,1,peras_1,1,tani_1,0,1,O,O,NN,nsubj:pass,NN,ARG1
461,3,peras_1,1,tengkulak_1,2,1,O,O,NN,obj,VB,ARG0
462,1,tonton_1,1,adik_1,0,1,O,O,NNP,nsubj,NNP,ARG0
462,3,tonton_1,1,kartun_1,2,1,O,O,NNP,obj,VB,ARG1
462,5,tonton_1,1,televisi_1,4,1,O,O,NNP,obl,NN,location
463,1,tonton_1,1,kartun_1,0,1,O,PER,NNP,nsubj:pass,NNP,ARG1
463,3,tonton_1,1,adik_1,2,1,O,O,NNP,obj,VB,ARG0
463,5,tonton_1,1,televisi_1,4,1,O,O,NNP,obl,NN,location
464,1,tuang_1,2,ibu_1,0,1,O,O,VB,nsubj,NNP,ARG0
464,2,ibu_1,0,raska_1,1,0,O,PER,NNP,flat,NNP,name
464,4,tuang_1,2,air_1,3,1,O,O,VB,obj,NN,ARG1
465,1,tuang_1,1,air_1,0,1,O,O,NN,nsubj:pass,NN,ARG1
465,3,tuang_1,1,ibu_1,2,1,O,O,NN,obj,NNP,ARG0
465,4,ibu_1,2,raska_1,3,0,O,LOC,NNP,flat,NNP,name
466,1,cerita_1,3,pak_1,0,1,O,ORG,VB,nsubj,NNP,ARG0
466,2,pak_1,0,zee_1,1,0,ORG,O,NNP,flat,NNP,name
466,3,zee_1,1,zee_2,2,0,O,PER,NNP,flat,NNP,name
466,5,cerita_1,3,kisah_1,4,1,O,O,VB,obj,NN,ARG1
466,6,kisah_1,4,tragis_1,5,0,O,O,NN,amod,RB,mod
467,1,cerita_1,2,kisah_1,0,1,O,O,VB,nsubj:pass,NN,ARG1
467,2,kisah_1,0,tragis_1,1,0,O,O,NN,amod,RB,mod
467,4,cerita_1,2,pak_1,3,1,O,ORG,VB,obj,NNP,ARG0
467,5,pak_1,3,zee_1,4,0,ORG,LOC,NNP,flat,NNP,name
467,6,zee_1,4,zee_2,5,0,LOC,O,NNP,flat,NNP,name
468,1,tangkap_1,1,satpam_1,0,1,O,PER,VB,nsubj,NNP,ARG0
468,3,tangkap_1,1,curi_1,2,1,O,O,VB,obj,NN,ARG1
469,1,tangkap_1,1,curi_1,0,1,O,O,VB,nsubj:pass,NNP,ARG1
469,3,tangkap_1,1,satpam_1,2,1,O,GPE,VB,obj,NNP,ARG1
470,2,kakak_1,0,kepel_1,1,1,O,O,NN,acl,NN,unk
470,3,kepel_1,1,lantai_1,2,0,O,O,NN,obj,NN,ARG1
471,1,pel_1,1,lantai_1,0,1,O,O,NNP,nsubj,NNP,ARG1
471,3,pel_1,1,kakak_1,2,1,O,O,NNP,obj,VB,ARG0
472,1,jaga_1,1,tentara_1,0,1,O,O,VB,nsubj,NN,ARG0
472,3,jaga_1,1,damai_1,2,1,O,O,VB,obj,NN,ARG1
472,5,jaga_1,1,indonesia_1,4,1,O,GPE,VB,obl,NNP,location
473,1,jaga_1,1,damai_1,0,1,O,O,NN,nsubj:pass,NN,ARG1
473,3,jaga_1,1,tentara_1,2,1,O,O,NN,obj,NN,ARG0
473,5,jaga_1,1,indonesia_1,4,1,O,GPE,NN,obl,NNP,location
474,1,cari_1,1,ayah_1,0,1,O,O,VB,nsubj,NN,ARG0
474,3,cari_1,1,nafkah_1,2,1,O,O,VB,obj,WH,ARG1
475,1,cari_1,1,nafkah_1,0,1,O,O,NN,nsubj:pass,NN,ARG1
475,3,cari_1,1,ayah_1,2,1,O,O,NN,obj,NN,ARG0
476,1,beri_1,1,ibu_1,0,1,O,O,VB,nsubj,NNP,ARG0
476,3,beri_1,1,makan_1,2,1,O,O,VB,obj,VB,ARG1
477,1,beri_1,1,makan_1,0,1,O,O,NN,nsubj:pass,VB,ARG1
477,3,beri_1,1,ibu_1,2,1,O,O,NN,obj,NN,ARG0
478,1,terima_1,1,adik_1,0,1,O,O,VB,nsubj,NN,ARG0
478,3,terima_1,1,uang_1,2,1,O,O,VB,obj,NN,ARG1
479,1,terima_1,1,uang_1,0,1,O,O,VB,nsubj:pass,NN,ARG1
479,3,terima_1,1,adik_1,2,1,O,O,VB,obj,NN,ARG0
480,1,habis_1,2,kakak_1,0,1,O,O,VB,nsubj,NNP,ARG0
480,2,kakak_1,0,byan_1,1,0,O,O,NNP,flat,NNP,name
480,4,habis_1,2,uang_1,3,1,O,O,VB,obj,NN,ARG1
481,1,habis_1,1,uang_1,0,1,O,O,VB,nsubj:pass,NN,ARG1
481,3,habis_1,1,kakak_1,2,1,O,O,VB,obj,NNP,ARG0
481,4,kakak_1,2,byan_1,3,0,O,O,NNP,flat,NNP,name
482,1,bakar_1,1,massa_1,0,1,O,O,VB,nsubj,NN,ARG0
482,3,bakar_1,1,mobil_1,2,1,O,O,VB,obj,NN,ARG1
482,5,bakar_1,1,jalan_1,4,1,O,O,VB,obl,NN,location
483,1,bakar_1,1,mobil_1,0,1,O,PER,NN,nsubj:pass,NN,ARG1
483,3,bakar_1,1,massa_1,2,1,O,O,NN,obj,NN,ARG0
483,5,bakar_1,1,jalan_1,4,1,O,O,NN,obl,NN,location
484,1,tangkap_1,1,warga_1,0,1,O,O,VB,nsubj,NN,ARG0
484,3,tangkap_1,1,babi_1,2,1,O,O,VB,obj,NN,ARG1
484,5,tangkap_1,1,hutan_1,4,1,O,O,VB,obl,NN,location
485,1,tangkap_1,1,babi_1,0,1,O,O,VB,nsubj:pass,NNP,ARG1
485,3,tangkap_1,1,warga_1,2,1,O,O,VB,obj,NN,ARG0
485,5,tangkap_1,1,hutan_1,4,1,O,O,VB,obl,NN,location
486,1,jual_1,2,kak_1,0,1,O,ORG,VB,nsubj,NNP,ARG0
486,2,kak_1,0,zahra_1,1,0,ORG,PER,NNP,flat,NNP,name
486,4,jual_1,2,kue_1,3,1,O,O,VB,obj,FW,ARG1
487,1,jual_1,1,kue_1,0,1,O,PER,VB,nsubj:pass,NNP,ARG1
487,3,jual_1,1,kak_1,2,1,O,ORG,VB,obj,NNP,ARG0
487,4,kak_1,2,zahra_1,3,0,ORG,LOC,NNP,flat,NNP,name
488,2,adik_1,0,lompat_1,1,1,O,O,NN,flat,VB,unk
489,1,bela_1,1,acara_1,0,1,O,O,NN,nsubj,NN,ARG0
489,3,bela_1,1,sangka_1,2,1,O,O,NN,obj,NN,ARG1
489,5,bela_1,1,adil_1,4,1,O,O,NN,obl,NN,location
490,1,bela_1,1,sangka_1,0,1,O,O,NN,nsubj:pass,NN,ARG1
490,3,bela_1,1,acara_1,2,1,O,O,NN,obj,NN,ARG0
490,5,bela_1,1,adil_1,4,1,O,O,NN,obl,NN,location
491,1,jatuh_1,2,hakim_1,0,1,O,O,VB,nsubj,NNP,ARG0
491,2,hakim_1,0,roger_1,1,0,O,PER,NNP,flat,NNP,name
491,4,jatuh_1,2,hukum_1,3,1,O,O,VB,obj,NN,ARG1
492,1,jatuh_1,1,hukum_1,0,1,O,O,VB,nsubj:pass,NNP,ARG1
492,3,jatuh_1,1,hakim_1,2,1,O,O,VB,obj,NNP,ARG0
492,4,hakim_1,2,roger_1,3,0,O,LOC,NNP,flat,NNP,name
493,1,tuntut_1,1,jaksa_1,0,1,O,PER,VB,nsubj,NN,ARG0
493,3,tuntut_1,1,sangka_1,2,1,O,O,VB,obj,NN,ARG1
493,5,tuntut_1,1,adil_1,4,1,O,O,VB,obl,NN,location
494,1,tuntut_1,1,sangka_1,0,1,O,O,VB,nsubj:pass,NN,ARG1
494,3,tuntut_1,1,jaksa_1,2,1,O,PER,VB,obj,NN,ARG0
494,5,tuntut_1,1,adil_1,4,1,O,O,VB,obl,NN,location
495,1,terima_1,1,mereka_1,0,1,O,O,VB,nsubj,PRP,ARG0
495,3,terima_1,1,kalah_1,2,1,O,O,VB,obj,NN,ARG1
496,1,terima_1,1,kalah_1,0,1,O,O,VB,nsubj:pass,NN,ARG1
496,3,terima_1,1,mereka_1,2,1,O,O,VB,obj,PRP,ARG0
497,1,raya_1,1,kami_1,0,1,O,O,VB,nsubj,PRP,ARG0
497,3,raya_1,1,menang_1,2,1,O,O,VB,obj,NN,ARG1
498,1,raya_1,1,menang_1,0,1,O,O,VB,nsubj:pass,NN,ARG1
498,3,raya_1,1,kami_1,2,1,O,O,VB,obj,PRP,ARG0
499,1,sampai_1,2,gubernur_1,0,1,O,ORG,VB,nsubj,NNP,ARG0
499,2,gubernur_1,0,anis_1,1,0,ORG,O,NNP,flat,NNP,name
499,4,sampai_1,2,keluh_1,3,1,O,O,VB,obj,NN,ARG1
500,1,sampai_1,1,keluh_1,0,1,O,O,VB,nsubj:pass,NN,ARG1
500,3,sampai_1,1,gubernur_1,2,1,O,ORG,VB,obj,NNP,ARG0
500,4,gubernur_1,2,anis_1,3,0,ORG,LOC,NNP,flat,NNP,name
501,2,lusi_1,0,gambar_1,1,1,ORG,O,NN,flat,JJ,unk
502,1,luk_1,1,okta_1,0,1,O,PER,NN,nsubj,NN,ARG0
502,3,luk_1,1,perempuan_1,2,1,O,O,NN,obj,NN,ARG1
503,1,luk_1,1,perempuan_1,0,1,O,O,NN,nsubj:pass,NN,unk
503,3,luk_1,1,okta_1,2,1,O,LOC,NN,obj,NNP,ARG1
504,1,cetak_1,2,pak_1,0,1,O,ORG,VB,nsubj,NNP,ARG0
504,2,pak_1,0,budi_1,1,0,ORG,PER,NNP,flat,NNP,name
504,4,cetak_1,2,kartu_1,3,1,O,O,VB,obj,NN,ARG1
504,5,kartu_1,3,nama_1,4,0,O,O,NN,compound,NN,mod
504,7,cetak_1,2,sampurna_1,6,1,O,LOC,VB,obl,NNP,location
505,1,cetak_1,2,kartu_1,0,1,O,PER,NN,nsubj:pass,NN,ARG1
505,2,kartu_1,0,nama_1,1,0,PER,O,NN,compound,NN,mod
505,4,cetak_1,2,pak_1,3,1,O,PER,NN,obj,NNP,ARG0
505,5,pak_1,3,budi_1,4,0,PER,O,NNP,flat,NNP,name
505,7,cetak_1,2,sampurna_1,6,1,O,LOC,NN,obl,NNP,location
506,1,tetap_1,1,kpu_1,0,1,O,ORG,VB,nsubj,NNP,ARG0
506,3,tetap_1,1,menang_1,2,1,O,O,VB,obj,NN,ARG1
507,1,tetap_1,1,menang_1,0,1,O,O,VB,nsubj:pass,NN,ARG1
507,3,tetap_1,1,kpu_1,2,1,O,NOR,VB,obj,NNP,ARG0
508,1,beri_1,1,guru_1,0,1,O,O,VB,nsubj,NNP,ARG0
508,3,beri_1,1,hadiah_1,2,1,O,O,VB,obj,NN,ARG1
508,5,beri_1,1,menang_1,4,1,O,O,VB,obl,NN,mod
509,1,beri_1,1,hadiah_1,0,1,O,O,NN,nsubj:pass,NN,ARG1
509,3,beri_1,1,guru_1,2,1,O,O,NN,obj,NN,ARG0
509,5,beri_1,1,menang_1,4,1,O,O,NN,obl,NN,mod
510,1,gendong_1,2,ibu_1,0,1,O,O,VB,nsubj,NNP,ARG0
510,2,ibu_1,0,rusdi_1,1,0,O,PER,NNP,flat,NNP,name
510,4,gendong_1,2,adik_1,3,1,O,O,VB,obj,NN,ARG1
511,1,gendong_1,1,adik_1,0,1,O,O,VB,nsubj:pass,NN,ARG1
511,3,gendong_1,1,ibu_1,2,1,O,O,VB,obj,NNP,ARG0
512,1,jemput_1,1,ayah_1,0,1,O,O,VB,nsubj,NN,ARG0
512,3,jemput_1,1,adik_1,2,1,O,O,VB,obj,NN,ARG1
512,5,jemput_1,1,sekolah_1,4,1,O,O,VB,obl,NN,location
513,1,jemput_1,1,adik_1,0,1,O,O,VB,nsubj:pass,NN,ARG1
513,3,jemput_1,1,ayah_1,2,1,O,O,VB,obj,NN,ARG0
513,5,jemput_1,1,sekolah_1,4,1,O,O,VB,obl,NN,location
514,1,pilih_1,1,kakak_1,0,1,O,O,VB,nsubj,NN,ARG0
514,3,pilih_1,1,pasang_1,2,1,O,O,VB,obj,NN,ARG1
515,1,pilih_1,1,pasang_1,0,1,O,O,VB,nsubj:pass,NN,ARG1
515,3,pilih_1,1,kakak_1,2,1,O,O,VB,obj,VB,ARG0
516,1,buka_1,2,mas_1,0,1,O,ORG,VB,nsubj,NNP,ARG0
516,2,mas_1,0,linton_1,1,0,ORG,PER,NNP,flat,NNP,name
516,4,buka_1,2,kaleng_1,3,1,O,O,VB,obj,NN,ARG1
516,5,kaleng_1,3,roti_1,4,0,O,O,NN,compound,VB,unk
517,1,buka_1,2,kaleng_1,0,1,O,O,VB,nsubj:pass,NN,ARG1
517,2,kaleng_1,0,roti_1,1,0,O,O,NN,compound,NN,unk
517,4,buka_1,2,mas_1,3,1,O,ORG,VB,obj,NNP,ARG0
517,5,mas_1,3,linton_1,4,0,ORG,LOC,NNP,flat,NNP,name
518,2,ibu_1,0,belanja_1,1,1,O,O,NN,amod,NN,unk
519,1,umum_1,2,kepala_1,0,1,O,PER,VB,nsubj,NN,ARG0
519,2,kepala_1,0,sekolah_1,1,0,PER,O,NN,compound,NN,mod
519,4,umum_1,2,nilai_1,3,1,O,O,VB,obj,NN,ARG1
520,1,umum_1,1,nilai_1,0,1,O,O,VB,nsubj:pass,NN,ARG1
520,3,umum_1,1,kepala_1,2,1,O,ORG,VB,obj,NN,ARG0
520,4,kepala_1,2,sekolah_1,3,0,ORG,O,NN,compound,NN,mod
521,2,rakyat_1,0,dukung_1,1,1,O,O,NN,compound,VB,unk
521,3,dukung_1,1,pemerintah_1,2,0,O,ORG,VB,compound,NN,unk
522,1,dukung_1,1,perintah_1,0,1,O,GPE,VB,nsubj:pass,NN,ARG1
522,3,dukung_1,1,rakyat_1,2,1,O,O,VB,obj,NN,ARG0
523,1,pukul_1,2,pak_1,0,1,O,ORG,VB,nsubj,NNP,ARG0
523,2,pak_1,0,joko_1,1,0,ORG,PER,NNP,flat,NNP,name
523,4,pukul_1,2,curi_1,3,1,O,O,VB,obj,NN,ARG1
523,6,pukul_1,2,rumah_1,5,1,O,O,VB,obl,NN,location
524,1,pukul_1,1,curi_1,0,1,O,O,NNP,nsubj:pass,NNP,ARG1
524,3,pukul_1,1,pak_1,2,1,O,ORG,NNP,obj,NNP,ARG0
524,4,pak_1,2,joko_1,3,0,ORG,PER,NNP,flat,NNP,name
524,6,pukul_1,1,rumah_1,5,1,O,O,NNP,obl,NN,location
525,1,buka_1,1,saya_1,0,1,O,O,VB,nsubj,PRP,ARG0
525,3,buka_1,1,kaleng_1,2,1,O,O,VB,obj,NN,ARG1
525,4,kaleng_1,2,roti_1,3,0,O,O,NN,compound,VB,mod
526,1,buka_1,2,kaleng_1,0,1,O,O,VB,nsubj:pass,NN,ARG1
526,2,kaleng_1,0,roti_1,1,0,O,O,NN,compound,NN,mod
526,4,buka_1,2,saya_1,3,1,O,O,VB,obj,PRP,ARG0
527,2,saya_1,0,belanja_1,1,1,O,O,PRP,acl,NN,unk
528,1,umum_1,1,direktur_1,0,1,O,PER,VB,nsubj,NNP,ARG0
528,3,umum_1,1,nilai_1,2,1,O,O,VB,obj,NN,ARG1
529,1,dukung_1,2,bu_1,0,1,O,ORG,VB,nsubj,NNP,ARG0
529,2,bu_1,0,susi_1,1,0,ORG,PER,NNP,flat,NNP,name
529,4,dukung_1,2,pemerintah_1,3,1,O,ORG,VB,obj,NN,ARG1
530,1,dukung_1,1,perintah_1,0,1,O,NOR,VB,nsubj:pass,NN,ARG1
530,3,dukung_1,1,bu_1,2,1,O,ORG,VB,obj,NNP,ARG0
530,4,bu_1,2,sus_1,3,0,ORG,NOR,NNP,flat,NNP,unk
531,1,pukul_1,1,ayah_1,0,1,O,O,NN,nsubj,NN,ARG0
531,3,pukul_1,1,curi_1,2,1,O,O,NN,obj,NN,ARG1
531,5,pukul_1,1,rumah_1,4,1,O,O,NN,obl,NN,location
532,1,pukul_1,1,curi_1,0,1,O,O,NNP,nsubj:pass,NNP,ARG1
532,3,pukul_1,1,ayah_1,2,1,O,O,NNP,obj,NNP,ARG0
532,5,pukul_1,1,rumah_1,4,1,O,O,NNP,obl,NN,location
533,1,tentu_1,1,cpu_1,0,1,O,PER,VB,nsubj,NNP,ARG0
533,3,tentu_1,1,menang_1,2,1,O,O,VB,obj,NN,ARG1
534,1,tentu_1,1,menang_1,0,1,O,O,VB,nsubj:pass,NN,ARG1
534,3,tentu_1,1,cpu_1,2,1,O,ORG,VB,obj,NNP,ARG0
535,1,beri_1,2,pak_1,0,1,O,ORG,VB,nsubj,NNP,ARG0
535,2,pak_1,0,dwi_1,1,0,ORG,PER,NNP,flat,NNP,name
535,4,beri_1,2,hadiah_1,3,1,O,O,VB,obj,NN,ARG1
535,6,beri_1,2,menang_1,5,1,O,O,VB,obl,NN,ARG1
536,1,beri_1,1,hadiah_1,0,1,O,O,VB,nsubj:pass,NNP,ARG1
536,3,beri_1,1,pak_1,2,1,O,ORG,VB,obj,NNP,ARG0
536,4,pak_1,2,dwi_1,3,0,ORG,PER,NNP,flat,NNP,name
536,6,beri_1,1,menang_1,5,1,O,O,VB,obl,NN,ARG1
537,1,pegang_1,1,saya_1,0,1,O,O,VB,nsubj,PRP,ARG0
537,3,pegang_1,1,adik_1,2,1,O,O,VB,obj,NN,ARG1
537,4,adik_1,2,perempuan_1,3,0,O,O,NN,amod,NN,mod
538,1,pegang_1,2,adik_1,0,1,O,O,VB,nsubj:pass,NN,ARG1
538,2,adik_1,0,perempuan_1,1,0,O,O,NN,amod,NN,mod
538,4,pegang_1,2,saya_1,3,1,O,O,VB,obj,PRP,ARG0
539,1,bawa_1,2,bu_1,0,1,O,ORG,VB,nsubj,NNP,ARG0
539,2,bu_1,0,sakinah_1,1,0,ORG,O,NNP,flat,NNP,name
539,4,bawa_1,2,adik_1,3,1,O,O,VB,obj,RB,ARG1
539,6,bawa_1,2,sekolah_1,5,1,O,O,VB,obl,NN,location
540,1,pilih_1,1,anda_1,0,1,O,O,VB,nsubj,PRP,ARG0
540,3,pilih_1,1,pasang_1,2,1,O,O,VB,obj,NN,ARG1
541,1,raya_1,1,kami_1,0,1,O,O,VB,nsubj,PRP,ARG0
541,3,raya_1,1,menang_1,2,1,O,O,VB,obj,NN,ARG1
542,1,raya_1,1,menang_1,0,1,O,O,VB,nsubj:pass,NN,ARG1
542,3,raya_1,1,kami_1,2,1,O,O,VB,obj,PRP,ARG0
543,1,aju_1,2,mas_1,0,1,O,ORG,VB,nsubj,NNP,ARG0
543,2,mas_1,0,anis_1,1,0,ORG,PER,NNP,flat,NNP,name
543,4,aju_1,2,keluh_1,3,1,O,O,VB,obj,NN,ARG1
544,2,deformasi_1,0,gambar_1,1,1,O,O,NN,compound,NN,unk
545,1,luk_1,2,bu_1,0,1,O,ORG,VB,nsubj,NNP,ARG0
545,2,bu_1,0,okta_1,1,0,ORG,PER,NNP,flat,NNP,name
545,4,luk_1,2,wanita_1,3,1,O,O,VB,obj,NN,ARG1
546,1,luk_1,1,wanita_1,0,1,O,O,NNP,nsubj:pass,NNP,unk
546,3,luk_1,1,bu_1,2,1,O,O,NNP,obj,NNP,ARG1
546,4,bu_1,2,okta_1,3,0,O,LOC,NNP,flat,NNP,name
547,1,cetak_1,2,mas_1,0,1,O,ORG,VB,nsubj,NNP,ARG0
547,2,mas_1,0,budi_1,1,0,ORG,PER,NNP,flat,NNP,name
547,4,cetak_1,2,kartu_1,3,1,O,O,VB,obj,NN,ARG1
547,5,kartu_1,3,nama_1,4,0,O,O,NN,compound,NN,mod
547,7,cetak_1,2,sampurna_1,6,1,O,LOC,VB,obl,NNP,location
548,1,cetak_1,2,kartu_1,0,1,O,PER,NN,nsubj:pass,NN,ARG1
548,2,kartu_1,0,nama_1,1,0,PER,O,NN,compound,NN,mod
548,4,cetak_1,2,mas_1,3,1,O,PER,NN,obj,NNP,ARG0
548,5,mas_1,3,budi_1,4,0,PER,O,NNP,flat,NNP,name
548,7,cetak_1,2,sampurna_1,6,1,O,LOC,NN,obl,NNP,location
549,2,saudara_1,0,lompat_1,1,1,O,O,NNP,flat,VB,unk
550,1,bela_1,1,acara_1,0,1,O,O,NN,nsubj,NN,ARG0
550,3,bela_1,1,dakwa_1,2,1,O,O,NN,xcomp,NN,ARG1
550,5,dakwa_1,2,adil_1,4,0,O,O,NN,obl,NN,ARG1
551,1,bela_1,1,dakwa_1,0,1,O,O,NN,nsubj:pass,NN,ARG1
551,3,bela_1,1,acara_1,2,1,O,O,NN,obj,NN,ARG1
551,5,bela_1,1,adil_1,4,1,O,O,NN,obl,NN,location
552,2,hakim_1,0,hukum_1,1,1,O,O,NN,flat,RB,unk
553,1,tuntut_1,1,jaksa_1,0,1,O,PER,VB,nsubj,NN,ARG0
553,3,tuntut_1,1,sangka_1,2,1,O,O,VB,obj,NN,ARG1
553,5,tuntut_1,1,adil_1,4,1,O,O,VB,obl,NN,location
554,1,tuntut_1,1,sangka_1,0,1,O,O,VB,nsubj:pass,NN,ARG1
554,3,tuntut_1,1,jaksa_1,2,1,O,O,VB,obj,VB,ARG0
554,5,tuntut_1,1,adil_1,4,1,O,O,VB,obl,NN,location
555,1,terima_1,1,mereka_1,0,1,O,O,VB,nsubj,PRP,ARG0
555,3,terima_1,1,kalah_1,2,1,O,O,VB,obj,NN,ARG1
556,1,jual_1,2,adik_1,0,1,O,O,VB,nsubj,NNP,ARG0
556,2,adik_1,0,zahra_1,1,0,O,O,NNP,flat,NNP,name
556,4,jual_1,2,kue_1,3,1,O,O,VB,obj,FW,ARG1
557,1,jual_1,1,kue_1,0,1,O,PER,VB,nsubj:pass,NNP,ARG1
557,3,jual_1,1,adik_1,2,1,O,O,VB,obj,NNP,ARG0
557,4,adik_1,2,zahra_1,3,0,O,O,NNP,flat,NNP,name
558,1,beri_1,1,ibu_1,0,1,O,O,VB,nsubj,NNP,ARG0
558,3,beri_1,1,makan_1,2,1,O,O,VB,obj,VB,ARG1
559,1,beri_1,1,makan_1,0,1,O,O,NN,nsubj:pass,VB,ARG1
559,3,beri_1,1,ibu_1,2,1,O,O,NN,obj,NNP,ARG0
560,1,dapat_1,2,suster_1,0,1,O,ORG,VB,nsubj,NNP,ARG0
560,2,suster_1,0,diana_1,1,0,ORG,PER,NNP,flat,NNP,name
560,4,dapat_1,2,uang_1,3,1,O,O,VB,obj,NN,ARG1
561,1,dapat_1,1,uang_1,0,1,O,O,VB,nsubj:pass,NN,ARG1
561,3,dapat_1,1,suster_1,2,1,O,ORG,VB,obj,NNP,ARG0
561,4,suster_1,2,ana_1,3,0,ORG,LOC,NNP,flat,NNP,unk
562,1,habis_1,1,anda_1,0,1,O,O,VB,nsubj,PRP,ARG0
562,3,habis_1,1,uang_1,2,1,O,O,VB,obj,NN,ARG1
563,1,habis_1,1,uang_1,0,1,O,O,VB,nsubj:pass,NN,ARG1
563,3,habis_1,1,anda_1,2,1,O,O,VB,obj,NNP,ARG0
564,1,bakar_1,2,kerumun_1,0,1,O,O,VB,nsubj,NN,ARG0
564,4,bakar_1,2,mobil_1,3,1,O,O,VB,obj,NN,ARG1
564,6,bakar_1,2,jalan_1,5,1,O,O,VB,obl,NN,location
565,1,bakar_1,1,mobil_1,0,1,O,PER,NN,nsubj:pass,NN,ARG1
565,3,bakar_1,1,kerumun_1,2,1,O,O,NN,obj,NN,ARG1
565,4,kerumun_1,2,orang_1,3,0,O,O,NN,compound,NN,unk
565,6,bakar_1,1,jalan_1,5,1,O,O,NN,obl,NN,location
566,1,tangkap_1,1,warga_1,0,1,O,O,VB,nsubj,NN,ARG0
566,3,tangkap_1,1,babi_1,2,1,O,O,VB,obj,NN,ARG1
566,5,tangkap_1,1,hutan_1,4,1,O,O,VB,obl,NN,location
567,1,cerita_1,3,bu_1,0,1,O,ORG,VB,nsubj,NNP,ARG0
567,2,bu_1,0,zee_1,1,0,ORG,ORG,NNP,flat,NNP,name
567,3,zee_1,1,zee_2,2,0,ORG,PER,NNP,flat,NNP,name
567,5,cerita_1,3,kisah_1,4,1,O,O,VB,obj,NN,ARG1
567,6,kisah_1,4,tragis_1,5,0,O,O,NN,amod,JJ,mod
568,1,cerita_1,2,kisah_1,0,1,O,O,VB,nsubj:pass,NN,ARG1
568,2,kisah_1,0,tragis_1,1,0,O,O,NN,amod,JJ,mod
568,4,cerita_1,2,bu_1,3,1,O,ORG,VB,obj,NNP,ARG0
568,5,bu_1,3,zee_1,4,0,ORG,LOC,NNP,flat,NNP,name
568,6,bu_1,3,zee_2,5,0,ORG,O,NNP,flat,NNP,name
569,2,tangkap_1,2,jaga_1,1,1,O,O,VB,nsubj,NN,ARG0
569,4,tangkap_1,2,curi_1,3,1,O,O,VB,obj,NN,ARG1
570,1,tangkap_1,1,curi_1,0,1,O,O,VB,nsubj:pass,NNP,ARG1
570,4,tangkap_1,1,jaga_1,3,1,O,O,VB,obj,NN,ARG1
571,1,seka_1,1,saya_1,0,1,O,O,PRP,nsubj,PRP,ARG0
571,3,seka_1,1,lantai_1,2,1,O,O,PRP,obj,VB,ARG1
572,1,seka_1,1,lantai_1,0,1,O,O,PRP,nsubj:pass,NN,ARG1
572,3,seka_1,1,saya_1,2,1,O,O,PRP,obj,PRP,ARG0
573,1,pelihara_1,1,tentara_1,0,1,O,O,NN,nsubj,NN,ARG0
573,3,pelihara_1,1,damai_1,2,1,O,O,NN,obj,NN,ARG1
573,5,pelihara_1,1,indonesia_1,4,1,O,GPE,NN,obl,NNP,ARG1
574,1,pelihara_1,1,damai_1,0,1,O,O,NN,nsubj:pass,NN,ARG1
574,3,pelihara_1,1,tentara_1,2,1,O,O,NN,obj,NN,ARG0
574,5,pelihara_1,1,indonesia_1,4,1,O,GPE,NN,obl,NNP,ARG1
575,1,cari_1,1,saya_1,0,1,O,O,VB,nsubj,PRP,ARG0
575,3,cari_1,1,nafkah_1,2,1,O,O,VB,obj,WH,ARG1
576,1,cari_1,1,nafkah_1,0,1,O,O,NN,nsubj:pass,NN,ARG1
576,3,cari_1,1,saya_1,2,1,O,O,NN,obj,PRP,ARG0
577,1,tanam_1,2,pak_1,0,1,O,ORG,VB,nsubj,NNP,ARG0
577,2,tanam_1,2,ogah_1,1,1,O,PER,VB,advmod,NNP,unk
577,4,tanam_1,2,padi_1,3,1,O,O,VB,obj,VB,ARG1
578,1,tanam_1,1,padi_1,0,1,O,O,NNP,nsubj:pass,NNP,ARG1
578,3,tanam_1,1,pak_1,2,1,O,O,NNP,obj,NNP,ARG0
578,4,pak_1,2,ogah_1,3,0,O,LOC,NNP,flat,NNP,name
579,1,beli_1,1,kontraktor_1,0,1,O,O,VB,nsubj,NN,ARG0
579,3,beli_1,1,tanam_1,2,1,O,O,VB,obj,NN,ARG1
580,1,beli_1,1,tanam_1,0,1,O,O,VB,nsubj:pass,NN,ARG1
580,3,beli_1,1,kontraktor_1,2,1,O,O,VB,obj,NN,ARG0
581,1,peras_1,1,antara_1,0,1,O,O,NN,nsubj,NN,ARG0
581,3,peras_1,1,tani_1,2,1,O,O,NN,obj,NN,ARG1
582,1,peras_1,1,tani_1,0,1,O,O,NN,nsubj:pass,NN,ARG1
582,3,peras_1,1,antara_1,2,1,O,O,NN,obj,NN,ARG0
583,1,tonton_1,2,dik_1,0,1,O,ORG,NNP,nsubj,NNP,ARG0
583,2,dik_1,0,dilan_1,1,0,ORG,PER,NNP,flat,NNP,name
583,4,tonton_1,2,kartun_1,3,1,O,O,NNP,obj,VB,ARG1
583,6,tonton_1,2,tv_1,5,1,O,O,NNP,obl,NNP,location
584,1,tonton_1,1,kartun_1,0,1,O,ORG,NNP,nsubj:pass,NNP,ARG1
584,3,tonton_1,1,dik_1,2,1,O,ORG,NNP,obj,NNP,ARG0
584,4,dik_1,2,dilan_1,3,0,ORG,PER,NNP,flat,NNP,name
584,6,tonton_1,1,tv_1,5,1,O,O,NNP,obl,NNP,location
585,1,tuang_1,2,ibu_1,0,1,O,O,VB,nsubj,NNP,ARG0
585,2,ibu_1,0,salsa_1,1,0,O,O,NNP,flat,NNP,name
585,4,tuang_1,2,air_1,3,1,O,O,VB,obj,NN,ARG1
586,1,tuang_1,1,air_1,0,1,O,O,NN,nsubj:pass,NN,ARG1
586,3,tuang_1,1,ibu_1,2,1,O,O,NN,obj,NNP,ARG0
586,4,ibu_1,2,salsa_1,3,0,O,LOC,NNP,flat,NNP,name
587,2,ibu_1,0,lipat_1,1,1,O,O,NN,acl,NN,unk
587,3,lipat_1,1,pakai_1,2,0,O,O,NN,obj,NN,ARG1
588,1,lipat_1,1,pakai_1,0,1,O,O,NN,nsubj:pass,NN,ARG1
588,3,lipat_1,1,ibu_1,2,1,O,O,NN,obj,NNP,ARG0
589,1,liput_1,1,wartawan_1,0,1,O,O,VB,nsubj,NN,ARG0
589,3,liput_1,1,berita_1,2,1,O,O,VB,obj,NN,ARG1
590,1,liput_1,1,berita_1,0,1,O,O,VB,nsubj:pass,NN,ARG1
590,3,liput_1,1,wartawan_1,2,1,O,O,VB,obj,NN,ARG0
591,1,kunyah_1,2,sister_1,0,1,O,O,NN,nsubj,NNP,ARG0
591,2,sister_1,0,asti_1,1,0,O,PER,NNP,flat,NNP,name
591,4,kunyah_1,2,permen_1,3,1,O,O,NN,obj,NN,ARG1
592,1,kunyah_1,1,permen_1,0,1,O,O,NN,nsubj:pass,NN,ARG1
592,3,kunyah_1,1,sister_1,2,1,O,O,NN,obj,NNP,ARG0
592,4,sister_1,2,asti_1,3,0,O,LOC,NNP,flat,NNP,name
593,1,kendara_1,1,ayah_1,0,1,O,O,VB,nsubj,NN,ARG0
593,3,kendara_1,1,mobil_1,2,1,O,O,VB,obj,NN,ARG1
594,1,kendara_1,1,mobil_1,0,1,O,PER,NNP,nsubj:pass,NNP,ARG1
594,3,kendara_1,1,ayah_1,2,1,O,O,NNP,obj,NNP,ARG0
595,1,buat_1,2,bu_1,0,1,O,ORG,VB,nsubj,NNP,ARG0
595,2,bu_1,0,prapto_1,1,0,ORG,PER,NNP,flat,NNP,name
595,4,buat_1,2,pupuk_1,3,1,O,O,VB,obj,NN,ARG1
596,1,buat_1,1,pupuk_1,0,1,O,PER,VB,nsubj:pass,NN,ARG1
596,3,buat_1,1,bu_1,2,1,O,ORG,VB,obj,NNP,ARG0
596,4,bu_1,2,prapto_1,3,0,ORG,PER,NNP,flat,NNP,name
596,5,buat_1,1,buat_2,4,1,O,O,VB,punct,VB,unk
597,1,ledak_1,2,pak_1,0,1,O,ORG,VB,nsubj,NNP,ARG0
597,2,pak_1,0,adi_1,1,0,ORG,PER,NNP,flat,NNP,name
597,4,ledak_1,2,pipa_1,3,1,O,O,VB,obj,NN,ARG1
597,6,ledak_1,2,halaman_1,5,1,O,O,VB,obl,NN,location
598,1,ledak_1,1,pipa_1,0,1,O,PER,VB,nsubj:pass,SC,ARG1
598,3,ledak_1,1,pak_1,2,1,O,PER,VB,obj,NNP,ARG0
598,4,pak_1,2,adi_1,3,0,PER,O,NNP,flat,NNP,name
598,6,ledak_1,1,halaman_1,5,1,O,O,VB,obl,NN,location
599,1,tanam_1,1,krishna_1,0,1,O,PER,VB,nsubj,NNP,ARG0
599,3,tanam_1,1,kedelai_1,2,1,O,O,VB,obj,NN,ARG1
599,5,tanam_1,1,kebun_1,4,1,O,O,VB,obl,NN,location
600,1,tanam_1,1,kedelai_1,0,1,O,O,NNP,nsubj:pass,NNP,ARG1
600,3,tanam_1,1,krishna_1,2,1,O,PER,NNP,obj,NNP,ARG0
600,5,tanam_1,1,kebun_1,4,1,O,O,NNP,obl,NN,location
601,1,cuci_1,2,mbak_1,0,1,O,ORG,VB,nsubj:pass,NNP,ARG0
601,2,mbak_1,0,rina_1,1,0,ORG,PER,NNP,flat,NNP,name
601,5,cuci_1,2,kamar_1,4,1,O,O,VB,obl,NN,location
601,6,kamar_1,4,mandi_1,5,0,O,O,NN,compound,NN,mod
602,1,tunggu_1,2,nenek_1,0,1,O,O,VB,nsubj,NN,ARG0
602,2,tunggu_1,2,sedang_1,1,1,O,O,VB,advmod,MD,unk
602,4,tunggu_1,2,kakek_1,3,1,O,O,VB,obj,NN,ARG1
602,6,tunggu_1,2,teras_1,5,1,O,O,VB,obl,NN,location
603,1,tunggu_1,2,kakek_1,0,1,O,PER,VB,nsubj:pass,NN,ARG1
603,2,tunggu_1,2,sedang_1,1,1,O,O,VB,advmod,MD,unk
603,4,tunggu_1,2,nenek_1,3,1,O,O,VB,obj,NN,ARG0
603,6,tunggu_1,2,teras_1,5,1,O,O,VB,obl,NN,location
604,1,bersih_1,1,anda_1,0,1,O,O,VB,nsubj,PRP,ARG0
604,3,bersih_1,1,dapur_1,2,1,O,O,VB,obj,VB,ARG1
605,1,bersih_1,1,dapur_1,0,1,O,O,VB,nsubj:pass,NNP,ARG1
605,3,bersih_1,1,anda_1,2,1,O,O,VB,obj,NNP,ARG0
606,1,menyebrang_1,2,mas_1,0,1,O,ORG,VB,nsubj,NNP,ARG0
606,2,mas_1,0,dudi_1,1,0,ORG,PER,NNP,flat,NNP,name
607,1,disebrangi_1,1,sungai_1,0,1,O,O,VB,nsubj:pass,NN,unk
607,3,disebrangi_1,1,mas_1,2,1,O,O,VB,obj,NNP,ARG1
607,4,mas_1,2,dudi_1,3,0,O,LOC,NNP,flat,NNP,name
608,1,cari_1,1,ia_1,0,1,O,O,VB,nsubj,PRP,ARG0
608,3,cari_1,1,uang_1,2,1,O,O,VB,obj,NN,ARG1
609,1,cari_1,1,uang_1,0,1,O,O,NN,nsubj:pass,NN,ARG1
609,3,cari_1,1,ia_1,2,1,O,O,NN,obj,PRP,ARG0
610,1,main_1,2,kak_1,0,1,O,ORG,VB,nsubj,NNP,ARG0
610,2,kak_1,0,intan_1,1,0,ORG,PER,NNP,flat,NNP,name
610,4,main_1,2,bola_1,3,1,O,O,VB,obj,NN,ARG1
611,1,main_1,1,bola_1,0,1,O,O,VB,nsubj:pass,NN,ARG1
611,3,main_1,1,kak_1,2,1,O,ORG,VB,obj,NNP,ARG0
611,4,kak_1,2,intan_1,3,0,ORG,LOC,NNP,flat,NNP,name
612,1,ajar_1,1,rudi_1,0,1,O,PER,VB,nsubj,NNP,ARG0
612,3,ajar_1,1,bahasa_1,2,1,O,O,VB,obj,NNP,ARG1
613,1,pancing_1,1,saskia_1,0,1,O,O,RB,nsubj,NNP,ARG0
613,3,pancing_1,1,ikan_1,2,1,O,O,RB,obj,VB,ARG1
614,1,pancing_1,1,ikan_1,0,1,O,O,NN,nsubj:pass,VB,ARG1
614,3,pancing_1,1,saskia_1,2,1,O,O,NN,obj,NNP,ARG0
615,1,gambar_1,2,mbak_1,0,1,O,ORG,NNP,nsubj,NNP,ARG0
615,2,mbak_1,0,hana_1,1,0,ORG,PER,NNP,flat,NNP,name
615,4,gambar_1,2,kartun_1,3,1,O,O,NNP,obj,NNP,ARG1
616,1,berangkat_1,1,akmal_1,0,1,O,PER,VB,nsubj,JJ,ARG0
616,4,berangkat_1,1,sekolah_1,3,1,O,O,VB,obl,NN,location
617,1,tempel_1,1,lisa_1,0,1,O,PER,NN,nsubj,NN,ARG0
617,3,tempel_1,1,foto_1,2,1,O,O,NN,obj,NN,ARG1
617,4,foto_1,2,keluarga_1,3,0,O,O,NN,compound,NN,mod
617,6,foto_1,2,ruang_1,5,0,O,O,NN,nmod,NN,unk
617,7,ruang_1,5,tamu_1,6,0,O,O,NN,compound,NN,mod
618,2,adik_1,0,menang_1,1,1,O,O,NN,flat,JJ,unk
619,2,ibu_1,0,pingsan_1,1,1,O,O,NN,compound,NN,unk
620,1,kunjung_1,2,presiden_1,0,1,O,O,VB,nsubj,NNP,ARG0
620,2,presiden_1,0,joko_1,1,0,O,PER,NNP,flat,NNP,name
620,5,kunjung_1,2,papua_1,4,1,O,GPE,VB,obl,NNP,location
621,2,naik_1,2,menang_1,1,1,O,O,VB,nsubj,NN,ARG0
621,5,naik_1,2,podium_1,4,1,O,O,VB,obl,NN,location
622,1,tidur_1,1,paman_1,0,1,O,GPE,VB,nsubj,NNP,ARG0
622,4,tidur_1,1,lantai_1,3,1,O,O,VB,obl,NN,location
623,1,beli_1,1,aku_1,0,1,O,O,VB,nsubj,NNP,ARG0
623,3,beli_1,1,sayur_1,2,1,O,O,VB,obj,NN,ARG1
623,5,beli_1,1,pasar_1,4,1,O,O,VB,obl,NN,location
624,2,kami_1,0,lari_1,1,1,O,O,PRP,punct,VB,unk
625,1,baik_1,1,bagus_1,0,1,O,O,VB,amod,NNP,ARG0
625,3,baik_1,1,laptop_1,2,1,O,O,VB,obj,FW,ARG1
626,1,bunuh_1,1,toni_1,0,1,O,PER,VB,nsubj,NNP,ARG0
626,3,bunuh_1,1,cicak_1,2,1,O,O,VB,obj,NN,ARG1
626,4,bunuh_1,1,guna_1,3,1,O,O,VB,xcomp,VB,mod
626,5,guna_1,3,sapu_1,4,0,O,O,VB,obj,JJ,mod
627,1,bunuh_1,1,cicak_1,0,1,O,O,VB,nsubj:pass,NN,ARG1
627,3,guna_1,3,toni_1,2,0,O,PER,VB,nsubj,NNP,ARG0
627,4,bunuh_1,1,guna_1,3,1,O,O,VB,xcomp,VB,mod
627,5,guna_1,3,sapu_1,4,0,O,O,VB,obj,JJ,mod
628,1,demo_1,1,warga_1,0,1,O,O,NN,nsubj,NN,ARG0
628,3,demo_1,1,lurah_1,2,1,O,GPE,NN,obj,NN,ARG1
628,4,lurah_1,2,baru_1,3,0,GPE,O,NN,amod,JJ,mod
629,1,demo_1,2,lurah_1,0,1,O,PER,NN,nsubj:pass,NN,ARG1
629,2,demo_1,2,baru_1,1,1,O,O,NN,advmod,JJ,unk
629,4,demo_1,2,warga_1,3,1,O,O,NN,obj,NN,ARG0
630,2,nikmat_1,3,tamu_1,1,1,O,O,VB,nsubj,NN,ARG0
630,3,tamu_1,1,undang_1,2,0,O,O,NN,compound,NN,mod
630,5,nikmat_1,3,saji_1,4,1,O,O,VB,obj,NN,ARG1
630,6,saji_1,4,pesta_1,5,0,O,O,NN,compound,JJ,mod
631,1,nikmat_1,2,saji_1,0,1,O,O,VB,nsubj:pass,NN,ARG1
631,2,saji_1,0,pesta_1,1,0,O,O,NN,compound,NN,mod
631,4,nikmat_1,2,tamu_1,3,1,O,O,VB,obj,NN,ARG1
631,5,tamu_1,3,undang_1,4,0,O,O,NN,compound,NN,mod
632,1,buat_1,1,aku_1,0,1,O,O,VB,nsubj,NNP,ARG0
632,3,buat_1,1,artikel_1,2,1,O,O,VB,obj,NN,ARG1
632,4,artikel_1,2,sehat_1,3,0,O,O,NN,compound,NN,mod
632,5,artikel_1,2,mata_1,4,0,O,O,NN,compound,NN,unk
633,1,umum_1,2,bu_1,0,1,O,ORG,VB,nsubj,NNP,ARG0
633,2,bu_1,0,nina_1,1,0,ORG,PER,NNP,flat,NNP,unk
633,4,umum_1,2,hasil_1,3,1,O,O,VB,obj,NN,ARG1
633,5,hasil_1,3,ulang_1,4,0,O,O,NN,compound,NN,mod
633,6,ulang_1,4,matematika_1,5,0,O,O,NN,compound,SC,mod
633,9,umum_1,2,siswa_1,8,1,O,O,VB,obl,NN,ARG1
634,1,umum_1,3,hasil_1,0,1,O,O,VB,nsubj:pass,NN,ARG1
634,2,hasil_1,0,ulang_1,1,0,O,O,NN,compound,NN,mod
634,3,ulang_1,1,matematika_1,2,0,O,O,NN,compound,SC,mod
634,5,umum_1,3,bu_1,4,1,O,ORG,VB,obj,NNP,ARG0
634,6,bu_1,4,nina_1,5,0,ORG,PER,NNP,flat,NNP,unk
634,9,umum_1,3,siswa_1,8,1,O,O,VB,obl,NN,ARG1
635,1,buat_1,1,ibu_1,0,1,O,O,VB,nsubj,NNP,ARG0
635,3,buat_1,1,bubur_1,2,1,O,O,VB,obj,NN,ARG1
635,4,bubur_1,2,kacang_1,3,0,O,O,NN,compound,NN,mod
635,5,bubur_1,2,ijo_1,4,0,O,O,NN,compound,NNP,unk
636,1,buat_1,3,bubur_1,0,1,O,O,VB,nsubj:pass,NN,ARG1
636,2,bubur_1,0,kacang_1,1,0,O,O,NN,compound,NN,mod
636,3,kacang_1,1,ijo_1,2,0,O,O,NN,compound,NN,mod
636,5,buat_1,3,ibu_1,4,1,O,O,VB,obj,NNP,ARG0
637,1,bantu_1,1,warga_1,0,1,O,O,VB,nsubj,NN,ARG0
637,3,bantu_1,1,acara_1,2,1,O,O,VB,obj,NN,ARG1
637,4,acara_1,2,nikah_1,3,0,O,O,NN,compound,NN,mod
637,5,nikah_1,3,putri_1,4,0,O,O,NN,flat,NN,mod
637,6,putri_1,4,presiden_1,5,0,O,O,NN,flat,NNP,mod
637,7,presiden_1,5,jokowi_1,6,0,O,NOR,NNP,flat,NNP,name
638,1,bantu_1,5,acara_1,0,1,O,O,VB,nsubj:pass,NN,ARG1
638,2,acara_1,0,nikah_1,1,0,O,O,NN,compound,NN,mod
638,3,nikah_1,1,putri_1,2,0,O,O,NN,flat,NN,mod
638,4,putri_1,2,presiden_1,3,0,O,O,NN,flat,NNP,mod
638,5,presiden_1,3,jokowi_1,4,0,O,ORG,NNP,flat,NNP,name
638,7,bantu_1,5,warga_1,6,1,O,O,VB,obj,NN,ARG0
639,1,cuci_1,1,aku_1,0,1,O,O,VB,nsubj,NNP,ARG0
639,3,cuci_1,1,pakai_1,2,1,O,O,VB,obj,NN,ARG1
639,4,pakai_1,2,kotor_1,3,0,O,O,NN,amod,NN,mod
639,6,cuci_1,1,kamar_1,5,1,O,O,VB,obl,NN,location
639,7,kamar_1,5,mandi_1,6,0,O,O,NN,compound,NN,mod
640,1,cuci_1,2,pakai_1,0,1,O,O,NN,nsubj:pass,NN,ARG1
640,2,pakai_1,0,kotor_1,1,0,O,O,NN,amod,NN,mod
640,4,cuci_1,2,aku_1,3,1,O,O,NN,obj,NN,ARG0
640,6,cuci_1,2,kamar_1,5,1,O,O,NN,obl,NN,location
640,7,kamar_1,5,mandi_1,6,0,O,O,NN,compound,NN,mod
641,1,bakar_1,2,pak_1,0,1,O,PER,VB,nsubj,NNP,ARG0
641,2,bakar_1,2,amat_1,1,1,O,O,VB,advmod,NNP,unk
641,4,bakar_1,2,sampah_1,3,1,O,O,VB,obj,NN,ARG1
641,5,sampah_1,3,kering_1,4,0,O,O,NN,amod,JJ,mod
641,7,bakar_1,2,pinggir_1,6,1,O,O,VB,obl,NN,location
641,8,pinggir_1,6,sungai_1,7,0,O,O,NN,compound,NN,mod
642,1,bakar_1,2,sampah_1,0,1,O,O,NN,nsubj:pass,NN,ARG1
642,2,sampah_1,0,kering_1,1,0,O,O,NN,amod,NN,mod
642,4,bakar_1,2,pak_1,3,1,O,O,NN,obj,NNP,ARG0
642,5,pinggir_1,6,amat_1,4,0,O,O,NN,advmod,NNP,unk
642,7,bakar_1,2,pinggir_1,6,1,O,O,NN,obl,NN,location
642,8,pinggir_1,6,sungai_1,7,0,O,O,NN,compound,NN,mod
643,1,daya_1,2,kelompok_1,0,1,O,O,VB,nsubj,NN,ARG0
643,2,kelompok_1,0,tani_1,1,0,O,O,NN,compound,VB,mod
643,4,daya_1,2,sampah_1,3,1,O,O,VB,obj,NN,ARG1
643,5,sampah_1,3,plastik_1,4,0,O,O,NN,compound,JJ,mod
644,1,beri_1,1,pemerintah_1,0,1,O,PER,VB,nsubj,NN,ARG0
644,3,beri_1,1,bantu_1,2,1,O,O,VB,obj,NN,ARG1
644,4,bantu_1,2,langsung_1,3,0,O,O,NN,amod,RB,unk
644,5,bantu_1,2,tunai_1,4,0,O,O,NN,compound,JJ,unk
645,1,beri_1,3,bantu_1,0,1,O,O,VB,nsubj:pass,NN,unk
645,2,bantu_1,0,langsung_1,1,0,O,O,NN,amod,RB,unk
645,3,bantu_1,0,tunai_1,2,0,O,O,NN,amod,JJ,unk
645,5,beri_1,3,pemerintah_1,4,1,O,ORG,VB,obj,NN,ARG1
646,1,main_1,2,bu_1,0,1,O,ORG,VB,nsubj,NNP,ARG0
646,2,bu_1,0,rita_1,1,0,ORG,PER,NNP,flat,NNP,name
646,4,main_1,2,piano_1,3,1,O,O,VB,obj,NNP,ARG1
647,1,main_1,1,piano_1,0,1,O,PER,VB,nsubj:pass,NNP,ARG1
647,3,main_1,1,bu_1,2,1,O,O,VB,obj,NNP,ARG0
647,4,bu_1,2,rita_1,3,0,O,LOC,NNP,flat,NNP,name
648,2,demo_1,0,teriak_1,1,1,O,O,NNP,flat,VB,unk
649,2,ungsi_1,0,lari_1,1,1,O,O,NN,flat,NN,unk
650,2,kakek_1,0,yusuf_1,1,1,ORG,O,NNP,flat,NNP,name
650,3,kakek_1,0,tidur_1,2,1,ORG,O,NNP,flat,VB,unk
651,1,tanam_1,2,suster_1,0,1,O,ORG,VB,nsubj,NNP,ARG0
651,2,suster_1,0,mira_1,1,0,ORG,PER,NNP,flat,NNP,name
651,4,tanam_1,2,bunga_1,3,1,O,O,VB,obj,NN,ARG1
651,5,bunga_1,3,mawar_1,4,0,O,O,NN,compound,VB,mod
652,1,datang_1,1,dia_1,0,1,O,O,VB,nsubj,PRP,ARG0
652,4,datang_1,1,jogyakarta_1,3,1,O,LOC,VB,obl,NNP,location
653,1,berangkat_1,1,andi_1,0,1,O,PER,VB,nsubj,NNP,ARG0
653,3,berangkat_1,1,latih_1,2,1,O,O,VB,xcomp,FW,ARG1
653,4,latih_1,2,karate_1,3,0,O,O,FW,obj,FW,mod
654,2,olahraga_1,2,sedang_1,1,0,O,O,VB,advmod,MD,unk
654,3,mereka_1,0,olahraga_1,2,1,O,O,PRP,acl,VB,unk
655,1,benam_1,1,matahari_1,0,1,O,O,VB,nsubj:pass,NNP,ARG0
655,4,benam_1,1,senja_1,3,1,O,O,VB,obl,NN,ARG1
655,5,senja_1,3,hari_1,4,0,O,O,NN,nmod,NN,mod
656,1,cari_1,1,kelelawar_1,0,1,O,O,VB,nsubj,NNP,ARG0
656,3,cari_1,1,makan_1,2,1,O,O,VB,obj,VB,ARG1
656,4,malam_1,4,saat_1,3,0,O,O,NN,case,NN,unk
656,5,cari_1,1,malam_1,4,1,O,O,VB,obl,NN,time
656,6,malam_1,4,hari_1,5,0,O,O,NN,compound,NN,mod
657,1,cari_1,1,makan_1,0,1,O,O,NN,nsubj:pass,VB,ARG1
657,3,cari_1,1,kelelawar_1,2,1,O,O,NN,obj,VB,ARG0
657,4,malam_1,4,saat_1,3,0,O,O,NN,case,NN,unk
657,5,cari_1,1,malam_1,4,1,O,O,NN,obl,NN,time
657,6,malam_1,4,hari_1,5,0,O,O,NN,compound,NN,mod
658,1,dengar_1,2,saat_1,0,1,O,O,VB,obl,NN,ARG1
658,2,dengar_1,2,fajar_1,1,1,O,O,VB,nsubj:pass,NN,time
658,4,dengar_1,2,suara_1,3,1,O,O,VB,obj,NN,ARG1
658,5,suara_1,3,ayam_1,4,0,O,O,NN,compound,NN,mod
658,6,suara_1,3,jantan_1,5,0,O,O,NN,compound,NN,unk
659,1,pulang_1,3,hari_1,0,1,O,O,VB,obl,NN,time
659,3,pulang_1,3,murid_1,2,1,O,O,VB,nsubj,NN,ARG0
659,5,pulang_1,3,sekolah_1,4,1,O,O,VB,obj,NN,location
660,1,selenggara_1,5,upacara_1,0,1,O,O,VB,nsubj:pass,NN,ARG1
660,2,upacara_1,0,ingat_1,1,0,O,O,NN,compound,NN,mod
660,3,ingat_1,1,hari_1,2,0,O,O,NN,compound,NN,mod
660,4,hari_1,2,sakti_1,3,0,O,O,NN,compound,NN,mod
660,5,sakti_1,3,pancasila_1,4,0,O,O,NN,compound,SC,mod
660,8,selenggara_1,5,tanggal_1,7,1,O,O,VB,obl,NN,time
660,9,oktober_1,9,satu_1,8,0,O,MON,NNP,nummod,CD,unk
660,10,tanggal_1,7,oktober_1,9,0,O,O,NN,nmod,NNP,unk
661,3,bulan_1,1,ramadhan_1,2,1,O,PER,NN,flat,NNP,mod
661,4,bulan_1,1,umat_1,3,1,O,LOC,NN,compound,NNP,unk
661,5,umat_1,3,islam_1,4,0,LOC,PER,NNP,flat,NNP,mod
661,6,pada_1,0,puasa_1,5,0,O,O,IN,punct,NNP,unk
662,1,berangkat_1,1,budi_1,0,1,O,PER,VB,nsubj,NNP,ARG0
662,4,berangkat_1,1,sekolah_1,3,1,O,O,VB,obl,NN,ARG1
662,5,sekolah_1,3,pukul_1,4,0,O,O,NN,compound,NN,time
662,6,pukul_1,4,tujuh_1,5,0,O,DAT,NN,nummod,CD,mod
663,3,kemarin_1,1,sore_1,2,1,O,O,NN,compound,NN,mod
663,4,sore_1,2,hujan_1,3,0,O,O,NN,compound,NN,unk
663,5,hujan_1,3,turun_1,4,0,O,O,NN,compound,VB,unk
664,1,langsung_1,2,musim_1,0,1,O,O,VB,nsubj,NN,ARG1
664,2,musim_1,0,hujan_1,1,0,O,O,NN,compound,NN,mod
664,5,langsung_1,2,bulan_1,4,1,O,O,VB,obl,NN,ARG1
664,6,bulan_1,4,oktober_1,5,0,O,DAT,NN,flat,NNP,unk
665,1,dengar_1,1,bayi_1,0,1,O,O,VB,nsubj,NN,ARG0
665,4,dengar_1,1,lahir_1,3,1,O,O,VB,obl,VB,ARG1
666,1,pindah_1,2,tante_1,0,1,O,ORG,VB,nsubj,NNP,ARG0
666,2,tante_1,0,indri_1,1,0,ORG,PER,NNP,flat,NNP,name
666,5,pindah_1,2,bandung_1,4,1,O,GPE,VB,obl,NNP,location
666,6,meni_1,6,telah_1,5,0,O,O,VB,mark,SC,unk
666,7,pindah_1,2,meni_1,6,1,O,O,VB,advcl,VB,unk
667,1,minum_1,1,obat_1,0,1,O,O,NN,nsubj:pass,NN,ARG1
667,3,minum_1,1,bu_1,2,1,O,PER,NN,obj,NNP,ARG0
667,4,bu_1,2,sus_1,3,0,PER,O,NNP,flat,NNP,unk
667,5,makan_1,5,telah_1,4,0,O,O,VB,case,SC,unk
667,6,minum_1,1,makan_1,5,1,O,O,NN,obl,VB,ARG1
668,1,minum_1,2,bu_1,0,1,O,ORG,NN,nsubj,NNP,ARG0
668,2,bu_1,0,susi_1,1,0,ORG,PER,NNP,flat,NNP,name
668,4,minum_1,2,obat_1,3,1,O,O,NN,obj,NN,ARG1
668,5,makan_1,5,telah_1,4,0,O,O,VB,case,SC,unk
668,6,minum_1,2,makan_1,5,1,O,O,NN,obl,VB,ARG1
669,1,laksana_1,2,upacara_1,0,1,O,O,VB,nsubj:pass,NN,ARG1
669,2,upacara_1,0,bendera_1,1,0,O,O,NN,compound,NN,mod
669,5,laksana_1,2,hari_1,4,1,O,O,VB,obl,NN,time
669,6,hari_1,4,senin_1,5,0,O,DAT,NN,flat,NNP,mod
670,1,hidup_1,1,dinosaurus_1,0,1,O,PER,NN,nsubj,NN,ARG0
670,4,hidup_1,1,bumi_1,3,1,O,O,NN,obl,NN,location
670,5,tahun_1,5,juta_1,4,0,O,O,NN,nummod,NN,unk
670,6,bumi_1,3,tahun_1,5,0,O,O,NN,compound,NN,unk
670,7,tahun_1,5,lalu_1,6,0,O,O,NN,amod,CC,mod
671,1,rawat_1,2,paman_1,0,1,O,PER,VB,nsubj:pass,NNP,ARG0
671,2,paman_1,0,gober_1,1,0,PER,O,NNP,flat,NNP,name
671,5,rawat_1,2,rumah_1,4,1,O,O,VB,obl,NN,location
671,6,rumah_1,4,sakit_1,5,0,O,O,NN,amod,NN,mod
671,7,rawat_1,2,kemarin_1,6,1,O,O,VB,punct,NN,time
672,1,pergi_1,2,ibu_1,0,1,O,O,VB,nsubj,NNP,ARG0
672,2,ibu_1,0,joko_1,1,0,O,PER,NNP,flat,NNP,name
672,4,pergi_1,2,pasar_1,3,1,O,O,VB,obj,NN,location
672,5,pasar_1,3,sore_1,4,0,O,O,NN,compound,NN,unk
673,1,pecah_1,2,anak_1,0,1,O,O,VB,nsubj,NN,ARG0
673,2,anak_1,0,ayam_1,1,0,O,O,NN,compound,NN,mod
673,4,pecah_1,2,cangkang_1,3,1,O,O,VB,obj,NN,ARG1
673,5,cangkang_1,3,telur_1,4,0,O,O,NN,compound,NN,mod
673,6,pecah_1,2,tadi_1,5,1,O,O,VB,obl,VB,time
674,1,pecah_1,2,cangkang_1,0,1,O,O,VB,nsubj:pass,NN,ARG1
674,2,cangkang_1,0,telur_1,1,0,O,O,NN,compound,NN,mod
674,4,pecah_1,2,anak_1,3,1,O,O,VB,obj,NN,ARG0
674,5,anak_1,3,ayam_1,4,0,O,O,NN,compound,NN,mod
674,6,pecah_1,2,tadi_1,5,1,O,O,VB,obl,VB,time
675,1,masuk_1,2,bu_1,0,1,O,ORG,VB,nsubj,NNP,ARG0
675,2,bu_1,0,tina_1,1,0,ORG,PER,NNP,flat,NNP,name
675,4,masuk_1,2,sekolah_1,3,1,O,O,VB,obj,NN,ARG1
675,5,sekolah_1,3,senin_1,4,0,O,DAT,NN,compound,NN,unk
675,6,sekolah_1,3,lalu_1,5,0,O,O,NN,amod,CC,unk
676,1,tumbuh_1,1,jamur_1,0,1,O,PER,VB,nsubj,NNP,ARG0
676,4,tumbuh_1,1,musim_1,3,1,O,O,VB,obl,NN,time
676,5,musim_1,3,hujan_1,4,0,O,O,NN,compound,NN,mod
677,1,bahas_1,1,hal_1,0,1,O,O,VB,nsubj:pass,NN,ARG1
677,3,rapat_1,3,saat_1,2,0,O,O,NN,case,NN,unk
677,4,bahas_1,1,rapat_1,3,1,O,O,VB,obl,NN,ARG1
677,5,bahas_1,1,nanti_1,4,1,O,O,VB,punct,NN,unk
678,1,mulai_1,3,upacara_1,0,1,O,O,VB,nsubj:pass,NN,ARG1
678,2,upacara_1,0,detik_1,1,0,O,O,NN,compound,NN,mod
678,3,detik_1,1,proklamasi_1,2,0,O,O,NN,compound,NN,mod
678,5,mulai_1,3,jam_1,4,1,O,O,VB,obj,NN,time
678,6,pagi_1,6,puluh_1,5,0,O,LOC,NN,nummod,CD,unk
678,7,jam_1,4,pagi_1,6,0,O,O,NN,compound,NN,unk
679,1,diproklamirkan_1,2,kemerdekaan_1,0,1,O,ORG,VB,nsubj:pass,NN,unk
679,2,kemerdekaan_1,0,indonesia_1,1,0,ORG,GPE,NN,flat,NNP,unk
679,4,diproklamirkan_1,2,hari_1,3,1,O,O,VB,obj,NN,ARG1
680,1,jadi_1,1,ronta_1,0,1,O,O,VB,nsubj:pass,VB,unk
680,4,jadi_1,1,tahun_1,3,1,O,O,VB,obl,NN,time
680,5,tahun_1,3,lalu_1,4,0,O,O,NN,amod,CC,mod
681,1,luap_1,3,air_1,0,1,O,O,VB,nsubj,NNP,ARG1
681,2,air_1,0,sungai_1,1,0,O,O,NNP,flat,NNP,mod
681,3,sungai_1,1,bengawan_1,2,0,O,PER,NNP,flat,NNP,name
681,5,luap_1,3,kemarin_1,4,1,O,O,VB,punct,NN,time
682,1,janji_1,1,dia_1,0,1,O,O,VB,nsubj,PRP,ARG0
682,3,janji_1,1,tingkat_1,2,1,O,O,VB,xcomp,VB,ARG1
682,4,tingkat_1,2,makmur_1,3,0,O,O,VB,obj,NN,ARG1
682,5,makmur_1,3,masyarakat_1,4,0,O,O,NN,compound,NN,mod
683,1,asa_1,1,udara_1,0,1,O,O,NN,nsubj,NN,ARG0
683,3,asa_1,1,panas_1,2,1,O,O,NN,amod,JJ,unk
683,4,asa_1,1,pagi_1,3,1,O,O,NN,obj,NN,ARG1
684,2,bu_1,0,nisa_1,1,1,ORG,PER,NNP,flat,NNP,name
684,3,lewat_1,3,tidak_1,2,0,O,O,VB,advmod,NEG,unk
684,4,sini_1,4,lewat_1,3,0,O,O,PR,case,VB,unk
684,5,bu_1,0,sini_1,4,1,ORG,O,NNP,nmod,PR,unk
685,1,rasa_1,2,pak_1,0,1,O,ORG,VB,nsubj,NNP,ARG0
685,2,pak_1,0,harry_1,1,0,ORG,PER,NNP,flat,NNP,name
685,4,rasa_1,2,bahagia_1,3,1,O,O,VB,amod,NN,ARG1
685,6,rasa_1,2,hari_1,5,1,O,O,VB,obl,NN,time
685,7,hari_1,5,wisuda_1,6,0,O,O,NN,compound,NN,mod
685,8,hari_1,5,anak_1,7,0,O,O,NN,compound,RB,unk
686,1,berangkat_1,3,profesor_1,0,1,O,O,VB,nsubj,NNP,ARG0
686,2,profesor_1,0,amri_1,1,0,O,PER,NNP,flat,NNP,name
686,3,berangkat_1,3,sudah_1,2,1,O,O,VB,advmod,MD,unk
686,6,berangkat_1,3,solo_1,5,1,O,CRD,VB,obl,NNP,location
686,7,hari_1,7,tiga_1,6,0,O,PRC,NN,nummod,CD,unk
686,8,solo_1,5,hari_1,7,0,CRD,O,NNP,nmod,NN,unk
686,9,berangkat_1,3,lalu_1,8,1,O,O,VB,advmod,CC,unk
687,1,laksana_1,1,senam_1,0,1,O,O,VB,nsubj:pass,NNP,ARG1
687,3,laksana_1,1,hari_1,2,1,O,O,VB,obl,NN,time
687,4,hari_1,2,minggu_1,3,0,O,DAT,NN,flat,NNP,mod
688,1,lihat_1,1,dia_1,0,1,O,O,VB,nsubj,PRP,ARG0
688,3,lihat_1,1,buku_1,2,1,O,O,VB,obj,NN,ARG1
689,1,lihat_1,2,buku_1,0,1,O,O,VB,nsubj:pass,NN,ARG1
689,4,lihat_1,2,dia_1,3,1,O,O,VB,obj,PRP,ARG0
690,2,pak_1,0,joko_1,1,1,ORG,PRD,NN,compound,NN,name
690,3,joko_1,1,sedih_1,2,0,PRD,O,NN,amod,VB,unk
691,1,ingat_1,2,bu_1,0,1,O,ORG,NN,nsubj,NN,ARG0
691,2,ingat_1,2,susi_1,1,1,O,PER,NN,advmod,NN,unk
691,4,ingat_1,2,jadi_1,3,1,O,O,NN,obj,NN,ARG1
692,1,ingat_1,2,jadi_1,0,1,O,O,VB,nsubj:pass,NN,unk
692,4,ingat_1,2,bu_1,3,1,O,O,VB,obj,NNP,ARG0
692,5,bu_1,3,sus_1,4,0,O,LOC,NNP,flat,NNP,unk
693,2,pindah_1,0,masakan_1,1,1,O,O,VB,obj,VB,ARG1
693,4,masakan_1,1,piring_1,3,0,O,O,VB,nmod,NN,unk
693,5,piring_1,3,saji_1,4,0,O,O,NN,compound,VB,mod
694,1,mulai_1,2,acara_1,0,1,O,O,VB,nsubj:pass,NN,ARG1
694,2,acara_1,0,seminar_1,1,0,O,O,NN,compound,NN,mod
694,4,menit_1,5,tiga_1,3,0,O,CRD,NN,nummod,CD,unk
694,5,tiga_1,3,puluh_1,4,0,CRD,MON,CD,nummod,CD,mod
694,6,mulai_1,2,menit_1,5,1,O,O,VB,obj,NN,ARG1
694,7,mulai_1,2,lagi_1,6,1,O,O,VB,advmod,RB,unk
695,1,tunggu_1,1,kami_1,0,1,O,O,VB,nsubj,PRP,ARG0
695,4,tunggu_1,1,stasiun_1,3,1,O,O,VB,obl,NN,location
695,6,jam_1,6,satu_1,5,0,O,CRD,NN,nummod,CD,unk
695,7,tunggu_1,1,jam_1,6,1,O,O,VB,obl,NN,ARG1
695,8,jam_1,6,lalu_1,7,0,O,O,NN,amod,CC,mod
696,1,dengar_1,2,om_1,0,1,O,ORG,VB,nsubj,NNP,ARG0
696,2,om_1,0,tanto_1,1,0,ORG,PER,NNP,flat,NNP,name
696,4,dengar_1,2,kabar_1,3,1,O,O,VB,obj,NN,ARG1
696,5,kabar_1,3,hari_1,4,0,O,O,NN,compound,NN,unk
697,1,dengar_1,1,kabar_1,0,1,O,O,VB,nsubj:pass,NNP,ARG1
697,3,dengar_1,1,om_1,2,1,O,ORG,VB,obj,NNP,ARG0
697,4,om_1,2,tanto_1,3,0,ORG,LOC,NNP,flat,NNP,name
697,5,dengar_1,1,hari_1,4,1,O,O,VB,obl,NN,time
698,1,datang_1,2,dia_1,0,1,O,O,VB,nsubj,PRP,ARG0
698,2,datang_1,2,bisa_1,1,1,O,O,VB,advmod,MD,unk
698,4,datang_1,2,sore_1,3,1,O,O,VB,obj,NN,ARG1
699,1,resmi_1,2,pamer_1,0,1,O,O,VB,nsubj:pass,NN,unk
699,2,pamer_1,0,dirgantara_1,1,0,O,O,NN,compound,NN,unk
699,4,resmi_1,2,pekan_1,3,1,O,O,VB,obj,NN,time
699,5,pekan_1,3,depan_1,4,0,O,O,NN,amod,NN,mod
700,2,kakak_1,0,kuliah_1,1,1,O,O,NN,compound,NN,unk
700,4,kakak_1,0,bandung_1,3,1,O,GPE,NN,nmod,NNP,unk
700,5,kakak_1,0,tahun_1,4,1,O,O,NN,compound,NN,unk
700,6,tahun_1,4,depan_1,5,0,O,O,NN,amod,NN,mod
701,2,toko_1,0,buku_1,1,1,O,O,NN,compound,NN,mod
701,3,buku_1,1,tutup_1,2,0,O,O,NN,compound,VB,unk
701,4,buku_1,1,jam_1,3,0,O,O,NN,compound,NN,unk
701,5,malam_1,5,sembilan_1,4,0,O,CRD,NN,nummod,CD,unk
701,6,jam_1,3,malam_1,5,0,O,O,NN,compound,NN,unk
702,1,mampir_1,1,saya_1,0,1,O,O,VB,nsubj,PRP,ARG0
702,4,mampir_1,1,sana_1,3,1,O,O,VB,obl,NN,location
702,5,sana_1,3,hari_1,4,0,O,O,NN,nmod,NN,unk
703,2,kami_1,0,latih_1,1,1,O,O,PRP,compound,NN,unk
703,3,latih_1,1,musik_1,2,0,O,O,NN,compound,NN,unk
703,5,latih_1,1,sabtu_1,4,0,O,DAT,NN,nmod,NNP,unk
703,6,sabtu_1,4,sore_1,5,0,DAT,O,NNP,flat,NN,mod
704,1,temu_1,1,saya_1,0,1,O,O,VB,nsubj,PRP,ARG0
704,3,temu_1,1,pak_1,2,1,O,LOC,VB,obj,NNP,ARG1
704,4,pak_1,2,andi_1,3,0,LOC,O,NNP,flat,NNP,name
704,5,temu_1,1,besok_1,4,1,O,O,VB,punct,VB,time
705,1,laksana_1,2,baik_1,0,1,O,O,VB,nsubj:pass,NN,ARG1
705,2,baik_1,0,jalan_1,1,0,O,O,NN,compound,NN,mod
705,5,laksana_1,2,waktu_1,4,1,O,O,VB,obl,NN,ARG1
705,6,waktu_1,4,dekat_1,5,0,O,O,NN,amod,JJ,mod
706,1,laku_1,1,atur_1,0,1,O,O,VB,nsubj,NN,ARG0
706,4,laku_1,1,sah_1,3,1,O,O,VB,obl,VB,ARG1
707,1,pakai_1,1,ani_1,0,1,O,PER,VB,nsubj,NNP,ARG0
707,3,pakai_1,1,pakai_2,2,1,O,O,VB,obj,NN,ARG1
707,4,pakai_2,2,olahraga_1,3,0,O,O,NN,compound,NN,mod
707,5,olahraga_1,3,hari_1,4,0,O,O,NN,compound,NN,unk
708,1,pergi_1,2,tante_1,0,1,O,ORG,VB,nsubj,NNP,ARG0
708,2,tante_1,0,dyah_1,1,0,ORG,PER,NNP,flat,NNP,name
708,4,pergi_1,2,libur_1,3,1,O,O,VB,xcomp,VB,ARG1
708,6,libur_1,3,bal_1,5,0,O,GPE,VB,obl,NNP,ARG1
708,7,pergi_1,2,besok_1,6,1,O,O,VB,punct,VB,time
709,1,datang_1,2,bencana_1,0,1,O,O,VB,nsubj,NN,ARG1
709,2,bencana_1,0,banjir_1,1,0,O,O,NN,compound,NN,mod
709,4,musim_1,4,saat_1,3,0,O,O,NN,case,NN,unk
709,5,datang_1,2,musim_1,4,1,O,O,VB,obl,NN,time
709,6,musim_1,4,hujan_1,5,0,O,O,NN,compound,NN,mod
710,1,berangkat_1,1,kita_1,0,1,O,O,VB,nsubj,PRP,ARG0
710,3,makan_1,3,telah_1,2,0,O,O,VB,case,SC,unk
710,4,berangkat_1,1,makan_1,3,1,O,O,VB,xcomp,VB,unk
710,5,makan_1,3,siang_1,4,0,O,O,VB,obj,NN,ARG1
711,1,mulai_1,2,acara_1,0,1,O,O,VB,nsubj:pass,NN,ARG1
711,2,acara_1,0,diskusi_1,1,0,O,O,NN,compound,NN,mod
711,4,mulai_1,2,jam_1,3,1,O,O,VB,obj,NN,ARG1
711,5,malam_1,5,sembilan_1,4,0,O,CRD,NN,nummod,CD,unk
711,6,jam_1,3,malam_1,5,0,O,O,NN,compound,NN,unk
712,1,gigi_1,3,dokter_1,0,1,O,O,VB,nsubj,NNP,ARG0
712,2,dokter_1,0,rina_1,1,0,O,PER,NNP,flat,NNP,name
712,3,rina_1,1,gosok_1,2,0,PER,O,NNP,flat,NNP,unk
712,6,gigi_1,3,malam_1,5,1,O,O,VB,compound,NN,unk
712,7,tidur_1,7,belum_1,6,0,O,O,VB,case,SC,unk
712,8,gigi_1,3,tidur_1,7,1,O,O,VB,nmod,VB,unk
713,2,di_1,0,musim_1,1,1,O,O,IN,nmod,NN,unk
713,3,musim_1,1,kemarau_1,2,0,O,O,NN,compound,NN,mod
713,4,kemarau_1,2,sungai_1,3,0,O,O,NN,compound,NN,unk
713,5,sungai_1,3,kering_1,4,0,O,O,NN,amod,JJ,unk
714,1,ingat_1,2,hari_1,0,1,O,O,VB,nsubj:pass,NN,ARG1
714,2,hari_1,0,pahlawan_1,1,0,O,O,NN,compound,NN,mod
714,5,ingat_1,2,tanggal_1,4,1,O,O,VB,obl,NN,ARG1
714,6,november_1,6,puluh_1,5,0,MON,GPE,NNP,nummod,CD,unk
714,7,tanggal_1,4,november_1,6,0,O,MON,NN,nmod,NNP,unk
715,1,janji_1,2,tadi_1,0,1,O,O,VB,advmod,NN,time
715,2,janji_1,2,dia_1,1,1,O,O,VB,nsubj,PRP,ARG0
715,4,janji_1,2,datang_1,3,1,O,O,VB,xcomp,VB,ARG1
715,6,datang_1,3,sini_1,5,0,O,O,VB,obl,PR,ARG1
716,1,datang_1,1,paman_1,0,1,O,PER,VB,nsubj,NNP,ARG0
716,4,datang_1,1,rumah_1,3,1,O,O,VB,obl,NN,location
716,5,rumah_1,3,esok_1,4,0,O,O,NN,compound,NN,unk
716,6,datang_1,1,lusa_1,5,1,O,O,VB,punct,NN,unk
717,1,ada_1,1,kemarin_1,0,1,O,O,VB,advmod,NN,time
717,3,ada_1,1,aksi_1,2,1,O,O,VB,obj,NN,ARG1
717,4,aksi_1,2,besar_1,3,0,O,O,NN,amod,JJ,mod
718,1,hadir_1,1,dia_1,0,1,O,O,VB,nsubj,PRP,ARG0
718,4,hadir_1,1,resmi_1,3,1,O,O,VB,obl,NN,ARG1
718,5,resmi_1,3,lapang_1,4,0,O,O,NN,compound,NN,location
718,6,hadir_1,1,besok_1,5,1,O,O,VB,punct,NN,time
719,1,siap_1,1,ibu_1,0,1,O,O,VB,nsubj,NNP,ARG0
719,3,siap_1,1,alat_1,2,1,O,O,VB,obj,NN,ARG1
719,4,alat_1,2,dapur_1,3,0,O,O,NN,compound,NN,mod
719,5,siap_1,1,besok_1,4,1,O,O,VB,punct,NN,time
720,1,siap_1,2,alat_1,0,1,O,O,VB,nsubj:pass,NN,ARG1
720,2,alat_1,0,dapur_1,1,0,O,O,NN,compound,NN,mod
720,4,siap_1,2,ibu_1,3,1,O,O,VB,obj,NN,ARG0
720,5,siap_1,2,besok_1,4,1,O,O,VB,punct,NN,time
721,1,berangkat_1,2,kami_1,0,1,O,O,VB,nsubj,PRP,ARG0
721,2,berangkat_1,2,keluarga_1,1,1,O,O,VB,advmod,NN,unk
721,5,berangkat_1,2,padang_1,4,1,O,PER,VB,obl,NN,location
721,6,malam_1,6,nanti_1,5,0,O,O,NN,compound,NN,unk
721,7,berangkat_1,2,malam_1,6,1,O,O,VB,obl,NN,ARG1
722,2,ayah_1,0,belanja_1,1,1,O,O,NN,compound,NN,unk
722,3,belanja_1,1,bahan_1,2,0,O,O,NN,compound,NN,ARG1
722,4,bahan_1,2,makan_1,3,0,O,O,NN,compound,NN,mod
722,6,ayah_1,0,toko_1,5,1,O,O,NN,nmod,NN,unk
722,7,toko_1,5,surya_1,6,0,O,LOC,NN,flat,NN,mod
722,8,surya_1,6,siang_1,7,0,LOC,O,NN,compound,NN,unk
723,1,bawa_1,1,kakek_1,0,1,O,PER,VB,nsubj,NN,ARG0
723,3,bawa_1,1,kopi_1,2,1,O,O,VB,obj,NN,ARG1
723,5,kopi_1,2,kampung_1,4,0,O,O,NN,nmod,NN,unk
723,6,kampung_1,4,siang_1,5,0,O,O,NN,compound,NN,unk
724,2,kami_1,0,sarap_1,1,1,O,O,PRP,acl,NN,unk
724,3,sarap_1,1,roti_1,2,0,O,O,NN,compound,NN,unk
724,4,roti_1,2,keju_1,3,0,O,O,NN,compound,NN,mod
724,5,keju_1,3,pagi_1,4,0,O,O,NN,compound,NN,unk
725,3,pagi_1,0,jalan_1,2,1,O,O,IN,acl,NN,unk
725,4,jalan_1,2,macet_1,3,0,O,O,NN,compound,JJ,ARG1
726,1,guyur_1,2,hujan_1,0,1,O,O,NN,nsubj,NN,ARG0
726,2,hujan_1,0,deras_1,1,0,O,O,NN,amod,NN,mod
726,5,guyur_1,2,pagi_1,4,1,O,O,NN,obl,NN,ARG1
727,1,juli_1,1,pak_1,0,1,DAT,MON,NNP,nsubj,NNP,ARG0
727,3,juli_1,1,makan_1,2,1,DAT,O,NNP,compound,VB,unk
727,4,makan_1,2,buah_1,3,0,O,O,VB,compound,NN,ARG1
727,5,buah_1,3,mangga_1,4,0,O,O,NN,compound,SC,mod
728,1,lari_1,1,roni_1,0,1,O,PER,VB,nsubj,NNP,ARG0
728,5,lari_1,1,lapang_1,4,1,O,O,VB,obl,NN,ARG1
729,1,pulang_1,1,ayah_1,0,1,O,O,VB,nsubj,NN,ARG0
729,3,pulang_1,1,sore_1,2,1,O,O,VB,obj,NN,time
730,1,pergi_1,1,ibu_1,0,1,O,O,VB,nsubj,NNP,ARG0
730,4,pergi_1,1,pasar_1,3,1,O,O,VB,obl,NN,location
731,1,pulang_1,2,bu_1,0,1,O,ORG,VB,nsubj,NNP,ARG0
731,2,bu_1,0,rina_1,1,0,ORG,PER,NNP,flat,NNP,name
731,5,pulang_1,2,depok_1,4,1,O,GPE,VB,obl,NNP,location
732,1,duduk_1,2,pak_1,0,1,O,ORG,VB,nsubj,NNP,ARG0
732,2,pak_1,0,joko_1,1,0,ORG,PER,NNP,flat,NNP,name
732,5,duduk_1,2,teras_1,4,1,O,O,VB,obl,NN,location
732,6,rumah_1,6,depan_1,5,0,O,O,NN,case,NN,unk
732,7,duduk_1,2,rumah_1,6,1,O,O,VB,obl,NN,ARG1
733,1,buka_1,2,bu_1,0,1,O,ORG,VB,nsubj,NNP,ARG0
733,2,bu_1,0,jean_1,1,0,ORG,O,NNP,flat,NNP,name
733,4,buka_1,2,toko_1,3,1,O,O,VB,obj,NN,ARG1
734,1,minum_1,2,kakak_1,0,1,O,O,NN,nsubj,NNP,ARG0
734,2,kakak_1,0,dini_1,1,0,O,O,NNP,flat,NNP,name
734,4,minum_1,2,kopi_1,3,1,O,O,NN,obj,NN,ARG1
734,6,kopi_1,3,kedai_1,5,0,O,O,NN,nmod,NN,unk
734,7,kedai_1,5,kopi_2,6,0,O,O,NN,compound,NN,mod
735,1,nyanyi_1,2,bu_1,0,1,O,ORG,VB,nsubj,NNP,ARG0
735,2,bu_1,0,niki_1,1,0,ORG,PER,NNP,flat,NNP,name
735,4,nyanyi_1,2,lagu_1,3,1,O,O,VB,obj,NN,ARG1
735,5,lagu_1,3,indonesia_1,4,0,O,GPE,NN,flat,NNP,unk
735,6,indonesia_1,4,raya_1,5,0,GPE,O,NNP,flat,NNP,name
736,3,ayam_1,0,mati_1,2,1,PER,O,NN,amod,VB,unk
737,3,ayah_1,0,rumah_1,2,1,O,O,NN,nmod,NN,unk
737,4,rumah_1,2,malam_1,3,0,O,O,NN,compound,NN,unk
738,1,tutup_1,3,toko_1,0,1,O,O,VB,nsubj,NN,ARG1
738,2,toko_1,0,roti_1,1,0,O,O,NN,compound,NN,mod
738,6,tutup_1,3,hari_1,5,1,O,O,VB,obl,NN,time
738,7,hari_1,5,minggu_1,6,0,O,DAT,NN,compound,NN,mod
739,1,taruh_1,2,bu_1,0,1,O,ORG,VB,nsubj,NNP,ARG0
739,2,bu_1,0,dian_1,1,0,ORG,PER,NNP,flat,NNP,name
739,4,taruh_1,2,tas_1,3,1,O,O,VB,obj,RB,ARG1
739,6,taruh_1,2,meja_1,5,1,O,O,VB,obl,NN,location
740,2,nenek_1,0,tuti_1,1,1,O,PER,NNP,flat,NNP,name
740,3,nenek_1,0,sakit_1,2,1,O,O,NNP,amod,VB,unk
740,4,nenek_1,0,kepala_1,3,1,O,O,NNP,acl,NN,unk
740,6,kepala_1,3,hari_1,5,0,O,O,NN,compound,NN,unk
741,1,hutang_1,2,kakak_1,0,1,O,O,VB,nsubj,NNP,ARG0
741,2,kakak_1,0,budi_1,1,0,O,PER,NNP,flat,NNP,name
741,5,hutang_1,2,buku_1,4,1,O,O,VB,obj,NN,ARG1
741,6,buku_1,4,cerita_1,5,0,O,O,NN,compound,PRP,unk
742,1,makan_1,2,pak_1,0,1,O,ORG,VB,nsubj,NNP,ARG0
742,2,pak_1,0,dedi_1,1,0,ORG,PER,NNP,flat,NNP,name
742,4,makan_1,2,bekal_1,3,1,O,O,VB,obj,JJ,ARG1
742,6,makan_1,2,kelas_1,5,1,O,O,VB,obl,NN,location
743,1,beli_1,2,kak_1,0,1,O,ORG,VB,nsubj,NNP,ARG0
743,2,kak_1,0,dina_1,1,0,ORG,PER,NNP,flat,NNP,name
743,4,beli_1,2,baju_1,3,1,O,O,VB,obj,NN,ARG1
743,6,baju_1,3,toko_1,5,0,O,O,NN,nmod,NN,unk
743,7,toko_1,5,baru_1,6,0,O,O,NN,amod,JJ,mod
744,1,tidur_1,2,paman_1,0,1,O,ORG,VB,nsubj,NNP,ARG0
744,2,paman_1,0,budi_1,1,0,ORG,PER,NNP,flat,NNP,name
744,5,tidur_1,2,kamar_1,4,1,O,O,VB,obl,NN,location
744,6,kamar_1,4,depan_1,5,0,O,O,NN,amod,NN,mod
745,1,siram_1,1,ibu_1,0,1,O,O,NN,nsubj,NN,ARG0
745,3,siram_1,1,bunga_1,2,1,O,O,NN,obj,NN,ARG1
746,1,siram_1,1,bunga_1,0,1,O,O,NN,nsubj:pass,NN,ARG1
746,3,siram_1,1,ibu_1,2,1,O,O,NN,obj,NN,ARG0
747,1,siram_1,2,ibu_1,0,1,O,O,VB,nsubj,NNP,ARG0
747,2,ibu_1,0,shinta_1,1,0,O,O,NNP,flat,NNP,name
747,4,siram_1,2,bunga_1,3,1,O,O,VB,obj,NN,ARG1
747,5,bunga_1,3,mawar_1,4,0,O,PRD,NN,compound,VB,mod
747,7,bunga_1,3,air_1,6,0,O,O,NN,nmod,NN,unk
747,8,air_1,6,hujan_1,7,0,O,O,NN,compound,NN,mod
747,9,tampung_1,9,yang_1,8,0,O,O,VB,nsubj:pass,SC,unk
747,10,air_1,6,tampung_1,9,0,O,O,NN,acl,VB,unk
747,11,siram_1,2,kemarin_1,10,1,O,O,VB,punct,NN,unk
748,1,baca_1,1,ayah_1,0,1,O,O,VB,nsubj,NN,ARG0
748,3,baca_1,1,koran_1,2,1,O,O,VB,obj,NN,ARG1
748,4,koran_1,2,waspada_1,3,0,O,O,NN,flat,NNP,name
748,6,baca_1,1,teras_1,5,1,O,O,VB,obl,NN,location
748,7,teras_1,5,rumah_1,6,0,O,O,NN,compound,NN,mod
749,1,malam_1,3,ketika_1,0,1,O,O,NN,mark,SC,unk
749,2,malam_1,3,hujan_1,1,1,O,O,NN,nsubj,NN,ARG0
749,3,malam_1,3,tadi_1,2,1,O,O,NN,obl,NN,ARG1
749,5,malam_1,3,jual_1,4,1,O,O,NN,obj,NN,ARG1
749,6,jual_1,4,nasi_1,5,0,O,O,NN,compound,NN,ARG1
749,7,nasi_1,5,goreng_1,6,0,O,O,NN,compound,NN,mod
749,8,malam_1,3,jual_2,7,1,O,O,NN,punct,NN,unk
750,1,baca_1,1,adik_1,0,1,O,O,VB,nsubj,NN,ARG0
750,3,baca_1,1,buku_1,2,1,O,O,VB,obj,NN,ARG1
750,4,buku_1,2,ensiklopedia_1,3,0,O,O,NN,compound,PRP,mod
751,1,pergi_1,1,kami_1,0,1,O,O,VB,nsubj,PRP,ARG0
751,4,pergi_1,1,gunung_1,3,1,O,PER,VB,obl,NNP,location
751,5,gunung_1,3,rinjani_1,4,0,PER,O,NNP,flat,NNP,name
751,6,libur_1,6,saat_1,5,0,O,O,NN,case,NN,unk
751,7,pergi_1,1,libur_1,6,1,O,O,VB,obl,NN,ARG1
751,8,pergi_1,1,nanti_1,7,1,O,O,VB,punct,NN,unk
752,1,suka_1,1,aku_1,0,1,O,O,VB,nsubj,NNP,ARG0
752,4,suka_1,1,tulis_1,3,1,O,O,VB,obl,RB,ARG1
753,2,ibu_1,0,jahit_1,1,1,O,O,NN,acl,NN,unk
753,3,jahit_1,1,baju_1,2,0,O,O,NN,obj,NN,ARG1
753,4,baju_1,2,sekolah_1,3,0,O,O,NN,compound,NN,mod
753,5,robek_1,5,yang_1,4,0,O,O,VB,nsubj,SC,ARG0
753,6,baju_1,2,robek_1,5,0,O,O,NN,amod,VB,unk
754,1,cetak_1,2,tim_1,0,1,O,ORG,VB,nsubj,NNP,ARG0
754,2,tim_1,0,indonesia_1,1,0,ORG,GPE,NNP,flat,NNP,name
754,4,cetak_1,2,gol_1,3,1,O,O,VB,obj,NN,ARG1
754,6,gol_1,3,gawang_1,5,0,O,O,NN,nmod,NN,unk
754,7,gawang_1,5,lawan_1,6,0,O,O,NN,compound,NN,mod
755,1,kena_1,2,bu_1,0,1,O,ORG,VB,nsubj,NNP,ARG0
755,2,bu_1,0,asti_1,1,0,ORG,PER,NNP,flat,NNP,name
755,4,kena_1,2,topi_1,3,1,O,O,VB,obj,NN,ARG1
755,5,topi_1,3,bundar_1,4,0,O,O,NN,amod,JJ,mod
756,1,beri_1,3,tahan_1,0,1,O,O,VB,nsubj:pass,NN,unk
756,3,tahan_1,0,nusakambangan_1,2,0,O,O,NN,nmod,NNP,unk
756,5,beri_1,3,ringan_1,4,1,O,O,VB,obj,NN,ARG1
756,6,hari_1,6,saat_1,5,0,O,O,NN,case,NN,unk
756,7,ringan_1,4,hari_1,6,0,O,O,NN,nmod,NN,unk
756,8,hari_1,6,raya_1,7,0,O,O,NN,compound,NN,mod
756,9,hari_1,6,idul_1,8,0,O,LOC,NN,flat,NNP,unk
756,10,idul_1,8,fitri_1,9,0,LOC,GPE,NNP,flat,NNP,mod
757,1,menginpirasi_1,5,cerpen_1,0,1,O,O,NN,nsubj,NN,ARG0
757,2,ada_1,2,yang_1,1,0,O,O,VB,nsubj,SC,ARG0
757,3,cerpen_1,0,ada_1,2,0,O,O,NN,acl,VB,mod
757,5,ada_1,2,sekolah_1,4,0,O,O,VB,obl,NN,location
757,7,menginpirasi_1,5,baca_1,6,1,O,O,NN,obj,RB,ARG1
758,1,jadi_1,1,pustaka_1,0,1,O,O,VB,nsubj,NN,ARG0
758,3,jadi_1,1,tempat_1,2,1,O,O,VB,obj,NN,ARG1
758,4,nyaman_1,5,yang_1,3,0,O,O,JJ,nsubj,SC,ARG0
758,5,nyaman_1,5,paling_1,4,0,O,O,JJ,advmod,RB,mod
758,6,tempat_1,2,nyaman_1,5,0,O,O,NN,amod,JJ,mod
758,8,nyaman_1,5,sekolah_1,7,0,O,O,JJ,nmod,NN,unk
759,1,beli_1,3,ibu_1,0,1,O,ORG,VB,nsubj,NNP,ARG0
759,2,ibu_1,0,sri_1,1,0,ORG,ORG,NNP,flat,NNP,name
759,3,sri_1,1,yuni_1,2,0,ORG,PER,NNP,flat,NNP,name
759,5,beli_1,3,kue_1,4,1,O,O,VB,obj,FW,ARG1
759,6,kue_1,4,capit_1,5,0,O,O,FW,compound,FW,name
760,1,bajak_1,2,pak_1,0,1,O,ORG,VB,nsubj,NNP,ARG0
760,2,pak_1,0,ucok_1,1,0,ORG,PER,NNP,flat,NNP,name
760,4,bajak_1,2,sawah_1,3,1,O,O,VB,obj,VB,ARG1
760,6,sawah_1,3,teknologi_1,5,0,O,O,VB,nmod,NN,unk
760,7,teknologi_1,5,tani_1,6,0,O,O,NN,compound,NN,mod
760,8,modern_1,8,yang_1,7,0,O,O,JJ,nsubj,SC,ARG0
760,9,teknologi_1,5,modern_1,8,0,O,O,NN,amod,JJ,unk
761,1,cuci_1,2,ibu_1,0,1,O,O,VB,nsubj,NNP,ARG0
761,2,cuci_1,2,sedang_1,1,1,O,O,VB,advmod,MD,unk
761,4,cuci_1,2,piring_1,3,1,O,O,VB,obj,FW,ARG1
762,1,main_1,2,pak_1,0,1,O,ORG,VB,nsubj,NNP,ARG0
762,2,pak_1,0,andri_1,1,0,ORG,PER,NNP,flat,NNP,name
762,4,main_1,2,bola_1,3,1,O,O,VB,obj,NN,ARG1
762,6,main_1,2,sore_1,5,1,O,O,VB,obl,NN,ARG1
763,1,cari_1,2,rani_1,0,1,O,PER,VB,nsubj,NNP,ARG0
763,2,cari_1,2,sedang_1,1,1,O,O,VB,advmod,MD,unk
763,4,cari_1,2,buku_1,3,1,O,O,VB,obj,NN,ARG1
763,5,selip_1,5,yang_1,4,0,O,O,VB,nsubj:pass,SC,unk
763,6,buku_1,3,selip_1,5,0,O,O,NN,acl,VB,mod
764,1,pergi_1,1,kami_1,0,1,O,O,VB,nsubj,PRP,ARG0
764,3,pergi_1,1,kemah_1,2,1,O,O,VB,xcomp,NN,ARG1
764,5,kemah_1,2,gunung_1,4,0,O,LOC,NN,obl,NNP,ARG1
764,6,gunung_1,4,meru_1,5,0,LOC,O,NNP,flat,NNP,unk
765,2,ada_1,0,tikus_1,1,1,O,O,VB,obj,NN,ARG1
765,4,tikus_1,1,bawah_1,3,0,O,O,NN,nmod,NN,unk
765,5,bawah_1,3,ranjang_1,4,0,O,O,NN,compound,NN,mod
765,6,ranjang_1,4,tidur_1,5,0,O,O,NN,compound,NN,mod
766,1,pergi_1,1,linda_1,0,1,O,PER,VB,nsubj,NNP,ARG0
766,4,pergi_1,1,toko_1,3,1,O,O,VB,obl,NN,location
766,5,toko_1,3,cat_1,4,0,O,O,NN,compound,NN,mod
767,1,ada_1,2,aku_1,0,1,O,O,VB,nsubj,NNP,ARG1
767,2,ada_1,2,masih_1,1,1,O,O,VB,advmod,MD,unk
767,5,ada_1,2,rumah_1,4,1,O,O,VB,obl,NN,location
768,1,pergi_1,1,kami_1,0,1,O,O,VB,nsubj,PRP,ARG0
768,4,pergi_1,1,sana_1,3,1,O,O,VB,obl,NN,location
768,5,pergi_1,1,sekarang_1,4,1,O,O,VB,obl,NN,time
769,1,ada_1,2,ayah_1,0,1,O,O,VB,nsubj,NN,ARG0
769,2,ada_1,2,sedang_1,1,1,O,O,VB,advmod,MD,unk
769,5,ada_1,2,kantor_1,4,1,O,O,VB,obl,NN,location
770,1,masak_1,2,ibu_1,0,1,O,O,VB,nsubj,NNP,ARG0
770,2,ibu_1,0,rusni_1,1,0,O,PER,NNP,flat,NNP,name
770,5,masak_1,2,tadi_1,4,1,O,O,VB,obl,NN,ARG1
770,6,masak_1,2,pagi_1,5,1,O,O,VB,obl,NN,ARG1
771,1,libur_1,1,andini_1,0,1,O,PER,VB,nsubj,PR,ARG0
771,4,libur_1,1,pantai_1,3,1,O,O,VB,obl,NN,location
771,5,pantai_1,3,hari_1,4,0,O,O,NN,compound,NN,unk
772,1,jadi_1,1,telah_1,0,0,O,O,NN,case,SC,unk
772,2,pergi_1,5,jadi_1,1,1,O,O,VB,obl,NN,ARG1
772,3,jadi_1,1,kemarin_1,2,0,O,O,NN,compound,NN,mod
772,4,pergi_1,5,kami_1,3,1,O,O,VB,nsubj,PRP,ARG0
772,5,pergi_1,5,trauma_1,4,1,O,O,VB,amod,RB,unk
772,8,pergi_1,5,sana_1,7,1,O,O,VB,obl,PR,location
773,1,bersih_1,1,mita_1,0,1,O,PER,VB,nsubj,PRP,ARG0
773,3,bersih_1,1,rumah_1,2,1,O,O,VB,obj,NN,ARG1
774,1,kata_1,2,pak_1,0,1,O,ORG,VB,nsubj,NNP,ARG0
774,2,pak_1,0,dodi_1,1,0,ORG,O,NNP,flat,NNP,name
774,4,pergi_1,5,bu_1,3,0,O,ORG,VB,nsubj,NNP,ARG0
774,5,pergi_1,5,nia_1,4,0,O,PER,VB,nsubj,NNP,ARG0
774,6,kata_1,2,pergi_1,5,1,O,O,VB,ccomp,VB,ARG1
774,8,pergi_1,5,rumah_1,7,0,O,O,VB,obl,NN,location
774,9,rumah_1,7,jihan_1,8,0,O,PER,NN,flat,NN,name
774,10,magrib_1,10,belum_1,9,0,O,O,JJ,case,SC,unk
774,11,kata_1,2,magrib_1,10,1,O,O,VB,obl,JJ,ARG1
775,1,henti_1,1,tika_1,0,1,O,PER,VB,nsubj,SC,ARG0
775,3,henti_1,1,menang_1,2,1,O,O,VB,xcomp,JJ,unk
775,4,beli_1,5,telah_1,3,0,O,O,NN,case,SC,unk
775,5,beli_1,5,ayah_1,4,0,O,O,NN,nsubj,NN,ARG0
775,6,menang_1,2,beli_1,5,0,O,O,JJ,xcomp,NN,unk
775,7,beli_1,5,main_1,6,0,O,O,NN,obj,NN,ARG1
775,8,main_1,6,baru_1,7,0,O,O,NN,amod,JJ,mod
776,1,kata_1,2,ibu_1,0,1,O,O,VB,nsubj,NNP,ARG0
776,2,ibu_1,0,guru_1,1,0,O,O,NNP,flat,NNP,mod
776,4,selesai_1,6,bahwa_1,3,0,O,O,VB,mark,SC,unk
776,5,selesai_1,6,kami_1,4,0,O,O,VB,nsubj,PRP,ARG0
776,6,selesai_1,6,harus_1,5,0,O,O,VB,advmod,MD,unk
776,7,kata_1,2,selesai_1,6,1,O,O,VB,ccomp,VB,ARG1
776,8,selesai_1,6,soal_1,7,0,O,O,VB,obj,NN,ARG1
776,9,soal_1,7,uji_1,8,0,O,O,NN,compound,NN,unk
776,10,uji_1,8,hari_1,9,0,O,O,NN,compound,NN,unk
777,1,tertawa_1,1,saya_1,0,1,O,O,VB,nsubj,PRP,ARG0
777,3,lihat_1,3,ketika_1,2,0,O,O,VB,mark,SC,unk
777,4,tertawa_1,1,lihat_1,3,1,O,O,VB,advcl,VB,unk
777,5,lihat_1,3,acara_1,4,0,O,O,VB,obj,NN,ARG1
777,6,acara_1,4,komedi_1,5,0,O,O,NN,compound,NN,mod
777,8,lihat_1,3,televisi_1,7,0,O,O,VB,obl,NN,location
778,1,kata_1,2,pak_1,0,1,O,ORG,VB,nsubj,NNP,ARG0
778,2,pak_1,0,gilang_1,1,0,ORG,PER,NNP,flat,NNP,name
778,4,pulang_1,5,bahwa_1,3,0,O,O,VB,mark,SC,unk
778,5,pulang_1,5,ayah_1,4,0,O,O,VB,nsubj,NNP,ARG0
778,6,kata_1,2,pulang_1,5,1,O,O,VB,ccomp,VB,ARG1
778,7,pulang_1,5,lusa_1,6,0,O,O,VB,obj,NN,time
779,1,ikut_1,3,bulan_1,0,1,O,O,VB,obl,NN,time
779,2,bulan_1,0,depan_1,1,0,O,O,NN,amod,NN,mod
779,3,ikut_1,3,kami_1,2,1,O,O,VB,nsubj,PRP,ARG0
779,5,ikut_1,3,unbk_1,4,1,O,PER,VB,obj,NN,ARG1
779,7,ikut_1,3,serentak_1,6,1,O,O,VB,amod,NN,unk
780,1,layak_1,2,kue_1,0,1,O,PER,JJ,nsubj,FW,ARG0
780,4,layak_1,2,makan_1,3,1,O,O,JJ,advmod,VB,ARG1
781,3,obat_1,0,kadaluarsa_1,2,1,O,O,NN,acl,NN,unk
782,1,inap_1,3,malam_1,0,1,O,O,VB,obl,NN,time
782,3,inap_1,3,kami_1,2,1,O,O,VB,nsubj,PRP,ARG0
782,6,inap_1,3,hotel_1,5,1,O,O,VB,obl,NN,location
782,7,besar_1,7,yang_1,6,0,O,O,JJ,nsubj,SC,ARG0
782,8,hotel_1,5,besar_1,7,0,O,O,NN,amod,JJ,mod
783,1,pulang_1,1,jojon_1,0,1,O,PER,VB,nsubj,NNP,ARG0
783,4,pulang_1,1,rumah_1,3,1,O,O,VB,obl,NN,location
783,6,pulang_1,1,ayah_1,5,1,O,O,VB,obl,NNP,ARG1
783,7,pulang_1,1,marah_1,6,1,O,O,VB,punct,RB,unk
784,2,tuang_1,0,adon_1,1,1,O,O,VB,obj,NN,ARG1
784,4,loyang_1,4,dalam_1,3,0,O,O,NN,case,NN,unk
784,5,tuang_1,0,loyang_1,4,1,O,O,VB,obl,NN,ARG1
784,6,adon_2,6,telah_1,5,0,O,O,NN,case,SC,unk
784,7,tuang_1,0,adon_2,6,1,O,O,VB,obl,NN,ARG1
784,8,adon_2,6,dingin_1,7,0,O,O,NN,amod,RB,mod
785,1,beri_1,1,ibu_1,0,1,O,O,VB,nsubj,NNP,ARG0
785,3,beri_1,1,sup_1,2,1,O,O,VB,obj,NN,ARG1
785,4,sup_1,2,hangat_1,3,0,O,O,NN,amod,NN,mod
785,5,pulang_1,6,ketika_1,4,0,O,O,VB,mark,SC,unk
785,6,pulang_1,6,ayah_1,5,0,O,O,VB,nsubj,NNP,ARG0
785,7,beri_1,1,pulang_1,6,1,O,O,VB,advcl,VB,unk
786,1,tahu_1,2,pak_1,0,1,O,ORG,VB,nsubj,NNP,ARG0
786,2,pak_1,0,tono_1,1,0,ORG,PER,NNP,flat,NNP,name
786,4,komputer_1,4,bahwa_1,3,0,O,O,RB,mark,SC,unk
786,5,tahu_1,2,komputer_1,4,1,O,O,VB,advcl,RB,ARG1
786,6,tahu_1,2,rusak_1,5,1,O,O,VB,punct,JJ,unk
787,1,berangkat_1,1,andi_1,0,1,O,PER,VB,nsubj,NNP,ARG0
787,4,berangkat_1,1,sekolah_1,3,1,O,O,VB,obl,NN,location
788,1,dapat_1,1,ani_1,0,1,O,O,VB,nsubj,PR,ARG0
788,3,dapat_1,1,nilai_1,2,1,O,O,VB,obj,NN,ARG1
788,4,nilai_1,2,bagus_1,3,0,O,O,NN,amod,JJ,mod
788,6,dapat_1,1,hari_1,5,1,O,O,VB,obl,NN,time
788,7,hari_1,5,pertama_1,6,0,O,ORD,NN,nummod,OD,mod
789,1,berangkat_1,1,andre_1,0,1,O,PER,VB,nsubj,NNP,ARG0
789,4,berangkat_1,1,sekolah_1,3,1,O,O,VB,obl,NN,location
789,6,pagi_1,6,enam_1,5,0,O,CRD,NN,nummod,CD,unk
789,7,berangkat_1,1,pagi_1,6,1,O,O,VB,obl,NN,ARG1
790,2,pulang_1,4,kemarin_1,1,1,O,O,VB,obl,NN,ARG1
790,3,kemarin_1,1,sore_1,2,0,O,O,NN,compound,NN,mod
790,4,pulang_1,4,dinda_1,3,1,O,O,VB,nsubj,NN,ARG0
790,7,pulang_1,4,rumah_1,6,1,O,O,VB,obl,NN,location
791,1,jadi_1,2,musim_1,0,1,O,O,VB,nsubj:pass,NN,ARG0
791,2,musim_1,0,kemarau_1,1,0,O,O,NN,compound,NN,mod
791,5,jadi_1,2,bulan_1,4,1,O,O,VB,obl,NN,time
791,6,bulan_1,4,oktober_1,5,0,O,DAT,NN,flat,NNP,mod
792,1,dengar_1,2,andre_1,0,1,O,PER,VB,nsubj,NNP,ARG0
792,2,dengar_1,2,dapat_1,1,1,O,O,VB,advmod,MD,unk
792,5,dengar_1,2,baik_1,4,1,O,O,VB,amod,JJ,mod
792,7,dengar_1,2,kecil_1,6,1,O,O,VB,amod,JJ,unk
793,1,pindah_1,1,nuryati_1,0,1,O,PER,VB,nsubj,NNP,ARG0
793,4,pindah_1,1,bandung_1,3,1,O,GPE,VB,obl,NNP,location
793,5,meni_1,5,telah_1,4,0,O,O,VB,mark,SC,unk
793,6,pindah_1,1,meni_1,5,1,O,O,VB,advcl,VB,unk
794,1,minum_1,2,obat_1,0,1,O,O,NN,nsubj:pass,NN,ARG1
794,4,makan_1,4,telah_1,3,0,O,O,VB,case,SC,unk
794,5,minum_1,2,makan_1,4,1,O,O,NN,xcomp,VB,unk
794,6,makan_1,4,siang_1,5,0,O,O,VB,obj,NN,mod
795,1,terbit_1,1,matahari_1,0,1,O,O,VB,nsubj,NNP,ARG0
795,4,terbit_1,1,pagi_1,3,1,O,O,VB,obl,NN,time
795,5,pagi_1,3,hari_1,4,0,O,O,NN,compound,NN,mod
796,1,fajar_1,1,saat_1,0,0,O,O,NN,case,NN,unk
796,2,dengar_1,3,fajar_1,1,1,O,O,VB,obl,NN,ARG1
796,3,dengar_1,3,tiba_1,2,1,O,O,VB,advmod,VB,unk
796,5,dengar_1,3,suara_1,4,1,O,O,VB,obj,NN,ARG1
796,6,suara_1,4,ayam_1,5,0,O,O,NN,compound,NN,mod
796,7,ayam_1,5,jantan_1,6,0,O,O,NN,compound,NN,mod
796,8,dengar_1,3,kokok_1,7,1,O,O,VB,punct,NN,unk
797,1,pergi_1,1,ayah_1,0,1,O,O,VB,nsubj,NN,ARG0
797,3,pergi_1,1,pancing_1,2,1,O,O,VB,xcomp,NN,unk
797,4,pancing_1,2,minggu_1,3,0,O,O,NN,obj,VB,ARG1
797,5,pergi_1,1,sekali_1,4,1,O,O,VB,advmod,RB,unk
798,1,masuk_1,2,pak_1,0,1,O,ORG,VB,nsubj,NNP,ARG0
798,2,pak_1,0,ilham_1,1,0,ORG,PER,NNP,flat,NNP,mod
798,4,masuk_1,2,kantor_1,3,1,O,O,VB,obj,NN,location
799,1,dapat_1,2,zaman_1,0,1,O,O,VB,nsubj:pass,NN,time
799,2,dapat_1,2,dahulu_1,1,1,O,O,VB,advmod,NN,unk
799,5,dapat_1,2,raja_1,4,1,O,O,VB,obj,NN,ARG0
799,7,dapat_1,2,indonesia_1,6,1,O,GPE,VB,obl,NNP,location
800,1,tumbuh_1,1,pakcoy_1,0,1,O,PER,NN,nsubj,FW,ARG0
800,3,musim_1,3,ketika_1,2,0,O,O,NN,mark,SC,unk
800,4,tumbuh_1,1,musim_1,3,1,O,O,NN,advcl,NN,time
800,5,musim_1,3,kemarau_1,4,0,O,O,NN,amod,CC,mod
801,1,komunikasi_1,3,sekarang_1,0,1,O,O,VB,advmod,NN,unk
801,2,komunikasi_1,3,kami_1,1,1,O,O,VB,nsubj,PRP,ARG0
801,3,komunikasi_1,3,dapat_1,2,1,O,O,VB,advmod,MD,unk
801,6,komunikasi_1,3,mudah_1,5,1,O,O,VB,amod,JJ,mod
802,2,bahas_1,4,hal_1,1,1,O,O,VB,nsubj:pass,NN,unk
802,3,bahas_1,4,yang_1,2,1,O,O,VB,nsubj:pass,SC,unk
802,4,bahas_1,4,perlu_1,3,1,O,O,VB,advmod,MD,unk
802,6,rapat_1,6,saat_1,5,0,O,O,NN,case,NN,unk
802,7,bahas_1,4,rapat_1,6,1,O,O,VB,obl,NN,ARG1
802,8,bahas_1,4,nanti_1,7,1,O,O,VB,punct,NN,unk
803,1,laku_1,3,hari_1,0,1,O,O,VB,obl,NN,time
803,3,laku_1,3,murid_1,2,1,O,O,VB,nsubj,NN,ARG0
803,5,laku_1,3,upacara_1,4,1,O,O,VB,obj,NN,ARG1
803,6,upacara_1,4,bendera_1,5,0,O,O,NN,compound,JJ,mod
804,1,laksana_1,3,upacara_1,0,1,O,O,VB,nsubj:pass,NN,ARG1
804,2,upacara_1,0,turun_1,1,0,O,O,NN,compound,NN,mod
804,3,turun_1,1,bendera_1,2,0,O,O,NN,compound,NN,mod
804,6,laksana_1,3,hari_1,5,1,O,O,VB,obl,NN,time
804,7,hari_1,5,sabtu_1,6,0,O,DAT,NN,flat,NNP,mod
805,1,tanam_1,1,kakek_1,0,1,O,PER,VB,nsubj,NN,ARG0
805,3,tanam_1,1,cabe_1,2,1,O,O,VB,obj,NN,ARG1
805,5,tanam_1,1,halaman_1,4,1,O,O,VB,obl,NN,location
805,6,halaman_1,4,tadi_1,5,0,O,O,NN,nmod,NN,unk
805,7,tanam_1,1,pagi_1,6,1,O,O,VB,obl,NN,ARG1
806,1,mulai_1,2,upacara_1,0,1,O,O,VB,nsubj:pass,NN,ARG1
806,2,upacara_1,0,proklamasi_1,1,0,O,O,NN,compound,NN,mod
806,4,mulai_1,2,jam_1,3,1,O,O,VB,obj,NN,time
806,5,pagi_1,5,puluh_1,4,0,O,CRD,NN,nummod,CD,unk
806,6,jam_1,3,pagi_1,5,0,O,O,NN,compound,NN,unk
807,1,diproklamirkan_1,2,kemerdekaan_1,0,1,O,ORG,VB,nsubj:pass,NN,unk
807,2,kemerdekaan_1,0,indonesia_1,1,0,ORG,GPE,NN,flat,NNP,unk
807,5,diproklamirkan_1,2,tanggal_1,4,1,O,O,VB,obl,NN,ARG1
807,6,agustus_1,6,17_1,5,0,O,DAT,NNP,nummod,CD,unk
807,7,tanggal_1,4,agustus_1,6,0,O,O,NN,nmod,NNP,unk
807,8,agustus_1,6,1945_1,7,0,O,O,NNP,nummod,CD,mod
807,10,diproklamirkan_1,2,bapak_1,9,1,O,O,VB,obl,NNP,ARG1
807,11,bapak_1,9,soekarno_1,10,0,O,GPE,NNP,flat,NNP,name
808,1,berangkat_1,1,dinda_1,0,1,O,PER,VB,nsubj,NNP,ARG0
808,4,berangkat_1,1,jakarta_1,3,1,O,GPE,VB,obl,NN,location
808,5,hari_1,5,tiga_1,4,0,O,PRC,NN,nummod,CD,unk
808,6,jakarta_1,3,hari_1,5,0,GPE,O,NN,compound,NN,unk
808,7,lalu_1,7,yang_1,6,0,O,O,CC,nsubj,SC,ARG0
808,8,hari_1,5,lalu_1,7,0,O,O,NN,amod,CC,mod
809,1,laksana_1,3,senam_1,0,1,O,O,VB,nsubj:pass,CD,ARG0
809,2,senam_1,0,segar_1,1,0,O,O,CD,compound,NN,mod
809,3,segar_1,1,jasmani_1,2,0,O,O,NN,compound,VB,mod
809,6,laksana_1,3,senin_1,5,1,O,DAT,VB,obj,NNP,ARG1
810,1,lihat_1,1,dia_1,0,1,O,O,VB,nsubj:pass,PRP,ARG1
810,3,lihat_1,1,antusias_1,2,1,O,O,VB,amod,NN,mod
810,5,bicara_1,5,kali_1,4,0,O,O,VB,obl,NND,ARG1
810,6,lihat_1,1,bicara_1,5,1,O,O,VB,xcomp,VB,unk
810,7,bicara_1,5,politik_1,6,0,O,O,VB,obj,NN,ARG0
811,1,sedih_1,1,dia_1,0,1,O,O,VB,nsubj,PRP,ARG0
811,3,ingat_1,3,saat_1,2,0,O,O,VB,mark,NN,unk
811,4,sedih_1,1,ingat_1,3,1,O,O,VB,advcl,VB,unk
811,5,ingat_1,3,jadi_1,4,0,O,O,VB,obj,NN,ARG1
811,6,jadi_1,4,waktu_1,5,0,O,O,NN,compound,NN,time
812,1,jadi_1,4,peristiwa_1,0,1,O,O,VB,nsubj:pass,NNP,ARG0
812,2,peristiwa_1,0,pemberontakan_1,1,0,O,ORG,NNP,flat,NNP,unk
812,3,pemberontakan_1,1,g30s_1,2,0,ORG,O,NNP,flat,NNP,unk
812,4,g30s_1,2,pki_1,3,0,O,PER,NNP,flat,NNP,unk
812,7,jadi_1,4,tahun_1,6,1,O,O,VB,obl,NN,ARG1
812,8,tahun_1,6,1965_1,7,0,O,TIM,NN,nummod,CD,mod
813,1,luap_1,2,air_1,0,1,O,O,NN,nsubj,NNP,ARG0
813,2,air_1,0,selokan_1,1,0,O,O,NNP,compound,VB,unk
813,4,luap_1,2,pukul_1,3,1,O,O,NN,obj,NN,time
813,5,pagi_1,5,enam_1,4,0,O,CRD,NN,nummod,CD,unk
813,6,pukul_1,3,pagi_1,5,0,O,O,NN,compound,NN,unk
814,1,berangkat_1,3,besok_1,0,1,O,O,VB,advmod,NN,time
814,2,berangkat_1,3,lusa_1,1,1,O,O,VB,obl,NN,ARG1
814,3,berangkat_1,3,saya_1,2,1,O,O,VB,nsubj,PRP,ARG0
814,6,berangkat_1,3,bandung_1,5,1,O,GPE,VB,obl,NN,location
815,1,ajak_1,3,waktu_1,0,1,O,O,VB,nsubj:pass,NN,time
815,2,waktu_1,0,kecil_1,1,0,O,O,NN,amod,JJ,mod
815,5,ajak_1,3,ibu_1,4,1,O,O,VB,obj,NN,ARG0
815,6,ajak_1,3,pergi_1,5,1,O,O,VB,xcomp,VB,mod
815,7,pergi_1,5,unjung_1,6,0,O,O,VB,xcomp,VB,unk
815,8,unjung_1,6,nenek_1,7,0,O,O,VB,obj,NN,ARG1
816,1,asa_1,3,saat_1,0,1,O,O,NN,case,NN,unk
816,2,asa_1,3,hujan_1,1,1,O,O,NN,nsubj:pass,NN,unk
816,3,hujan_1,1,udara_1,2,0,O,O,NN,compound,NN,unk
816,5,panas_1,5,lebih_1,4,0,O,O,JJ,advmod,RB,mod
816,6,asa_1,3,panas_1,5,1,O,O,NN,amod,JJ,unk
817,1,jumpa_1,1,saya_1,0,1,O,O,NN,nsubj,PRP,ARG0
817,3,dinda_1,3,dengan_1,2,0,O,O,VB,case,SC,unk
817,4,jumpa_1,1,dinda_1,3,1,O,O,NN,obl,VB,ARG1
818,1,sadar_1,3,saat_1,0,1,O,O,VB,mark,NN,time
818,2,sadar_1,3,sakit_1,1,1,O,O,VB,amod,JJ,unk
818,3,sadar_1,3,kita_1,2,1,O,O,VB,nsubj,PRP,ARG0
818,5,sadar_1,3,penting_1,4,1,O,O,VB,obj,RB,ARG1
818,6,sadar_1,3,jaga_1,5,1,O,O,VB,xcomp,VB,unk
818,7,jaga_1,5,sehat_1,6,0,O,O,VB,obj,NN,ARG1
819,1,berangkat_1,1,paman_1,0,1,O,PER,VB,nsubj,NNP,ARG0
819,3,berangkat_1,1,layar_1,2,1,O,O,VB,xcomp,VB,ARG1
819,5,layar_1,2,pukul_1,4,0,O,O,VB,obl,NN,ARG1
819,6,pukul_1,4,enam_1,5,0,O,DAT,NN,nummod,CD,mod
820,1,saji_1,1,ibu_1,0,1,O,O,VB,nsubj,NNP,ARG0
820,3,saji_1,1,makan_1,2,1,O,O,VB,obj,NN,ARG1
821,1,mulai_1,2,acara_1,0,1,O,O,VB,nsubj:pass,NN,ARG0
821,2,acara_1,0,seminar_1,1,0,O,O,NN,compound,NN,mod
821,4,jam_1,4,satu_1,3,0,O,CRD,NN,nummod,CD,unk
821,5,mulai_1,2,jam_1,4,1,O,O,VB,obj,NN,ARG1
821,6,jam_1,4,lagi_1,5,0,O,O,NN,advmod,RB,mod
822,1,tunggu_1,1,kami_1,0,1,O,O,VB,nsubj,PRP,ARG0
822,4,tunggu_1,1,stasiun_1,3,1,O,O,VB,obl,NN,location
822,6,jam_1,6,tiga_1,5,0,QTY,CRD,NN,nummod,CD,unk
822,7,tunggu_1,1,jam_1,6,1,O,QTY,VB,obl,NN,ARG1
822,8,jam_1,6,lalu_1,7,0,QTY,O,NN,amod,CC,mod
823,1,cuci_1,1,aku_1,0,1,O,O,VB,nsubj,NNP,ARG0
823,3,cuci_1,1,kaki_1,2,1,O,O,VB,obj,NN,ARG1
823,4,tidur_1,4,belum_1,3,0,O,O,VB,case,SC,unk
823,5,cuci_1,1,tidur_1,4,1,O,O,VB,obl,VB,ARG1
824,1,jaga_1,1,kita_1,0,1,O,O,VB,nsubj,PRP,ARG0
824,3,jaga_1,1,satu_1,2,1,O,O,VB,obj,NN,ARG1
824,4,satu_1,2,bangsa_1,3,0,O,O,NN,compound,NN,mod
824,5,jaga_1,1,mulai_1,4,1,O,O,VB,advcl,VB,time
824,6,mulai_1,4,sekarang_1,5,0,O,O,VB,obj,NN,mod
825,1,hadir_1,3,pak_1,0,1,O,ORG,VB,nsubj,NNP,ARG0
825,2,pak_1,0,puguh_1,1,0,ORG,PER,NNP,flat,NNP,name
825,3,hadir_1,3,bisa_1,2,1,O,O,VB,advmod,MD,unk
825,6,hadir_1,3,sore_1,5,1,O,O,VB,obl,NN,ARG1
825,7,sore_1,5,hari_1,6,0,O,O,NN,compound,NN,mod
826,2,toko_1,0,buku_1,1,1,O,O,NN,compound,NN,mod
826,3,buku_1,1,buka_1,2,0,O,O,NN,compound,VB,unk
826,4,buku_1,1,jam_1,3,0,O,O,NN,compound,NN,unk
826,5,pagi_1,5,8_1,4,0,O,DAT,NN,nummod,CD,unk
826,6,jam_1,3,pagi_1,5,0,O,O,NN,compound,NN,unk
827,1,mampir_1,1,kita_1,0,1,O,O,VB,nsubj,PRP,ARG0
827,4,mampir_1,1,sini_1,3,1,O,O,VB,obl,NN,location
827,5,kali_1,5,lain_1,4,0,O,O,NND,amod,JJ,unk
827,6,mampir_1,1,kali_1,5,1,O,O,VB,obl,NND,ARG1
828,1,perhati_1,3,mulai_1,0,1,O,O,VB,advmod,NN,time
828,2,perhati_1,3,sekarang_1,1,1,O,O,VB,advmod,NN,unk
828,3,perhati_1,3,kalian_1,2,1,O,O,VB,nsubj,NN,ARG0
828,5,perhati_1,3,bersih_1,4,1,O,O,VB,obj,NN,ARG1
828,6,bersih_1,4,kelas_1,5,0,O,O,NN,compound,JJ,mod
829,1,malam_1,2,dia_1,0,1,O,O,NN,nsubj,PRP,ARG0
829,2,malam_1,2,bisa_1,1,1,O,O,NN,advmod,MD,unk
829,4,malam_1,2,hari_1,3,1,O,O,NN,obj,NN,mod
830,1,contek_1,1,dinda_1,0,1,O,PER,NN,nsubj,NN,ARG0
830,3,uji_1,3,saat_1,2,0,O,O,NN,case,NN,unk
830,4,contek_1,1,uji_1,3,1,O,O,NN,obl,NN,ARG1
831,2,adik_1,0,kuliah_1,1,1,O,O,NN,compound,NN,unk
831,4,adik_1,0,jakarta_1,3,1,O,GPE,NN,nmod,NN,unk
831,5,adik_1,0,tahun_1,4,1,O,O,NN,nmod,NN,unk
831,6,tahun_1,4,depan_1,5,0,O,O,NN,amod,NN,mod
832,3,pagi_1,1,pak_1,2,1,O,ORG,NN,flat,NNP,unk
832,4,pak_1,2,joko_1,3,0,ORG,O,NNP,flat,NNP,name
832,5,pagi_1,1,sepeda_1,4,1,O,O,NN,punct,VB,unk
833,1,pergi_1,2,bu_1,0,1,O,ORG,VB,nsubj,NNP,ARG0
833,2,bu_1,0,tati_1,1,0,ORG,PER,NNP,flat,NNP,name
833,4,pergi_1,2,libur_1,3,1,O,O,VB,xcomp,VB,unk
833,6,libur_1,3,jogja_1,5,0,O,O,VB,obl,NN,ARG1
833,7,jogja_1,5,hari_1,6,0,O,O,NN,compound,NN,unk
833,8,hari_1,6,senin_1,7,0,O,DAT,NN,compound,NNP,mod
834,1,datang_1,2,kalian_1,0,1,O,O,VB,nsubj,NN,ARG0
834,2,datang_1,2,boleh_1,1,1,O,O,VB,advmod,MD,unk
834,5,datang_1,2,rumah_1,4,1,O,O,VB,obl,NN,location
834,6,rumah_1,4,kapan_1,5,0,O,O,NN,nmod,NN,unk
834,7,datang_1,2,saja_1,6,1,O,O,VB,punct,RB,unk
835,2,kurang_1,4,musim_1,1,1,O,O,NN,nmod,NN,time
835,3,musim_1,1,kemarau_1,2,0,O,O,NN,compound,NN,unk
835,4,kurang_1,4,kami_1,3,1,O,O,NN,nsubj,PRP,ARG0
835,6,kurang_1,4,air_1,5,1,O,O,NN,compound,NN,ARG1
835,7,air_1,5,bersih_1,6,0,O,O,NN,amod,JJ,mod
836,1,pergi_1,1,kita_1,0,1,O,O,VB,nsubj,PRP,ARG0
836,3,pergi_1,1,pukul_1,2,1,O,O,VB,obj,NN,time
836,4,malam_1,4,tujuh_1,3,0,O,CRD,NN,nummod,CD,unk
836,5,pukul_1,2,malam_1,4,0,O,O,NN,compound,NN,unk
837,3,latih_1,1,musik_1,2,1,O,O,NN,compound,NN,ARG1
837,5,latih_1,1,hari_1,4,1,O,O,NN,compound,NN,unk
837,6,hari_1,4,minggu_1,5,0,O,DAT,NN,compound,NN,unk
838,1,temu_1,1,saya_1,0,1,O,O,VB,nsubj,PRP,ARG0
838,3,temu_1,1,pak_1,2,1,O,LOC,VB,obj,NN,ARG1
838,4,pak_1,2,ilham_1,3,0,LOC,O,NN,flat,NN,name
838,5,temu_1,1,besok_1,4,1,O,O,VB,punct,NN,time
839,1,laksana_1,3,baik_1,0,1,O,O,VB,nsubj:pass,NN,ARG0
839,2,baik_1,0,jalan_1,1,0,O,O,NN,compound,NN,ARG1
839,3,jalan_1,1,tol_1,2,0,O,O,NN,compound,NN,mod
839,6,laksana_1,3,waktu_1,5,1,O,O,VB,obl,NN,time
839,7,waktu_1,5,dekat_1,6,0,O,O,NN,amod,JJ,mdo
840,1,laku_1,1,atur_1,0,1,O,O,VB,nsubj,NN,ARG0
840,4,laku_1,1,sah_1,3,1,O,O,VB,obl,VB,ARG1
841,1,datang_1,1,natasha_1,0,1,O,PER,VB,nsubj,NNP,ARG0
841,4,datang_1,1,pesta_1,3,1,O,O,VB,obl,NN,ARG1
841,5,pesta_1,3,tadi_1,4,0,O,O,NN,nmod,NN,unk
841,6,datang_1,1,sore_1,5,1,O,O,VB,obl,NN,ARG1
842,1,kembali_1,1,paman_1,0,1,O,PER,VB,nsubj,NNP,ARG0
842,4,kembali_1,1,rumah_1,3,1,O,O,VB,obl,NN,location
842,5,malam_1,5,tadi_1,4,0,O,O,NN,compound,NN,unk
842,6,kembali_1,1,malam_1,5,1,O,O,VB,obl,NN,ARG1
843,1,berangkat_1,1,ayah_1,0,1,O,O,VB,nsubj,NN,ARG0
843,4,berangkat_1,1,kantor_1,3,1,O,O,VB,obl,NN,location
843,5,kantor_1,3,pukul_1,4,0,O,O,NN,compound,NN,unk
843,6,pagi_1,6,tujuh_1,5,0,O,CRD,NN,nummod,CD,unk
843,7,berangkat_1,1,pagi_1,6,1,O,O,VB,nummod,NN,unk
844,1,kerja_1,1,aku_1,0,1,O,O,VB,nsubj,NNP,ARG0
844,4,kerja_1,1,bulan_1,3,1,O,O,VB,obl,NN,time
844,5,lalu_1,5,yang_1,4,0,O,O,CC,nsubj,SC,ARG0
844,6,bulan_1,3,lalu_1,5,0,O,O,NN,amod,CC,mod
845,1,mulai_1,2,acara_1,0,1,O,O,VB,nsubj:pass,NN,ARG0
845,2,acara_1,0,diskusi_1,1,0,O,O,NN,compound,NN,mod
845,4,mulai_1,2,jam_1,3,1,O,O,VB,obj,NN,time
845,5,jam_1,3,delapan_1,4,0,O,PRC,NN,nummod,CD,unk
846,2,dapat_1,3,musim_1,1,1,O,O,VB,obl,NN,time
846,3,musim_1,1,kemarau_1,2,0,O,O,NN,compound,NN,unk
846,5,dapat_1,3,sumur_1,4,1,O,O,VB,obj,NN,ARG0
846,6,sumur_1,4,kering_1,5,0,O,O,NN,amod,JJ,mod
847,1,ingat_1,2,hari_1,0,1,O,O,VB,nsubj:pass,NN,ARG0
847,2,hari_1,0,pahlawan_1,1,0,O,O,NN,compound,NN,mod
847,5,ingat_1,2,tanggal_1,4,1,O,O,VB,obl,NN,ARG1
847,6,november_1,6,puluh_1,5,0,MON,GPE,NNP,nummod,CD,unk
847,7,tanggal_1,4,november_1,6,0,O,MON,NN,nmod,NNP,unk
848,1,janji_1,1,dinda_1,0,1,O,PER,VB,nsubj,NNP,ARG0
848,3,janji_1,1,datang_1,2,1,O,O,VB,xcomp,VB,ARG1
848,5,datang_1,2,sini_1,4,0,O,O,VB,obl,NN,location
848,6,sini_1,4,besok_1,5,0,O,O,NN,nmod,NN,unk
848,7,janji_1,1,pagi_1,6,1,O,O,VB,obl,NN,ARG1
849,1,berangkat_1,2,kami_1,0,1,O,O,VB,nsubj,PRP,ARG0
849,2,berangkat_1,2,keluarga_1,1,1,O,O,VB,advmod,NN,unk
849,5,berangkat_1,2,lampung_1,4,1,O,GPE,VB,obl,NNP,location
849,6,berangkat_1,2,besok_1,5,1,O,O,VB,punct,VB,time
850,2,jadi_1,0,cela_1,1,1,O,O,VB,obj,VB,ARG1
850,3,cela_1,1,lalu_1,2,0,O,O,VB,amod,CC,unk
850,4,cela_1,1,lintas_1,3,0,O,O,VB,compound,NN,unk
850,6,cela_1,1,simpang_1,5,0,O,LOC,VB,nmod,NNP,unk
850,7,simpang_1,5,jomin_1,6,0,LOC,O,NNP,flat,NNP,unk
850,8,jadi_1,0,pukul_1,7,1,O,O,VB,obl,NN,time
850,9,pukul_1,7,sembilan_1,8,0,O,GPE,NN,nummod,CD,unk
851,1,pergi_1,1,aku_1,0,1,O,O,VB,nsubj,NNP,ARG0
851,4,pergi_1,1,rumah_1,3,1,O,O,VB,obl,NN,location
851,5,rumah_1,3,paman_1,4,0,O,PRD,NN,compound,NN,mod
851,6,pergi_1,1,sekarang_1,5,1,O,O,VB,obl,NN,time
852,1,kata_1,2,ibu_1,0,1,O,O,VB,nsubj,NNP,ARG0
852,2,ibu_1,0,nisa_1,1,0,O,PER,NNP,flat,NNP,name
852,4,tidur_1,4,bisa_1,3,0,O,O,VB,advmod,MD,unk
852,5,kata_1,2,tidur_1,4,1,O,O,VB,xcomp,VB,unk
853,1,laksana_1,1,kuliah_1,0,1,O,O,VB,nsubj:pass,NN,ARG0
853,3,jam_1,3,besok_1,2,0,O,O,NN,case,NN,unk
853,4,laksana_1,1,jam_1,3,1,O,O,VB,obl,NN,ARG1
853,5,jam_1,3,tiga_1,4,0,O,PRC,NN,nummod,CD,mod
854,1,buat_1,1,bibi_1,0,1,O,PER,VB,nsubj,NNP,ARG0
854,3,buat_1,1,janji_1,2,1,O,O,VB,obj,NN,ARG1
854,4,janji_1,2,rapat_1,3,0,O,O,NN,compound,NN,mod
854,5,rapat_1,3,minggu_1,4,0,O,CRD,NN,compound,NN,unk
854,6,minggu_1,4,depan_1,5,0,CRD,O,NN,amod,NN,mod
855,1,main_1,3,anak_1,0,1,O,O,VB,nsubj,NN,ARG0
855,3,main_1,3,sedang_1,2,1,O,O,VB,advmod,MD,unk
855,6,main_1,3,tanah_1,5,1,O,O,VB,obl,NN,location
855,7,tanah_1,5,lapang_1,6,0,O,O,NN,compound,NN,mod
856,2,diskus_1,4,mahasiswa_1,1,1,O,O,VB,nsubj,NN,ARG0
856,4,diskus_1,4,sedang_1,3,1,O,O,VB,advmod,MD,unk
856,7,diskus_1,4,ruang_1,6,1,O,O,VB,obl,NN,ARG1
856,8,ruang_1,6,kelas_1,7,0,O,O,NN,compound,NN,mod
857,1,masak_1,2,ibu_1,0,1,O,O,VB,nsubj,NNP,ARG0
857,2,masak_1,2,sedang_1,1,1,O,O,VB,advmod,MD,unk
857,5,masak_1,2,dapur_1,4,1,O,O,VB,obl,NN,location
858,1,tidur_1,3,kucing_1,0,1,O,O,VB,nsubj,NN,ARG0
858,3,tidur_1,3,sedang_1,2,1,O,O,VB,advmod,MD,unk
858,6,tidur_1,3,teras_1,5,1,O,O,VB,obl,NN,location
858,7,teras_1,5,beranda_1,6,0,O,O,NN,compound,NN,mod
858,8,teras_1,5,rumah_1,7,0,O,O,NN,compound,NN,unk
859,1,baca_1,2,dimas_1,0,1,O,PER,VB,nsubj,NNP,ARG0
859,2,baca_1,2,sedang_1,1,1,O,O,VB,advmod,MD,unk
859,5,baca_1,2,pustaka_1,4,1,O,O,VB,obl,NN,location
860,1,menung_1,2,andra_1,0,1,O,PER,VB,nsubj:pass,NNP,ARG0
860,2,menung_1,2,sedang_1,1,1,O,O,VB,advmod,MD,unk
860,5,menung_1,2,bangku_1,4,1,O,O,VB,obl,NN,location
860,6,bangku_1,4,taman_1,5,0,O,O,NN,compound,NN,mod
861,1,ceramah_1,3,pak_1,0,1,O,ORG,VB,nsubj,NNP,ARG0
861,2,pak_1,0,jamal_1,1,0,ORG,PER,NNP,flat,NNP,name
861,3,ceramah_1,3,sedang_1,2,1,O,O,VB,advmod,MD,unk
861,6,ceramah_1,3,depan_1,5,1,O,O,VB,obl,NN,location
861,8,ceramah_1,3,jamaah_1,7,1,O,O,VB,obl,NN,ARG1
862,1,tengger_1,2,burung_1,0,1,O,O,VB,nsubj,NN,ARG0
862,5,dahan_1,5,atas_1,4,0,O,O,NN,case,NN,unk
862,6,tengger_1,2,dahan_1,5,1,O,O,VB,obl,NN,ARG1
862,7,dahan_1,5,pohon_1,6,0,O,O,NN,compound,NNP,mod
863,1,libur_1,4,keluarga_1,0,1,O,O,VB,nsubj,NN,ARG0
863,2,keluarga_1,0,pak_1,1,0,O,PER,NN,flat,NNP,mod
863,3,pak_1,1,broto_1,2,0,PER,O,NNP,flat,NNP,name
863,4,libur_1,4,sedang_1,3,1,O,O,VB,advmod,MD,unk
863,7,libur_1,4,pulau_1,6,1,O,O,VB,obl,NN,ARG1
863,8,pulau_1,6,bal_1,7,0,O,LOC,NN,flat,NNP,unk
864,2,wisata_1,2,siswa_1,1,1,O,O,NN,nsubj,NN,ARG0
864,5,wisata_1,2,yogyakarta_1,4,1,O,GPE,NN,obl,NNP,location
865,1,baik_1,1,ayah_1,0,1,O,O,VB,nsubj,NN,ARG0
865,3,baik_1,1,sepeda_1,2,1,O,PRD,VB,obj,VB,ARG1
865,4,sepeda_1,2,adik_1,3,0,PRD,O,VB,compound,NN,mod
865,6,sepeda_1,2,garasi_1,5,0,PRD,O,VB,nmod,NN,unk
865,7,baik_1,1,kemarin_1,6,1,O,O,VB,punct,NN,time
866,1,kerja_1,1,kakak_1,0,1,O,O,VB,nsubj,NN,ARG0
866,3,kerja_1,1,tugas_1,2,1,O,O,VB,obj,NN,ARG1
866,4,tugas_1,2,sekolah_1,3,0,O,O,NN,compound,NN,mod
866,6,tugas_1,2,ruang_1,5,0,O,O,NN,nmod,NN,unk
866,7,ruang_1,5,tengah_1,6,0,O,O,NN,compound,NN,mod
866,8,ruang_1,5,malam_1,7,0,O,O,NN,compound,NN,unk
867,1,pergi_1,1,kami_1,0,1,O,O,VB,nsubj,PRP,ARG0
867,4,pergi_1,1,pustaka_1,3,1,O,O,VB,obl,NN,ARG1
867,5,pustaka_1,3,sabtu_1,4,0,O,CRD,NN,compound,PR,unk
867,6,pergi_1,1,lalu_1,5,1,O,O,VB,amod,CC,unk
868,2,ibu_1,0,panggang_1,1,1,O,O,NN,acl,NN,unk
868,3,panggang_1,1,roti_1,2,0,O,O,NN,obj,VB,ARG1
868,5,panggang_1,1,oven_1,4,0,O,O,NN,obl,NN,mod
869,1,potong_1,3,bapak_1,0,1,O,O,VB,nsubj,NNP,ARG0
869,2,bapak_1,0,siman_1,1,0,O,O,NNP,flat,NNP,name
869,5,potong_1,3,rumput_1,4,1,O,O,VB,obj,VB,ARG1
869,7,rumput_1,4,kebun_1,6,0,O,O,VB,nmod,NN,unk
869,8,kebun_1,6,pagi_1,7,0,O,O,NN,compound,NN,unk
870,1,pergi_1,1,ibu_1,0,1,O,O,VB,nsubj,NNP,ARG0
870,4,pergi_1,1,rumah_1,3,1,O,O,VB,obl,NN,location
870,5,rumah_1,3,sakit_1,4,0,O,O,NN,compound,JJ,mod
871,1,pergi_1,1,ayah_1,0,1,O,O,VB,nsubj,NN,ARG0
871,4,pergi_1,1,bandara_1,3,1,O,O,VB,obl,NN,location
872,1,siram_1,1,gani_1,0,1,O,PER,VB,nsubj,NNP,ARG0
872,3,siram_1,1,tanam_1,2,1,O,O,VB,obj,NN,ARG1
873,1,main_1,1,adik_1,0,1,O,O,VB,nsubj,NN,ARG0
873,3,main_1,1,kelereng_1,2,1,O,O,VB,obj,NN,ARG1
873,5,main_1,1,sore_1,4,1,O,O,VB,obl,NN,time
873,6,sore_1,4,hari_1,5,0,O,O,NN,compound,NN,mod
874,1,lari_1,1,andi_1,0,1,O,PER,VB,nsubj,NNP,ARG0
874,4,lari_1,1,lapang_1,3,1,O,O,VB,obl,NN,ARG1
874,5,lapang_1,3,bola_1,4,0,O,O,NN,compound,NN,unk
875,1,sapu_1,1,sinta_1,0,1,O,PER,VB,nsubj,NNP,ARG0
875,3,sapu_1,1,halaman_1,2,1,O,O,VB,obj,NN,ARG1
875,4,halaman_1,2,rumah_1,3,0,O,O,NN,compound,NN,mod
876,1,kerja_1,1,linta_1,0,1,O,PER,VB,nsubj,NNP,ARG0
876,3,kerja_1,1,pr_1,2,1,O,ORG,VB,obj,NN,ARG1
876,4,kerja_1,1,pukul_1,3,1,O,O,VB,obj,NN,time
876,5,malam_1,5,tujuh_1,4,0,O,CRD,NN,nummod,CD,unk
876,6,kerja_1,1,malam_1,5,1,O,O,VB,obj,NN,ARG1
877,1,baca_1,1,agus_1,0,1,O,PER,VB,nsubj,NNP,ARG0
877,3,baca_1,1,koran_1,2,1,O,O,VB,obj,NN,ARG1
877,5,baca_1,1,depan_1,4,1,O,O,VB,obl,NN,location
877,6,baca_1,1,rumah_1,5,1,O,O,VB,obl,NN,ARG1
878,1,lari_1,1,intan_1,0,1,O,PER,VB,nsubj,NN,ARG0
878,4,lari_1,1,lapang_1,3,1,O,O,VB,obl,NN,ARG1
878,5,lapang_1,3,gerilya_1,4,0,O,LOC,NN,flat,NN,unk
878,6,lari_1,1,pukul_1,5,1,O,O,VB,obl,NN,time
878,7,pukul_1,5,enam_1,6,0,O,DAT,NN,nummod,CD,mod
879,1,renang_1,1,adik_1,0,1,O,O,VB,nsubj,NN,ARG0
879,4,renang_1,1,kolam_1,3,1,O,O,VB,obl,NN,location
879,5,kolam_1,3,renang_2,4,0,O,O,NN,compound,VB,mod
880,2,ibu_1,0,masak_1,1,1,O,O,NNP,compound,VB,unk
880,3,masak_1,1,nasi_1,2,0,O,O,VB,compound,NN,ARG1
880,5,ibu_1,0,dapur_1,4,1,O,O,NNP,nmod,NN,unk
880,7,dapur_1,4,hari_1,6,0,O,O,NN,compound,NN,unk
881,2,ayah_1,0,cangkul_1,1,1,O,O,NN,acl,NN,unk
881,4,cangkul_1,1,kebun_1,3,0,O,O,NN,obl,NN,location
882,1,naik_1,1,andi_1,0,1,O,PER,VB,nsubj,NNP,ARG0
882,3,naik_1,1,helikopter_1,2,1,O,O,VB,obj,NN,ARG1
883,1,juara_1,1,aku_1,0,1,O,O,NN,nsubj,NN,ARG0
883,3,lomba_1,3,pertama_1,2,0,O,CRD,VB,nummod,OD,unk
883,4,juara_1,1,lomba_1,3,1,O,O,NN,obj,VB,ARG1
883,5,lomba_1,3,baca_1,4,0,O,O,VB,acl,NN,mod
883,6,baca_1,4,quran_1,5,0,O,GPE,NN,obj,NN,ARG1
884,1,jadi_1,1,hendra_1,0,1,O,PER,VB,nsubj,NNP,ARG0
884,3,jadi_1,1,alumni_1,2,1,O,O,VB,obj,NN,ARG1
884,4,alumni_1,2,lulus_1,3,0,O,O,NN,compound,NN,unk
884,5,lulus_1,3,baik_1,4,0,O,O,NN,amod,JJ,unk
884,7,alumni_1,2,universitas_1,6,0,O,ORG,NN,nmod,NNP,unk
884,8,universitas_1,6,islam_1,7,0,ORG,LOC,NNP,flat,NNP,mod
884,9,islam_1,7,malang_1,8,0,LOC,GPE,NNP,flat,NNP,location
884,10,jadi_1,1,tahun_1,9,1,O,O,VB,obl,NN,time
884,11,tahun_1,9,2013_1,10,0,O,DAT,NN,nummod,CD,mod
885,1,dagang_1,2,ayah_1,0,1,O,O,NN,nsubj,RB,ARG0
885,2,dagang_1,2,adalah_1,1,1,O,O,NN,cop,VB,unk
886,1,jual_1,1,adi_1,0,1,O,PER,VB,nsubj,NNP,ARG0
886,3,jual_1,1,kayu_1,2,1,O,O,VB,obj,NN,ARG1
886,5,kayu_1,2,kota_1,4,0,O,LOC,NN,nmod,NNP,unk
886,6,kota_1,4,jakarta_1,5,0,LOC,NOR,NNP,flat,NNP,unk
887,3,indah_1,3,sangat_1,2,0,O,O,JJ,advmod,RB,mod
887,4,huni_1,0,indah_1,3,1,O,O,NN,amod,JJ,unk
888,1,buat_1,2,hujan_1,0,1,O,O,VB,nsubj,NN,ARG0
888,2,hujan_1,0,lebat_1,1,0,O,O,NN,amod,NN,mod
888,4,buat_1,2,sinyal_1,3,1,O,O,VB,obj,NN,ARG1
888,5,sinyal_1,3,internet_1,4,0,O,O,NN,compound,NN,mod
888,6,buat_1,2,ganggu_1,5,1,O,O,VB,punct,VB,ARG1
889,1,rupa_1,2,hari_1,0,1,O,O,VB,nsubj,NN,ARG0
889,4,rupa_1,2,madam_1,3,1,O,O,VB,obj,NN,ARG1
889,5,madam_1,3,listrik_1,4,0,O,O,NN,compound,NN,unk
889,6,listrik_1,4,gilir_1,5,0,O,O,NN,compound,NN,unk
890,1,warna_1,3,mobil_1,0,1,O,PER,VB,nsubj,NN,ARG0
890,2,mobil_1,0,mewah_1,1,0,PER,O,NN,compound,NN,mod
890,5,warna_1,3,merah_1,4,1,O,O,VB,obj,JJ,ARG1
891,1,ada_1,2,majalah_1,0,1,O,O,VB,nsubj,NN,ARG0
891,5,meja_1,5,atas_1,4,0,O,O,NN,case,NN,unk
891,6,ada_1,2,meja_1,5,1,O,O,VB,obl,NN,ARG1
891,7,meja_1,5,ajar_1,6,0,O,O,NN,compound,VB,mod
892,1,lolos_1,1,ani_1,0,1,O,PER,NNP,nsubj,NNP,ARG0
892,3,lolos_1,1,ikut_1,2,1,O,O,NNP,xcomp,VB,ARG1
892,4,ikut_1,2,uji_1,3,0,O,O,VB,obj,NN,ARG1
892,5,keluar_1,5,yang_1,4,0,O,O,VB,nsubj:pass,SC,unk
892,6,uji_1,3,keluar_1,5,0,O,O,NN,acl,VB,mod
892,8,keluar_1,5,usaha_1,7,0,O,O,VB,obl,NN,ARG0
893,1,sertifikat_1,2,rumah_1,0,1,O,O,VB,nsubj,NN,ARG0
893,5,sertifikat_1,2,nama_1,4,1,O,O,VB,obl,NN,ARG1
893,6,nama_1,4,herlinda_1,5,0,O,LOC,NN,flat,NNP,name
894,1,ada_1,2,orang_1,0,1,O,O,VB,nsubj,NN,ARG0
894,5,ada_1,2,luar_1,4,1,O,O,VB,obl,NN,location
894,6,luar_1,4,rumah_1,5,0,O,O,NN,nmod,NN,mod
894,8,ada_1,2,tadi_1,7,1,O,O,VB,obl,NN,ARG1
895,1,tinggal_1,1,nenek_1,0,1,O,O,VB,nsubj,RB,ARG0
895,3,tinggal_1,1,tadi_1,2,1,O,O,VB,obl,NN,ARG1
895,4,tinggal_1,1,pagi_1,3,1,O,O,VB,obl,NN,ARG1
895,5,tinggal_1,1,pukul_1,4,1,O,O,VB,obl,NN,ARG1
895,6,pukul_1,4,enam_1,5,0,O,DAT,NN,nummod,CD,mod
896,1,pergi_1,1,diana_1,0,1,O,PER,VB,nsubj,SC,ARG0
896,4,pergi_1,1,sekolah_1,3,1,O,O,VB,obl,NN,location
896,5,sekolah_1,3,naik_1,4,0,O,O,NN,acl,VB,unk
896,6,naik_1,4,sepeda_1,5,0,O,O,VB,obj,VB,ARG1
896,7,sepeda_1,5,motor_1,6,0,O,LOC,VB,compound,NN,mod
897,1,pulang_1,1,ayah_1,0,1,O,O,VB,nsubj,NN,ARG0
897,4,pulang_1,1,desa_1,3,1,O,O,VB,obl,NN,location
898,1,ajar_1,1,ayah_1,0,1,O,O,VB,nsubj,NN,ARG0
898,4,ajar_1,1,sekolah_1,3,1,O,O,VB,obl,NNP,location
898,5,sekolah_1,3,dasar_1,4,0,O,O,NNP,flat,NNP,mod
898,6,dasar_1,4,negeri_1,5,0,O,O,NNP,flat,NNP,mod
898,7,negeri_1,5,taman_1,6,0,O,O,NNP,flat,NNP,unk
898,8,taman_1,6,01_1,7,0,O,EVT,NNP,nummod,CD,unk
899,1,main_1,1,adik_1,0,1,O,O,VB,nsubj,NN,ARG0
899,3,main_1,1,boneka_1,2,1,O,O,VB,obj,PRP,ARG1
899,4,boneka_1,2,barbie_1,3,0,O,LOC,PRP,flat,NNP,name
900,1,tabrak_1,2,mobil_1,0,1,O,PER,VB,nsubj,NN,ARG0
900,4,tabrak_1,2,pagar_1,3,1,O,O,VB,obj,NN,ARG1
900,5,pagar_1,3,rumah_1,4,0,O,O,NN,compound,NN,mod
900,6,rusak_1,6,sampai_1,5,0,O,O,JJ,case,SC,unk
900,7,tabrak_1,2,rusak_1,6,1,O,O,VB,amod,JJ,unk
901,1,beri_1,1,ani_1,0,1,O,PER,VB,nsubj,NNP,ARG0
901,3,beri_1,1,ucap_1,2,1,O,O,VB,obj,NN,ARG1
901,4,ucap_1,2,selamat_1,3,0,O,O,NN,amod,JJ,mod
901,6,ucap_1,2,adik_1,5,0,O,O,NN,nmod,RB,unk
901,7,adik_1,5,tadi_1,6,0,O,O,RB,nmod,VB,unk
901,8,beri_1,1,pagi_1,7,1,O,O,VB,obl,NN,ARG1
